{"version": 0.6, "generator": "Overpass API 0.7.60.6 e2dc3e5b", "osm3s": {"timestamp_osm_base": "2023-06-29T13:47:35Z", "copyright": "The data included in this document is from www.openstreetmap.org. The data is made available under ODbL."}, "elements": [{"type": "node", "id": 367059785, "lat": 47.3718372, "lon": 8.5282237}, {"type": "node", "id": 367059787, "lat": 47.3717601, "lon": 8.5283651}, {"type": "node", "id": 367059789, "lat": 47.3720443, "lon": 8.5287014}, {"type": "node", "id": 367059793, "lat": 47.3721211, "lon": 8.5285606}, {"type": "node", "id": 367060133, "lat": 47.3713968, "lon": 8.5285706}, {"type": "node", "id": 367060140, "lat": 47.3714765, "lon": 8.5284473}, {"type": "node", "id": 1354646193, "lat": 47.3713767, "lon": 8.5284993}, {"type": "node", "id": 2184651764, "lat": 47.3714931, "lon": 8.528505}, {"type": "node", "id": 2184651765, "lat": 47.3715335, "lon": 8.5285436}, {"type": "node", "id": 2261078308, "lat": 47.3715726, "lon": 8.5284342}, {"type": "node", "id": 2261078310, "lat": 47.3715835, "lon": 8.5283093}, {"type": "node", "id": 2261078314, "lat": 47.3716439, "lon": 8.5284355}, {"type": "node", "id": 2261078316, "lat": 47.3716623, "lon": 8.5284012}, {"type": "node", "id": 2261078317, "lat": 47.3716696, "lon": 8.5285473}, {"type": "node", "id": 2261078320, "lat": 47.3716965, "lon": 8.5284969}, {"type": "node", "id": 2261078328, "lat": 47.3718167, "lon": 8.528495}, {"type": "node", "id": 2261078329, "lat": 47.3718374, "lon": 8.528457}, {"type": "node", "id": 2261078337, "lat": 47.371889, "lon": 8.5282852}, {"type": "node", "id": 2261078338, "lat": 47.3719003, "lon": 8.5282645}, {"type": "node", "id": 2261078345, "lat": 47.3719457, "lon": 8.5286483}, {"type": "node", "id": 2261078351, "lat": 47.3719669, "lon": 8.5286095}, {"type": "node", "id": 2261078364, "lat": 47.3720444, "lon": 8.5284694}, {"type": "node", "id": 2261078365, "lat": 47.3720555, "lon": 8.528449}, {"type": "node", "id": 3163049661, "lat": 47.3715244, "lon": 8.5287211, "tags": {"entrance": "yes"}}, {"type": "node", "id": 3163049761, "lat": 47.371645, "lon": 8.5285186, "tags": {"entrance": "yes"}}, {"type": "node", "id": 3163049762, "lat": 47.3713889, "lon": 8.5283373, "tags": {"entrance": "yes"}}, {"type": "node", "id": 3163049865, "lat": 47.3713867, "lon": 8.528535, "tags": {"entrance": "yes"}}, {"type": "node", "id": 3457047363, "lat": 47.3713858, "lon": 8.5283787}, {"type": "node", "id": 3457047364, "lat": 47.3713957, "lon": 8.5282477}, {"type": "node", "id": 3457047366, "lat": 47.3714713, "lon": 8.5286585}, {"type": "node", "id": 3457047367, "lat": 47.3714805, "lon": 8.5283943}, {"type": "node", "id": 3457047368, "lat": 47.3714904, "lon": 8.5282634}, {"type": "node", "id": 3457047373, "lat": 47.3715802, "lon": 8.528787}, {"type": "node", "id": 3457047375, "lat": 47.3716412, "lon": 8.5286743}, {"type": "node", "id": 3457047384, "lat": 47.3719953, "lon": 8.5284114}, {"type": "node", "id": 3457047385, "lat": 47.3720065, "lon": 8.5283908}, {"type": "node", "id": 3457047387, "lat": 47.3720144, "lon": 8.5284341}, {"type": "node", "id": 3457047388, "lat": 47.3720256, "lon": 8.5284135}, {"type": "node", "id": 7629897707, "lat": 47.3715305, "lon": 8.5285492}, {"type": "node", "id": 7629897727, "lat": 47.3716424, "lon": 8.5286721}, {"type": "way", "id": 32650098, "nodes": [367059785, 367059787, 2261078329, 2261078328, 2261078345, 2261078351, 367059789, 367059793, 2261078364, 2261078365, 3457047388, 3457047387, 3457047384, 3457047385, 2261078338, 2261078337, 367059785], "tags": {"addr:city": "Z\u00fcrich", "addr:country": "CH", "addr:housenumber": "15", "addr:postcode": "8004", "addr:street": "Werdg\u00e4sschen", "building": "yes", "name": "Alters- und Pflegeheim St. Peter und Paul"}}, {"type": "way", "id": 216705999, "nodes": [2261078310, 2261078316, 2261078314, 2261078320, 2261078317, 3163049761, 2261078308, 2261078310], "tags": {"addr:city": "Z\u00fcrich", "addr:housenumber": "38", "addr:postcode": "8004", "addr:street": "Hallwylstrasse", "building": "yes"}}, {"type": "way", "id": 338595284, "nodes": [3457047366, 3163049661, 3457047373, 3457047375, 7629897727, 2184651765, 7629897707, 3457047366], "tags": {"addr:city": "Z\u00fcrich", "addr:country": "CH", "addr:housenumber": "36", "addr:postcode": "8004", "addr:street": "Hallwylstrasse", "building": "apartments"}}, {"type": "way", "id": 338595285, "nodes": [3457047364, 3163049762, 3457047363, 3457047367, 3457047368, 3457047364], "tags": {"addr:city": "Z\u00fcrich", "addr:country": "CH", "addr:housenumber": "22", "addr:postcode": "8004", "addr:street": "Morgartenstrasse", "building": "apartments"}}, {"type": "way", "id": 338595290, "nodes": [367060133, 3457047366, 7629897707, 2184651764, 367060140, 3457047367, 3457047363, 1354646193, 3163049865, 367060133], "tags": {"addr:city": "Z\u00fcrich", "addr:country": "CH", "addr:housenumber": "40", "addr:postcode": "8004", "addr:street": "Hallwylstrasse", "building": "apartments"}}]}