{"version": 0.6, "generator": "Overpass API 0.7.60.6 e2dc3e5b", "osm3s": {"timestamp_osm_base": "2023-06-29T12:15:43Z", "copyright": "The data included in this document is from www.openstreetmap.org. The data is made available under ODbL."}, "elements": [{"type": "node", "id": 2205041371, "lat": 47.3714208, "lon": 8.5409825, "tags": {"addr:city": "Z\u00fcrich", "addr:country": "CH", "addr:housenumber": "20", "addr:postcode": "8001", "addr:street": "Schl\u00fcsselgasse"}}, {"type": "node", "id": 2925788327, "lat": 47.3714802, "lon": 8.5409737}, {"type": "node", "id": 2925788329, "lat": 47.3715137, "lon": 8.5410969}, {"type": "node", "id": 2925788330, "lat": 47.3715333, "lon": 8.5412041}, {"type": "node", "id": 2925788332, "lat": 47.3715514, "lon": 8.540971}, {"type": "node", "id": 2925788334, "lat": 47.3715608, "lon": 8.5410851}, {"type": "node", "id": 2925788337, "lat": 47.3715643, "lon": 8.541076}, {"type": "node", "id": 2925788339, "lat": 47.3715753, "lon": 8.5411855}, {"type": "node", "id": 2925788343, "lat": 47.3715861, "lon": 8.5411874}, {"type": "node", "id": 2925788347, "lat": 47.3716033, "lon": 8.5411418}, {"type": "node", "id": 2925788348, "lat": 47.3716067, "lon": 8.5411619}, {"type": "node", "id": 2925788349, "lat": 47.3716082, "lon": 8.540971}, {"type": "node", "id": 2925788350, "lat": 47.3716095, "lon": 8.5411756}, {"type": "node", "id": 2925788352, "lat": 47.3716129, "lon": 8.54106}, {"type": "node", "id": 2925788353, "lat": 47.3716185, "lon": 8.541057}, {"type": "node", "id": 2925788356, "lat": 47.3716232, "lon": 8.5411277}, {"type": "node", "id": 2925788358, "lat": 47.3716247, "lon": 8.5411342}, {"type": "node", "id": 2927394909, "lat": 47.3714958, "lon": 8.5411699, "tags": {"addr:city": "Z\u00fcrich", "addr:country": "CH", "addr:housenumber": "3", "addr:postcode": "8001", "addr:street": "Weggengasse"}}, {"type": "node", "id": 2927395046, "lat": 47.3713008, "lon": 8.5411805}, {"type": "node", "id": 2927395049, "lat": 47.3713024, "lon": 8.5410101}, {"type": "node", "id": 2927395052, "lat": 47.371388, "lon": 8.5411797}, {"type": "node", "id": 2927395055, "lat": 47.3713938, "lon": 8.5411878}, {"type": "node", "id": 2927395057, "lat": 47.3713965, "lon": 8.5410007}, {"type": "node", "id": 2927395061, "lat": 47.3714002, "lon": 8.5412416}, {"type": "node", "id": 2927395062, "lat": 47.3714018, "lon": 8.5411991}, {"type": "node", "id": 2927395064, "lat": 47.3714495, "lon": 8.5409743}, {"type": "node", "id": 2927395066, "lat": 47.3715097, "lon": 8.5412213}, {"type": "node", "id": 6635185154, "lat": 47.371388, "lon": 8.5411883}, {"type": "node", "id": 6635191163, "lat": 47.3713958, "lon": 8.5411877}, {"type": "node", "id": 6635191164, "lat": 47.371394, "lon": 8.5411068}, {"type": "node", "id": 6635191165, "lat": 47.3713967, "lon": 8.5411065}, {"type": "node", "id": 6635191166, "lat": 47.3714797, "lon": 8.54111}, {"type": "node", "id": 6635191167, "lat": 47.3713971, "lon": 8.5409893}, {"type": "way", "id": 289029063, "nodes": [2925788349, 2925788332, 2925788337, 2925788352, 2925788353, 2925788349], "tags": {"addr:city": "Z\u00fcrich", "addr:country": "CH", "addr:housenumber": "11", "addr:postcode": "8001", "addr:street": "St. Peterhofstatt", "building": "yes", "source": "Stadt Z\u00fcrich Open Government Data; Geomatik + Vermessung; Tiefbau- und Entsorgungsdepartement"}}, {"type": "way", "id": 289029064, "nodes": [2925788332, 2925788327, 2925788329, 2925788334, 2925788337, 2925788332], "tags": {"addr:city": "Z\u00fcrich", "addr:country": "CH", "addr:housenumber": "12", "addr:postcode": "8001", "addr:street": "St. Peterhofstatt", "building": "yes", "source": "Stadt Z\u00fcrich Open Government Data; Geomatik + Vermessung; Tiefbau- und Entsorgungsdepartement"}}, {"type": "way", "id": 289029070, "nodes": [2925788329, 2925788330, 2925788339, 2925788343, 2925788350, 2925788348, 2925788347, 2925788358, 2925788356, 2925788352, 2925788337, 2925788334, 2925788329], "tags": {"addr:city": "Z\u00fcrich", "addr:country": "CH", "addr:housenumber": "6", "addr:postcode": "8001", "addr:street": "Weggengasse", "building": "yes", "source": "Stadt Z\u00fcrich Open Government Data; Geomatik + Vermessung; Tiefbau- und Entsorgungsdepartement"}}, {"type": "way", "id": 289187676, "nodes": [2927395064, 2205041371, 6635191167, 2927395057, 6635191165, 6635191164, 2927395055, 6635191163, 2927395062, 2927395061, 2927395066, 2927394909, 6635191166, 2927395064], "tags": {"addr:city": "Z\u00fcrich", "addr:country": "CH", "addr:postcode": "8001", "building": "yes", "source": "Stadt Z\u00fcrich Open Government Data; Geomatik + Vermessung; Tiefbau- und Entsorgungsdepartement"}}, {"type": "way", "id": 289187694, "nodes": [2927395057, 2927395049, 2927395046, 2927395052, 6635185154, 2927395055, 6635191164, 6635191165, 2927395057], "tags": {"addr:city": "Z\u00fcrich", "addr:country": "CH", "addr:housenumber": "18", "addr:postcode": "8001", "addr:street": "Schl\u00fcsselgasse", "building": "yes", "name": "Zum kleinen Christoffel", "source": "Stadt Z\u00fcrich Open Government Data; Geomatik + Vermessung; Tiefbau- und Entsorgungsdepartement"}}]}