{"version": 0.6, "generator": "Overpass API 0.7.60.6 e2dc3e5b", "osm3s": {"timestamp_osm_base": "2023-06-29T15:24:04Z", "copyright": "The data included in this document is from www.openstreetmap.org. The data is made available under ODbL."}, "elements": [{"type": "node", "id": 357190653, "lat": 47.3678224, "lon": 8.5401709}, {"type": "node", "id": 357190654, "lat": 47.3675948, "lon": 8.5402399}, {"type": "node", "id": 357190656, "lat": 47.367711, "lon": 8.5410784}, {"type": "node", "id": 357190657, "lat": 47.367938, "lon": 8.5410095}, {"type": "node", "id": 358130643, "lat": 47.36827, "lon": 8.540704}, {"type": "node", "id": 1042858318, "lat": 47.3670459, "lon": 8.5409254}, {"type": "node", "id": 1042858324, "lat": 47.3670956, "lon": 8.5408116}, {"type": "node", "id": 1042858342, "lat": 47.3670832, "lon": 8.5409133}, {"type": "node", "id": 1042858362, "lat": 47.3670058, "lon": 8.5408395}, {"type": "node", "id": 1042858378, "lat": 47.3670136, "lon": 8.5408947}, {"type": "node", "id": 1042858410, "lat": 47.3670261, "lon": 8.5407931}, {"type": "node", "id": 1042858415, "lat": 47.3670633, "lon": 8.5407809}, {"type": "node", "id": 1042858427, "lat": 47.3671035, "lon": 8.5408668}, {"type": "node", "id": 1042890460, "lat": 47.3672071, "lon": 8.5411577}, {"type": "node", "id": 1042890594, "lat": 47.3672145, "lon": 8.5412131}, {"type": "node", "id": 1042890622, "lat": 47.3672619, "lon": 8.5411993}, {"type": "node", "id": 1042890659, "lat": 47.3672545, "lon": 8.5411439}, {"type": "node", "id": 2938529542, "lat": 47.3675533, "lon": 8.5416565, "tags": {"addr:city": "Z\u00fcrich", "addr:country": "CH", "addr:housenumber": "1", "addr:postcode": "8001", "addr:street": "Stadthausquai"}}, {"type": "node", "id": 2938529544, "lat": 47.3681614, "lon": 8.5414452, "tags": {"addr:city": "Z\u00fcrich", "addr:country": "CH", "addr:housenumber": "10", "addr:postcode": "8001", "addr:street": "B\u00f6rsenstrasse"}}, {"type": "node", "id": 2938529545, "lat": 47.3683237, "lon": 8.5417125, "tags": {"addr:city": "Z\u00fcrich", "addr:country": "CH", "addr:housenumber": "11", "addr:postcode": "8001", "addr:street": "Stadthausquai"}}, {"type": "node", "id": 2938529546, "lat": 47.3681488, "lon": 8.5408154, "tags": {"addr:city": "Z\u00fcrich", "addr:country": "CH", "addr:housenumber": "12", "addr:postcode": "8001", "addr:street": "B\u00f6rsenstrasse"}}, {"type": "node", "id": 2938529547, "lat": 47.3682823, "lon": 8.5411466, "tags": {"addr:city": "Z\u00fcrich", "addr:country": "CH", "addr:housenumber": "12", "addr:postcode": "8001", "addr:street": "Fraum\u00fcnsterstrasse"}}, {"type": "node", "id": 2938529548, "lat": 47.3684996, "lon": 8.5417241, "tags": {"addr:city": "Z\u00fcrich", "addr:country": "CH", "addr:housenumber": "13", "addr:postcode": "8001", "addr:street": "Stadthausquai"}}, {"type": "node", "id": 2938529549, "lat": 47.3684862, "lon": 8.5410853, "tags": {"addr:city": "Z\u00fcrich", "addr:country": "CH", "addr:housenumber": "14", "addr:postcode": "8001", "addr:street": "Fraum\u00fcnsterstrasse"}}, {"type": "node", "id": 2938529553, "lat": 47.3675382, "lon": 8.5413702, "tags": {"addr:city": "Z\u00fcrich", "addr:country": "CH", "addr:housenumber": "2", "addr:postcode": "8001", "addr:street": "Fraum\u00fcnsterstrasse"}}, {"type": "node", "id": 2938529554, "lat": 47.3674669, "lon": 8.5415224, "tags": {"addr:city": "Z\u00fcrich", "addr:country": "CH", "addr:housenumber": "2", "addr:postcode": "8001", "addr:street": "Lochmannstrasse"}}, {"type": "node", "id": 2938529555, "lat": 47.3682843, "lon": 8.5409027, "tags": {"addr:city": "Z\u00fcrich", "addr:country": "CH", "addr:housenumber": "9", "addr:postcode": "8001", "addr:street": "Fraum\u00fcnsterstrasse"}}, {"type": "node", "id": 2938529564, "lat": 47.3674614, "lon": 8.5413939}, {"type": "node", "id": 2938529565, "lat": 47.3674724, "lon": 8.5416509}, {"type": "node", "id": 2938529569, "lat": 47.3675985, "lon": 8.5414527}, {"type": "node", "id": 2938529570, "lat": 47.3676059, "lon": 8.5415615}, {"type": "node", "id": 2938529571, "lat": 47.3676075, "lon": 8.5414516}, {"type": "node", "id": 2938529572, "lat": 47.3676093, "lon": 8.5414671}, {"type": "node", "id": 2938529573, "lat": 47.3676121, "lon": 8.5403638}, {"type": "node", "id": 2938529574, "lat": 47.3676132, "lon": 8.5415464}, {"type": "node", "id": 2938529575, "lat": 47.3676132, "lon": 8.5415619}, {"type": "node", "id": 2938529576, "lat": 47.3676168, "lon": 8.5413461}, {"type": "node", "id": 2938529577, "lat": 47.3676149, "lon": 8.5403629}, {"type": "node", "id": 2938529578, "lat": 47.367632, "lon": 8.5414628}, {"type": "node", "id": 2938529579, "lat": 47.3676343, "lon": 8.541662}, {"type": "node", "id": 2938529580, "lat": 47.3676385, "lon": 8.5415478}, {"type": "node", "id": 2938529581, "lat": 47.3676621, "lon": 8.5414912}, {"type": "node", "id": 2938529582, "lat": 47.3676622, "lon": 8.5415056}, {"type": "node", "id": 2938529583, "lat": 47.3676647, "lon": 8.5414518}, {"type": "node", "id": 2938529584, "lat": 47.3676669, "lon": 8.5414868}, {"type": "node", "id": 2938529585, "lat": 47.3676676, "lon": 8.5415095}, {"type": "node", "id": 2938529586, "lat": 47.367668, "lon": 8.5415478}, {"type": "node", "id": 2938529589, "lat": 47.3676936, "lon": 8.5409537}, {"type": "node", "id": 2938529590, "lat": 47.3676969, "lon": 8.5409527}, {"type": "node", "id": 2938529591, "lat": 47.367736, "lon": 8.5413117}, {"type": "node", "id": 2938529592, "lat": 47.367752, "lon": 8.5414321}, {"type": "node", "id": 2938529593, "lat": 47.3677557, "lon": 8.5416713}, {"type": "node", "id": 2938529594, "lat": 47.367759, "lon": 8.5415317}, {"type": "node", "id": 2938529597, "lat": 47.367841, "lon": 8.5414266}, {"type": "node", "id": 2938529598, "lat": 47.3678476, "lon": 8.541535}, {"type": "node", "id": 2938529599, "lat": 47.3678531, "lon": 8.5412738}, {"type": "node", "id": 2938529600, "lat": 47.3678735, "lon": 8.5414178}, {"type": "node", "id": 2938530101, "lat": 47.3678769, "lon": 8.5416806}, {"type": "node", "id": 2938530102, "lat": 47.3678794, "lon": 8.5415365}, {"type": "node", "id": 2938530103, "lat": 47.3679042, "lon": 8.5414206}, {"type": "node", "id": 2938530104, "lat": 47.3679077, "lon": 8.5414734}, {"type": "node", "id": 2938530105, "lat": 47.3679104, "lon": 8.5415229}, {"type": "node", "id": 2938530106, "lat": 47.3679139, "lon": 8.5414047}, {"type": "node", "id": 2938530107, "lat": 47.367914, "lon": 8.5414206}, {"type": "node", "id": 2938530108, "lat": 47.3679199, "lon": 8.5415237}, {"type": "node", "id": 2938530109, "lat": 47.3679207, "lon": 8.5415376}, {"type": "node", "id": 2938530111, "lat": 47.3680119, "lon": 8.5412274}, {"type": "node", "id": 2938530112, "lat": 47.3680256, "lon": 8.5414589}, {"type": "node", "id": 2938530113, "lat": 47.3680373, "lon": 8.5416894}, {"type": "node", "id": 2938530131, "lat": 47.3681315, "lon": 8.5406922}, {"type": "node", "id": 2938530132, "lat": 47.368147, "lon": 8.5411876}, {"type": "node", "id": 2938530133, "lat": 47.3681657, "lon": 8.5409394}, {"type": "node", "id": 2938530134, "lat": 47.3681752, "lon": 8.5417033}, {"type": "node", "id": 2938530144, "lat": 47.3682626, "lon": 8.5406503}, {"type": "node", "id": 2938530146, "lat": 47.3683767, "lon": 8.5406716}, {"type": "node", "id": 2938530148, "lat": 47.3684031, "lon": 8.5408661}, {"type": "node", "id": 2938530154, "lat": 47.3685482, "lon": 8.5410671}, {"type": "node", "id": 2938530157, "lat": 47.3685845, "lon": 8.5417306}, {"type": "node", "id": 2938530159, "lat": 47.3685964, "lon": 8.5414033}, {"type": "node", "id": 4963727836, "lat": 47.3679138, "lon": 8.5408576, "tags": {"addr:city": "Z\u00fcrich", "addr:country": "CH", "addr:housenumber": "15", "addr:postcode": "8001", "addr:street": "B\u00f6rsenstrasse"}}, {"type": "node", "id": 4963727837, "lat": 47.3678418, "lon": 8.5403396, "tags": {"addr:city": "Z\u00fcrich", "addr:country": "CH", "addr:housenumber": "17", "addr:postcode": "8001", "addr:street": "B\u00f6rsenstrasse"}}, {"type": "node", "id": 4963727838, "lat": 47.3677039, "lon": 8.5402068, "tags": {"addr:city": "Z\u00fcrich", "addr:country": "CH", "addr:housenumber": "2", "addr:postcode": "8001", "addr:street": "Bahnhofstrasse"}}, {"type": "node", "id": 5281831649, "lat": 47.3681581, "lon": 8.5411842}, {"type": "node", "id": 5281831650, "lat": 47.3681856, "lon": 8.5417039}, {"type": "node", "id": 5761644794, "lat": 47.3679208, "lon": 8.5408855}, {"type": "node", "id": 5761644795, "lat": 47.3679178, "lon": 8.5408864}, {"type": "node", "id": 5761644796, "lat": 47.3678398, "lon": 8.5402957}, {"type": "node", "id": 5761644797, "lat": 47.3678358, "lon": 8.5402969}, {"type": "node", "id": 9082172808, "lat": 47.3678255, "lon": 8.5401935, "tags": {"camera:mount": "wall", "camera:type": "dome", "man_made": "surveillance", "surveillance": "outdoor", "surveillance:type": "camera"}}, {"type": "node", "id": 9082172811, "lat": 47.3676338, "lon": 8.5404985, "tags": {"camera:mount": "wall", "camera:type": "dome", "man_made": "surveillance", "surveillance": "outdoor", "surveillance:type": "camera"}}, {"type": "node", "id": 9082172814, "lat": 47.3676166, "lon": 8.5403748, "tags": {"camera:mount": "wall", "camera:type": "dome", "man_made": "surveillance", "surveillance": "outdoor", "surveillance:type": "camera"}}, {"type": "node", "id": 9082185017, "lat": 47.3676257, "lon": 8.5404403, "tags": {"camera:mount": "wall", "camera:type": "dome", "man_made": "surveillance", "surveillance": "outdoor", "surveillance:type": "camera"}}, {"type": "node", "id": 9082185018, "lat": 47.367805, "lon": 8.5401762, "tags": {"camera:mount": "wall", "camera:type": "dome", "man_made": "surveillance", "surveillance": "outdoor", "surveillance:type": "camera"}}, {"type": "node", "id": 9082185021, "lat": 47.3677082, "lon": 8.5410587, "tags": {"camera:mount": "wall", "camera:type": "dome", "man_made": "surveillance", "surveillance": "outdoor", "surveillance:type": "camera"}}, {"type": "node", "id": 9082185022, "lat": 47.3679349, "lon": 8.5409875, "tags": {"camera:mount": "wall", "camera:type": "dome", "man_made": "surveillance", "surveillance": "outdoor", "surveillance:type": "camera"}}, {"type": "node", "id": 9082185023, "lat": 47.3676076, "lon": 8.540236, "tags": {"camera:mount": "wall", "camera:type": "dome", "man_made": "surveillance", "surveillance": "outdoor", "surveillance:type": "camera"}}, {"type": "node", "id": 9082185040, "lat": 47.3679169, "lon": 8.5410159, "tags": {"camera:mount": "wall", "camera:type": "dome", "man_made": "surveillance", "surveillance": "outdoor", "surveillance:type": "camera"}}, {"type": "node", "id": 9082185042, "lat": 47.36773, "lon": 8.5410726, "tags": {"camera:mount": "wall", "camera:type": "dome", "man_made": "surveillance", "surveillance": "outdoor", "surveillance:type": "camera"}}, {"type": "way", "id": 31894166, "nodes": [357190653, 9082185018, 4963727838, 9082185023, 357190654, 2938529573, 2938529577, 9082172814, 9082185017, 9082172811, 2938529590, 2938529589, 9082185021, 357190656, 9082185042, 9082185040, 357190657, 9082185022, 5761644794, 5761644795, 4963727836, 4963727837, 5761644797, 5761644796, 9082172808, 357190653], "tags": {"building": "commercial", "building:levels": "5", "name": "Schweizerische Nationalbank", "owner": "Schweizerische Nationalbank", "roof:levels": "1", "source": "Stadt Z\u00fcrich Open Government Data; Geomatik + Vermessung; Tiefbau- und Entsorgungsdepartement", "wikidata": "Q29574408"}}, {"type": "way", "id": 89967873, "nodes": [1042858415, 1042858324, 1042858427, 1042858342, 1042858318, 1042858378, 1042858362, 1042858410, 1042858415], "tags": {"building": "roof", "layer": "1", "name": "Musikpavillon am B\u00fcrkliplatz", "start_date": "1908..1909"}}, {"type": "way", "id": 89971425, "nodes": [1042890659, 1042890622, 1042890594, 1042890460, 1042890659], "tags": {"addr:housenumber": "1", "addr:street": "Fraum\u00fcnsterstrasse", "air_conditioning": "no", "amenity": "cafe", "building": "kiosk", "building:levels": "1", "indoor_seating": "no", "name": "B\u00fcrkli Beiz", "opening_hours": "\"Depends on weather and events\"", "outdoor_seating": "yes", "payment:credit_cards": "yes", "payment:debit_cards": "no", "source": "Bing", "wheelchair": "yes"}}, {"type": "way", "id": 290296830, "nodes": [2938530154, 2938529549, 2938529547, 5281831649, 2938530132, 2938529544, 2938530134, 5281831650, 2938529545, 2938529548, 2938530157, 2938530159, 2938530154], "tags": {"addr:city": "Z\u00fcrich", "addr:country": "CH", "addr:postcode": "8001", "building": "commercial", "name": "Metropol", "note": "Bis 2012 im Besitz der Bank Clariden Leu/Credit Suisse", "owner": "Schweizerische Nationalbank (SNB)", "source": "Stadt Z\u00fcrich Open Government Data; Geomatik + Vermessung; Tiefbau- und Entsorgungsdepartement", "start_date": "1893", "wikidata": "Q29574344"}}, {"type": "way", "id": 290296831, "nodes": [2938529576, 2938529553, 2938529564, 2938529554, 2938529565, 2938529542, 2938529579, 2938529580, 2938529574, 2938529575, 2938529570, 2938529569, 2938529571, 2938529572, 2938529578, 2938529576], "tags": {"addr:city": "Z\u00fcrich", "addr:country": "CH", "addr:postcode": "8001", "building": "yes", "source": "Stadt Z\u00fcrich Open Government Data; Geomatik + Vermessung; Tiefbau- und Entsorgungsdepartement", "wikidata": "Q29933522"}}, {"type": "way", "id": 290296832, "nodes": [2938530144, 2938530131, 2938529546, 2938530133, 2938529555, 2938530148, 2938530146, 358130643, 2938530144], "tags": {"addr:city": "Z\u00fcrich", "addr:country": "CH", "addr:postcode": "8001", "building": "yes", "name": "Zum L\u00f6wensteig", "source": "Stadt Z\u00fcrich Open Government Data; Geomatik + Vermessung; Tiefbau- und Entsorgungsdepartement"}}, {"type": "way", "id": 290296849, "nodes": [2938529576, 2938529578, 2938529583, 2938529584, 2938529581, 2938529582, 2938529585, 2938529586, 2938529580, 2938529579, 2938529593, 2938529594, 2938529592, 2938529591, 2938529576], "tags": {"addr:city": "Z\u00fcrich", "addr:country": "CH", "addr:housenumber": "3", "addr:postcode": "8001", "addr:street": "Stadthausquai", "building": "yes", "source": "Stadt Z\u00fcrich Open Government Data; Geomatik + Vermessung; Tiefbau- und Entsorgungsdepartement", "wikidata": "Q29933522"}}, {"type": "way", "id": 290296850, "nodes": [2938529591, 2938529592, 2938529594, 2938529593, 2938530101, 2938530102, 2938529598, 2938529597, 2938529600, 2938529599, 2938529591], "tags": {"addr:city": "Z\u00fcrich", "addr:country": "CH", "addr:housenumber": "5", "addr:postcode": "8001", "addr:street": "Stadthausquai", "building": "yes", "source": "Stadt Z\u00fcrich Open Government Data; Geomatik + Vermessung; Tiefbau- und Entsorgungsdepartement", "wikidata": "Q29933522"}}, {"type": "way", "id": 290296851, "nodes": [2938530113, 2938530112, 2938530104, 2938530105, 2938530108, 2938530109, 2938530102, 2938530101, 2938530113], "tags": {"addr:city": "Z\u00fcrich", "addr:country": "CH", "addr:housenumber": "7", "addr:postcode": "8001", "addr:street": "Stadthausquai", "building": "yes", "source": "Stadt Z\u00fcrich Open Government Data; Geomatik + Vermessung; Tiefbau- und Entsorgungsdepartement", "wikidata": "Q29933522"}}, {"type": "way", "id": 290296852, "nodes": [2938530112, 2938530111, 2938529599, 2938529600, 2938530106, 2938530107, 2938530103, 2938530104, 2938530112], "tags": {"addr:city": "Z\u00fcrich", "addr:country": "CH", "addr:housenumber": "8", "addr:postcode": "8001", "addr:street": "Fraum\u00fcnsterstrasse", "building": "yes", "source": "Stadt Z\u00fcrich Open Government Data; Geomatik + Vermessung; Tiefbau- und Entsorgungsdepartement", "wikidata": "Q29933522"}}]}