{"version": 0.6, "generator": "Overpass API 0.7.60.6 e2dc3e5b", "osm3s": {"timestamp_osm_base": "2023-06-29T10:57:15Z", "copyright": "The data included in this document is from www.openstreetmap.org. The data is made available under ODbL."}, "elements": [{"type": "node", "id": 387850499, "lat": 47.3754548, "lon": 8.5452356}, {"type": "node", "id": 387850500, "lat": 47.3754021, "lon": 8.5450523}, {"type": "node", "id": 387850502, "lat": 47.3754159, "lon": 8.544902}, {"type": "node", "id": 387850507, "lat": 47.3754959, "lon": 8.5446762}, {"type": "node", "id": 387850508, "lat": 47.3755326, "lon": 8.5448276}, {"type": "node", "id": 387850509, "lat": 47.3759359, "lon": 8.5449309}, {"type": "node", "id": 387850510, "lat": 47.3757131, "lon": 8.5450705}, {"type": "node", "id": 387850513, "lat": 47.3756685, "lon": 8.5449272}, {"type": "node", "id": 387850514, "lat": 47.3756068, "lon": 8.5447252}, {"type": "node", "id": 387850515, "lat": 47.3756627, "lon": 8.5446677}, {"type": "node", "id": 387850516, "lat": 47.3758395, "lon": 8.5446524}, {"type": "node", "id": 387850517, "lat": 47.3758588, "lon": 8.5448075}, {"type": "node", "id": 632531329, "lat": 47.3755172, "lon": 8.5447481, "tags": {"addr:city": "Z\u00fcrich", "addr:country": "CH", "addr:housenumber": "12", "addr:postcode": "8001", "addr:street": "Gr\u00e4bligasse"}}, {"type": "node", "id": 632531334, "lat": 47.3754122, "lon": 8.544684, "tags": {"addr:city": "Z\u00fcrich", "addr:country": "CH", "addr:housenumber": "28", "addr:postcode": "8001", "addr:street": "Z\u00e4hringerstrasse"}}, {"type": "node", "id": 632531335, "lat": 47.3756281, "lon": 8.5447944, "tags": {"addr:city": "Z\u00fcrich", "addr:country": "CH", "addr:housenumber": "9", "addr:postcode": "8001", "addr:street": "Gr\u00e4bligasse"}}, {"type": "node", "id": 656327809, "lat": 47.3757508, "lon": 8.5446617, "tags": {"addr:city": "Z\u00fcrich", "addr:country": "CH", "addr:housenumber": "32", "addr:postcode": "8001", "addr:street": "Z\u00e4hringerstrasse"}}, {"type": "node", "id": 660831215, "lat": 47.375654, "lon": 8.5451073}, {"type": "node", "id": 1452161404, "lat": 47.3756521, "lon": 8.5448775}, {"type": "node", "id": 1452161409, "lat": 47.3758528, "lon": 8.5447632}, {"type": "node", "id": 1586370814, "lat": 47.3753499, "lon": 8.5446885}, {"type": "node", "id": 1586370815, "lat": 47.3753563, "lon": 8.5448886}, {"type": "node", "id": 1586370816, "lat": 47.375451, "lon": 8.5450219}, {"type": "node", "id": 1964294449, "lat": 47.375582, "lon": 8.5449888}, {"type": "node", "id": 1964294450, "lat": 47.3756118, "lon": 8.5449689}, {"type": "node", "id": 1967408066, "lat": 47.3754299, "lon": 8.5449502}, {"type": "node", "id": 1967408067, "lat": 47.375547, "lon": 8.5448772, "tags": {"barrier": "gate"}}, {"type": "node", "id": 2906823831, "lat": 47.3754113, "lon": 8.5448846}, {"type": "node", "id": 2906823832, "lat": 47.3754646, "lon": 8.5450687}, {"type": "node", "id": 2906823833, "lat": 47.3755153, "lon": 8.5450331}, {"type": "node", "id": 2906823834, "lat": 47.3755393, "lon": 8.5448235}, {"type": "node", "id": 2906823835, "lat": 47.3755569, "lon": 8.5451698}, {"type": "node", "id": 2906840336, "lat": 47.3758903, "lon": 8.5446491}, {"type": "node", "id": 2906840337, "lat": 47.3758964, "lon": 8.5447862}, {"type": "node", "id": 2960912931, "lat": 47.3758862, "lon": 8.5449638, "tags": {"addr:housenumber": "61", "addr:street": "Seilergraben", "entrance": "yes"}}, {"type": "node", "id": 3939281934, "lat": 47.3755488, "lon": 8.545175, "tags": {"addr:housenumber": "53", "addr:street": "Seilergraben", "entrance": "main", "source": "survey"}}, {"type": "node", "id": 3939281935, "lat": 47.3756424, "lon": 8.5451148, "tags": {"addr:housenumber": "55", "addr:street": "Seilergraben", "entrance": "main", "source": "survey"}}, {"type": "way", "id": 33854813, "nodes": [387850509, 2960912931, 387850510, 387850513, 387850517, 1452161409, 387850516, 2906840336, 2906840337, 387850509], "tags": {"addr:city": "Z\u00fcrich", "addr:country": "CH", "addr:housenumber": "61", "addr:postcode": "8001", "addr:street": "Seilergraben", "building": "office", "building:levels": "6", "source": "Stadt Z\u00fcrich Open Government Data; Geomatik + Vermessung; Tiefbau- und Entsorgungsdepartement"}}, {"type": "way", "id": 33854814, "nodes": [1452161409, 1452161404, 632531335, 387850514, 387850515, 656327809, 387850516, 1452161409], "tags": {"addr:city": "Z\u00fcrich", "addr:country": "CH", "addr:postcode": "8001", "building": "yes", "source": "Stadt Z\u00fcrich Open Government Data; Geomatik + Vermessung; Tiefbau- und Entsorgungsdepartement"}}, {"type": "way", "id": 51791008, "nodes": [2906823833, 1964294449, 1964294450, 660831215, 3939281935, 2906823835, 2906823833], "tags": {"building": "apartments", "building:levels": "5", "roof:levels": "1", "source": "Stadt Z\u00fcrich Open Government Data; Geomatik + Vermessung; Tiefbau- und Entsorgungsdepartement"}}, {"type": "way", "id": 145204600, "nodes": [1586370815, 1586370814, 632531334, 387850507, 632531329, 2906823834, 387850508, 387850502, 2906823831, 1586370815], "tags": {"addr:city": "Z\u00fcrich", "addr:country": "CH", "addr:postcode": "8001", "building": "apartments", "building:levels": "5", "roof:levels": "1", "source": "Stadt Z\u00fcrich Open Government Data; Geomatik + Vermessung; Tiefbau- und Entsorgungsdepartement"}}, {"type": "way", "id": 287012118, "nodes": [2906823833, 2906823835, 3939281934, 387850499, 387850500, 1586370816, 2906823832, 2906823833], "tags": {"building": "apartments", "building:levels": "5", "roof:levels": "2", "source": "Stadt Z\u00fcrich Open Government Data; Geomatik + Vermessung; Tiefbau- und Entsorgungsdepartement"}}, {"type": "way", "id": 287012120, "nodes": [1586370816, 1967408066, 387850502, 387850508, 1967408067, 1964294449, 2906823833, 2906823832, 1586370816], "tags": {"addr:city": "Z\u00fcrich", "addr:country": "CH", "addr:housenumber": "14", "addr:postcode": "8001", "addr:street": "Gr\u00e4bligasse", "building": "church", "name": "Zur Ringmauer", "source": "Stadt Z\u00fcrich Open Government Data; Geomatik + Vermessung; Tiefbau- und Entsorgungsdepartement"}}]}