{"version": 0.6, "generator": "Overpass API 0.7.60.6 e2dc3e5b", "osm3s": {"timestamp_osm_base": "2023-06-29T12:47:33Z", "copyright": "The data included in this document is from www.openstreetmap.org. The data is made available under ODbL."}, "elements": [{"type": "node", "id": 387850504, "lat": 47.3752199, "lon": 8.54517}, {"type": "node", "id": 387850505, "lat": 47.3750963, "lon": 8.5452396}, {"type": "node", "id": 387850506, "lat": 47.3749977, "lon": 8.5447125}, {"type": "node", "id": 1586370785, "lat": 47.3749715, "lon": 8.544773}, {"type": "node", "id": 1586370787, "lat": 47.3750294, "lon": 8.544988}, {"type": "node", "id": 1586370788, "lat": 47.3750523, "lon": 8.5450715}, {"type": "node", "id": 1586370792, "lat": 47.3750744, "lon": 8.5451585}, {"type": "node", "id": 1586370794, "lat": 47.37509, "lon": 8.5448616}, {"type": "node", "id": 1586370795, "lat": 47.3751121, "lon": 8.5449405}, {"type": "node", "id": 1586370798, "lat": 47.3751553, "lon": 8.5449154}, {"type": "node", "id": 1586370799, "lat": 47.3751771, "lon": 8.5450022}, {"type": "node", "id": 1586370801, "lat": 47.3751733, "lon": 8.5446982}, {"type": "node", "id": 1586370802, "lat": 47.3751774, "lon": 8.544858}, {"type": "node", "id": 1586370811, "lat": 47.3751984, "lon": 8.5450841}, {"type": "node", "id": 1967407971, "lat": 47.3747559, "lon": 8.5449326}, {"type": "node", "id": 1967407976, "lat": 47.3747699, "lon": 8.5449938}, {"type": "node", "id": 1967407984, "lat": 47.3747829, "lon": 8.5447291}, {"type": "node", "id": 1967407987, "lat": 47.3747881, "lon": 8.5448827}, {"type": "node", "id": 1967407991, "lat": 47.3747963, "lon": 8.545094}, {"type": "node", "id": 1967407993, "lat": 47.3748217, "lon": 8.5451909}, {"type": "node", "id": 1967407995, "lat": 47.3748464, "lon": 8.5447252}, {"type": "node", "id": 1967407996, "lat": 47.3748739, "lon": 8.5448374}, {"type": "node", "id": 1967407998, "lat": 47.3748773, "lon": 8.5453947}, {"type": "node", "id": 1967408000, "lat": 47.3748956, "lon": 8.5449203}, {"type": "node", "id": 1967408001, "lat": 47.374923, "lon": 8.5450221}, {"type": "node", "id": 1967408020, "lat": 47.3749483, "lon": 8.5451191}, {"type": "node", "id": 1967408023, "lat": 47.375002, "lon": 8.5453188}, {"type": "node", "id": 1967408026, "lat": 47.3749978, "lon": 8.5448711}, {"type": "node", "id": 1967408040, "lat": 47.3751876, "lon": 8.545187}, {"type": "node", "id": 2906807469, "lat": 47.374757, "lon": 8.5449022}, {"type": "node", "id": 2906823819, "lat": 47.3750323, "lon": 8.5447099, "tags": {"addr:city": "Z\u00fcrich", "addr:country": "CH", "addr:housenumber": "20", "addr:postcode": "8001", "addr:street": "Z\u00e4hringerstrasse"}}, {"type": "node", "id": 2906823820, "lat": 47.3751194, "lon": 8.5447027, "tags": {"addr:city": "Z\u00fcrich", "addr:country": "CH", "addr:housenumber": "22", "addr:postcode": "8001", "addr:street": "Z\u00e4hringerstrasse"}}, {"type": "node", "id": 2906823821, "lat": 47.3750441, "lon": 8.5448454}, {"type": "node", "id": 2906823822, "lat": 47.3750544, "lon": 8.5448841}, {"type": "node", "id": 2906823823, "lat": 47.3750827, "lon": 8.5448352}, {"type": "node", "id": 2906823824, "lat": 47.3751166, "lon": 8.5448602}, {"type": "node", "id": 2906823825, "lat": 47.3751176, "lon": 8.5448337}, {"type": "way", "id": 33854812, "nodes": [1586370799, 1586370811, 1586370792, 1586370788, 1586370799], "tags": {"addr:city": "Z\u00fcrich", "addr:country": "CH", "addr:housenumber": "17", "addr:postcode": "8001", "addr:street": "H\u00e4ringstrasse", "building": "apartments", "building:levels": "5", "roof:levels": "1", "source": "Stadt Z\u00fcrich Open Government Data; Geomatik + Vermessung; Tiefbau- und Entsorgungsdepartement"}}, {"type": "way", "id": 145204596, "nodes": [1586370811, 1586370792, 387850505, 1967408040, 387850504, 1586370811], "tags": {"addr:city": "Z\u00fcrich", "addr:country": "CH", "addr:housenumber": "19", "addr:postcode": "8001", "addr:street": "H\u00e4ringstrasse", "building": "apartments", "building:levels": "5", "roof:levels": "1", "source": "Stadt Z\u00fcrich Open Government Data; Geomatik + Vermessung; Tiefbau- und Entsorgungsdepartement"}}, {"type": "way", "id": 145204599, "nodes": [1586370787, 1586370788, 1586370799, 1586370798, 1586370795, 1586370787], "tags": {"addr:city": "Z\u00fcrich", "addr:country": "CH", "addr:housenumber": "15", "addr:postcode": "8001", "addr:street": "H\u00e4ringstrasse", "building": "apartments", "building:levels": "5", "roof:levels": "1", "source": "Stadt Z\u00fcrich Open Government Data; Geomatik + Vermessung; Tiefbau- und Entsorgungsdepartement"}}, {"type": "way", "id": 145204602, "nodes": [1586370794, 1586370795, 1586370787, 1967408026, 2906823821, 2906823822, 1586370794], "tags": {"addr:city": "Z\u00fcrich", "addr:country": "CH", "addr:housenumber": "13", "addr:postcode": "8001", "addr:street": "H\u00e4ringstrasse", "building": "apartments", "building:levels": "5", "roof:levels": "2", "source": "Stadt Z\u00fcrich Open Government Data; Geomatik + Vermessung; Tiefbau- und Entsorgungsdepartement"}}, {"type": "way", "id": 186044687, "nodes": [1967407996, 1967408000, 1967407976, 1967407971, 2906807469, 1967407987, 1967407996], "tags": {"addr:city": "Z\u00fcrich", "addr:country": "CH", "addr:housenumber": "14", "addr:postcode": "8001", "addr:street": "H\u00e4ringstrasse", "building": "apartments", "building:levels": "5", "roof:levels": "1", "source": "Stadt Z\u00fcrich Open Government Data; Geomatik + Vermessung; Tiefbau- und Entsorgungsdepartement"}}, {"type": "way", "id": 186044688, "nodes": [1967408000, 1967408001, 1967407991, 1967407976, 1967408000], "tags": {"addr:city": "Z\u00fcrich", "addr:country": "CH", "addr:housenumber": "16", "addr:postcode": "8001", "addr:street": "H\u00e4ringstrasse", "building": "apartments", "building:levels": "5", "roof:levels": "1", "source": "Stadt Z\u00fcrich Open Government Data; Geomatik + Vermessung; Tiefbau- und Entsorgungsdepartement"}}, {"type": "way", "id": 186044690, "nodes": [1967408001, 1967408020, 1967407993, 1967407991, 1967408001], "tags": {"addr:city": "Z\u00fcrich", "addr:country": "CH", "addr:housenumber": "18", "addr:postcode": "8001", "addr:street": "H\u00e4ringstrasse", "building": "yes", "source": "Stadt Z\u00fcrich Open Government Data; Geomatik + Vermessung; Tiefbau- und Entsorgungsdepartement"}}, {"type": "way", "id": 186044691, "nodes": [1586370801, 1586370802, 2906823824, 2906823825, 2906823823, 1586370794, 2906823822, 2906823821, 1967408026, 1586370785, 387850506, 2906823819, 2906823820, 1586370801], "tags": {"addr:city": "Z\u00fcrich", "addr:country": "CH", "addr:postcode": "8001", "addr:street": "Z\u00e4hringerstrasse", "building": "apartments", "building:levels": "5", "roof:levels": "1", "source": "Stadt Z\u00fcrich Open Government Data; Geomatik + Vermessung; Tiefbau- und Entsorgungsdepartement"}}, {"type": "way", "id": 186044697, "nodes": [1967408020, 1967408023, 1967407998, 1967407993, 1967408020], "tags": {"addr:city": "Z\u00fcrich", "addr:country": "CH", "addr:housenumber": "20", "addr:postcode": "8001", "addr:street": "H\u00e4ringstrasse", "building": "yes", "name": "Seilerhof", "source": "Stadt Z\u00fcrich Open Government Data; Geomatik + Vermessung; Tiefbau- und Entsorgungsdepartement"}}, {"type": "way", "id": 186044699, "nodes": [1967407984, 1967407995, 1967407996, 1967407987, 1967407984], "tags": {"addr:city": "Z\u00fcrich", "addr:country": "CH", "addr:housenumber": "12", "addr:postcode": "8001", "addr:street": "H\u00e4ringstrasse", "building": "apartments", "building:levels": "5", "source": "Stadt Z\u00fcrich Open Government Data; Geomatik + Vermessung; Tiefbau- und Entsorgungsdepartement"}}]}