{"version": 0.6, "generator": "Overpass API 0.7.60.6 e2dc3e5b", "osm3s": {"timestamp_osm_base": "2023-06-29T15:19:02Z", "copyright": "The data included in this document is from www.openstreetmap.org. The data is made available under ODbL."}, "elements": [{"type": "node", "id": 471592602, "lat": 47.3730379, "lon": 8.5434949}, {"type": "node", "id": 472267730, "lat": 47.3730388, "lon": 8.5433448}, {"type": "node", "id": 638948674, "lat": 47.3727117, "lon": 8.5434868}, {"type": "node", "id": 638984361, "lat": 47.3728444, "lon": 8.5434315}, {"type": "node", "id": 638984363, "lat": 47.3729495, "lon": 8.5435024}, {"type": "node", "id": 638984364, "lat": 47.3729237, "lon": 8.5434231}, {"type": "node", "id": 638984367, "lat": 47.3728578, "lon": 8.5437081}, {"type": "node", "id": 638984369, "lat": 47.3729583, "lon": 8.5437027}, {"type": "node", "id": 638984370, "lat": 47.3729371, "lon": 8.5436997}, {"type": "node", "id": 638984407, "lat": 47.3731596, "lon": 8.5433327}, {"type": "node", "id": 638984410, "lat": 47.3731777, "lon": 8.5436711}, {"type": "node", "id": 791378546, "lat": 47.3726842, "lon": 8.543144}, {"type": "node", "id": 791378555, "lat": 47.3726118, "lon": 8.5438222}, {"type": "node", "id": 791378558, "lat": 47.372668, "lon": 8.5431396}, {"type": "node", "id": 791378566, "lat": 47.3725664, "lon": 8.5434689}, {"type": "node", "id": 791378572, "lat": 47.372701, "lon": 8.5433431}, {"type": "node", "id": 791378575, "lat": 47.3725588, "lon": 8.5433458}, {"type": "node", "id": 791378579, "lat": 47.3725419, "lon": 8.5431571}, {"type": "node", "id": 791378580, "lat": 47.3726198, "lon": 8.5435199}, {"type": "node", "id": 791378596, "lat": 47.3728375, "lon": 8.543704}, {"type": "node", "id": 791378605, "lat": 47.3727863, "lon": 8.5440026}, {"type": "node", "id": 791378611, "lat": 47.3727422, "lon": 8.5437196}, {"type": "node", "id": 791378618, "lat": 47.3727444, "lon": 8.5437827}, {"type": "node", "id": 791378621, "lat": 47.3726595, "lon": 8.543741}, {"type": "node", "id": 791378626, "lat": 47.372879, "lon": 8.5438247}, {"type": "node", "id": 791378629, "lat": 47.3728294, "lon": 8.5434899}, {"type": "node", "id": 791378631, "lat": 47.3726952, "lon": 8.5432522}, {"type": "node", "id": 791378638, "lat": 47.3729296, "lon": 8.5441498}, {"type": "node", "id": 791378648, "lat": 47.3726402, "lon": 8.5439992}, {"type": "node", "id": 791378649, "lat": 47.3725986, "lon": 8.5435287}, {"type": "node", "id": 1965809647, "lat": 47.3725538, "lon": 8.5432307}, {"type": "node", "id": 1965809738, "lat": 47.3727436, "lon": 8.5440069}, {"type": "node", "id": 1965809777, "lat": 47.3728375, "lon": 8.5435986}, {"type": "node", "id": 1965809782, "lat": 47.3728208, "lon": 8.544153}, {"type": "node", "id": 2888641531, "lat": 47.3726766, "lon": 8.5439864}, {"type": "node", "id": 2888641532, "lat": 47.3726785, "lon": 8.5440001}, {"type": "node", "id": 2888641533, "lat": 47.3726849, "lon": 8.5437901}, {"type": "node", "id": 2888641534, "lat": 47.3726886, "lon": 8.5439831}, {"type": "node", "id": 2888641535, "lat": 47.3726909, "lon": 8.5439955}, {"type": "node", "id": 2888641537, "lat": 47.3727374, "lon": 8.5439661}, {"type": "node", "id": 2888641538, "lat": 47.3727598, "lon": 8.5440059}, {"type": "node", "id": 2888641539, "lat": 47.3727628, "lon": 8.5440184}, {"type": "node", "id": 2888641540, "lat": 47.3728106, "lon": 8.5439646}, {"type": "node", "id": 2888641541, "lat": 47.372811, "lon": 8.5437838}, {"type": "node", "id": 2888641542, "lat": 47.3728408, "lon": 8.5439568}, {"type": "node", "id": 2888641543, "lat": 47.3728443, "lon": 8.5441415}, {"type": "node", "id": 2888641544, "lat": 47.3728491, "lon": 8.5440524}, {"type": "node", "id": 2888641545, "lat": 47.3728534, "lon": 8.543951}, {"type": "node", "id": 2888641546, "lat": 47.3728709, "lon": 8.5440414}, {"type": "node", "id": 2888641547, "lat": 47.3728718, "lon": 8.5437734}, {"type": "node", "id": 2888641548, "lat": 47.372874, "lon": 8.544177}, {"type": "node", "id": 2889160946, "lat": 47.3729078, "lon": 8.544008}, {"type": "node", "id": 2889160947, "lat": 47.3729164, "lon": 8.5440624}, {"type": "node", "id": 2892837807, "lat": 47.3726338, "lon": 8.543565}, {"type": "node", "id": 2892837808, "lat": 47.3726465, "lon": 8.5435046}, {"type": "node", "id": 2892837809, "lat": 47.3726881, "lon": 8.5431792}, {"type": "node", "id": 2892837811, "lat": 47.3727131, "lon": 8.5434996}, {"type": "node", "id": 2892837813, "lat": 47.3727233, "lon": 8.5434958}, {"type": "node", "id": 2892837814, "lat": 47.3727364, "lon": 8.5434919}, {"type": "node", "id": 2892837816, "lat": 47.37274, "lon": 8.5434967}, {"type": "node", "id": 2892837823, "lat": 47.3728471, "lon": 8.5434887}, {"type": "node", "id": 2892837826, "lat": 47.3729275, "lon": 8.5435026}, {"type": "node", "id": 2892837830, "lat": 47.3730395, "lon": 8.5433047}, {"type": "node", "id": 2892837835, "lat": 47.373044, "lon": 8.5431302}, {"type": "node", "id": 2892837837, "lat": 47.3730469, "lon": 8.543691}, {"type": "node", "id": 2892837841, "lat": 47.3731475, "lon": 8.5431074}, {"type": "node", "id": 2892837842, "lat": 47.3731576, "lon": 8.5432947}, {"type": "node", "id": 2892887128, "lat": 47.3732067, "lon": 8.5431641}, {"type": "node", "id": 2892887129, "lat": 47.373215, "lon": 8.5433734}, {"type": "node", "id": 2892887141, "lat": 47.3733214, "lon": 8.5433648}, {"type": "node", "id": 2892887142, "lat": 47.3733239, "lon": 8.5432391}, {"type": "node", "id": 2892887143, "lat": 47.3733247, "lon": 8.5431952}, {"type": "node", "id": 2892887144, "lat": 47.3733261, "lon": 8.5431539}, {"type": "node", "id": 3587167979, "lat": 47.3726605, "lon": 8.5438008}, {"type": "node", "id": 3587167980, "lat": 47.3726963, "lon": 8.5439804}, {"type": "way", "id": 50288277, "nodes": [2892837842, 2892837830, 472267730, 471592602, 2892837837, 638984410, 638984407, 2892837842], "tags": {"addr:city": "Z\u00fcrich", "addr:country": "CH", "addr:housenumber": "10", "addr:postcode": "8001", "addr:street": "Rosengasse", "building": "yes", "source": "Stadt Z\u00fcrich Open Government Data; Geomatik + Vermessung; Tiefbau- und Entsorgungsdepartement"}}, {"type": "way", "id": 50288278, "nodes": [638984370, 638984367, 2892837823, 638984361, 638984364, 2892837826, 638984370], "tags": {"addr:city": "Z\u00fcrich", "addr:country": "CH", "addr:housenumber": "5", "addr:postcode": "8001", "addr:street": "Niederdorfstrasse", "building": "yes", "source": "Stadt Z\u00fcrich Open Government Data; Geomatik + Vermessung; Tiefbau- und Entsorgungsdepartement"}}, {"type": "way", "id": 64260369, "nodes": [791378580, 791378649, 791378566, 791378575, 791378572, 638948674, 2892837808, 791378580], "tags": {"addr:city": "Z\u00fcrich", "addr:country": "CH", "addr:housenumber": "4", "addr:postcode": "8001", "addr:street": "St\u00fcssihofstatt", "building": "yes", "source": "Stadt Z\u00fcrich Open Government Data; Geomatik + Vermessung; Tiefbau- und Entsorgungsdepartement"}}, {"type": "way", "id": 64260372, "nodes": [638948674, 2892837808, 791378580, 2892837807, 791378621, 791378611, 2892837813, 2892837811, 638948674], "tags": {"addr:city": "Z\u00fcrich", "addr:country": "CH", "addr:housenumber": "1", "addr:postcode": "8001", "addr:street": "Niederdorfstrasse", "building": "yes", "source": "Stadt Z\u00fcrich Open Government Data; Geomatik + Vermessung; Tiefbau- und Entsorgungsdepartement"}}, {"type": "way", "id": 64260381, "nodes": [791378618, 2888641533, 3587167979, 791378555, 791378648, 2888641531, 2888641532, 2888641535, 2888641534, 3587167980, 2888641537, 1965809738, 2888641538, 2888641539, 791378605, 791378618], "tags": {"addr:city": "Z\u00fcrich", "addr:country": "CH", "addr:housenumber": "6", "addr:postcode": "8001", "addr:street": "St\u00fcssihofstatt", "building": "yes", "source": "Stadt Z\u00fcrich Open Government Data;Geomatik + Vermessung;Tiefbau- und Entsorgungsdepartement"}}, {"type": "way", "id": 64260389, "nodes": [791378629, 2892837816, 2892837814, 2892837813, 791378611, 791378596, 1965809777, 791378629], "tags": {"addr:city": "Z\u00fcrich", "addr:country": "CH", "addr:housenumber": "3", "addr:postcode": "8001", "addr:street": "Niederdorfstrasse", "building": "yes", "source": "Stadt Z\u00fcrich Open Government Data; Geomatik + Vermessung; Tiefbau- und Entsorgungsdepartement"}}, {"type": "way", "id": 64260392, "nodes": [791378558, 791378546, 2892837809, 791378631, 791378572, 791378575, 1965809647, 791378579, 791378558], "tags": {"addr:city": "Z\u00fcrich", "addr:country": "CH", "addr:housenumber": "3", "addr:postcode": "8001", "addr:street": "St\u00fcssihofstatt", "building": "yes", "name": "Zunfthaus zur Schneidern", "source": "Stadt Z\u00fcrich Open Government Data; Geomatik + Vermessung; Tiefbau- und Entsorgungsdepartement"}}, {"type": "way", "id": 285188183, "nodes": [2888641542, 2888641540, 2888641543, 1965809782, 791378605, 791378618, 2888641541, 2888641542], "tags": {"addr:city": "Z\u00fcrich", "addr:country": "CH", "addr:housenumber": "2", "addr:postcode": "8001", "addr:street": "Niederdorfstrasse", "building": "yes", "source": "Stadt Z\u00fcrich Open Government Data; Geomatik + Vermessung; Tiefbau- und Entsorgungsdepartement"}}, {"type": "way", "id": 285188186, "nodes": [2888641541, 2888641542, 2888641545, 2888641546, 2888641544, 2888641548, 791378638, 2889160947, 2889160946, 791378626, 2888641547, 2888641541], "tags": {"addr:city": "Z\u00fcrich", "addr:country": "CH", "addr:housenumber": "4", "addr:postcode": "8001", "addr:street": "Niederdorfstrasse", "building": "yes", "source": "Stadt Z\u00fcrich Open Government Data; Geomatik + Vermessung; Tiefbau- und Entsorgungsdepartement"}}, {"type": "way", "id": 285611272, "nodes": [2892837835, 2892837830, 2892837842, 2892837841, 2892837835], "tags": {"addr:city": "Z\u00fcrich", "addr:country": "CH", "addr:housenumber": "6", "addr:postcode": "8001", "addr:street": "Rosengasse", "building": "yes", "source": "Stadt Z\u00fcrich Open Government Data; Geomatik + Vermessung; Tiefbau- und Entsorgungsdepartement"}}, {"type": "way", "id": 285611273, "nodes": [2892837837, 471592602, 638984363, 638984369, 2892837837], "tags": {"addr:city": "Z\u00fcrich", "addr:country": "CH", "addr:housenumber": "7", "addr:postcode": "8001", "addr:street": "Niederdorfstrasse", "building": "yes", "source": "Stadt Z\u00fcrich Open Government Data; Geomatik + Vermessung; Tiefbau- und Entsorgungsdepartement"}}, {"type": "way", "id": 285612563, "nodes": [2892887128, 2892887129, 2892887141, 2892887142, 2892887143, 2892887144, 2892887128], "tags": {"addr:city": "Z\u00fcrich", "addr:country": "CH", "addr:housenumber": "5", "addr:postcode": "8001", "addr:street": "Rosengasse", "building": "yes", "source": "Stadt Z\u00fcrich Open Government Data; Geomatik + Vermessung; Tiefbau- und Entsorgungsdepartement"}}]}