{"version": 0.6, "generator": "Overpass API 0.7.60.6 e2dc3e5b", "osm3s": {"timestamp_osm_base": "2023-06-29T11:05:30Z", "copyright": "The data included in this document is from www.openstreetmap.org. The data is made available under ODbL."}, "elements": [{"type": "node", "id": 387214681, "lat": 47.3714004, "lon": 8.5437334}, {"type": "node", "id": 387214685, "lat": 47.371347, "lon": 8.5439117}, {"type": "node", "id": 387214687, "lat": 47.3712775, "lon": 8.5439903}, {"type": "node", "id": 387214689, "lat": 47.371318, "lon": 8.5440968}, {"type": "node", "id": 387214691, "lat": 47.3714767, "lon": 8.543937}, {"type": "node", "id": 387850615, "lat": 47.3713134, "lon": 8.5438291}, {"type": "node", "id": 894108022, "lat": 47.3714866, "lon": 8.5439226}, {"type": "node", "id": 894108023, "lat": 47.3716723, "lon": 8.5438158}, {"type": "node", "id": 894108047, "lat": 47.3715057, "lon": 8.5437}, {"type": "node", "id": 894108056, "lat": 47.3715592, "lon": 8.543873}, {"type": "node", "id": 894108059, "lat": 47.37155, "lon": 8.5436325}, {"type": "node", "id": 894108075, "lat": 47.3715665, "lon": 8.543644, "tags": {"addr:city": "Z\u00fcrich", "addr:country": "CH", "addr:housenumber": "10", "addr:postcode": "8001", "addr:street": "Krebsgasse"}}, {"type": "node", "id": 894108079, "lat": 47.3714319, "lon": 8.5437551}, {"type": "node", "id": 894788880, "lat": 47.3716552, "lon": 8.5442617}, {"type": "node", "id": 894788885, "lat": 47.3715528, "lon": 8.5439564}, {"type": "node", "id": 894788893, "lat": 47.3714639, "lon": 8.544034}, {"type": "node", "id": 894788911, "lat": 47.3716034, "lon": 8.5441094, "tags": {"addr:city": "Z\u00fcrich", "addr:country": "CH", "addr:housenumber": "2", "addr:postcode": "8001", "addr:street": "Spiegelgasse"}}, {"type": "node", "id": 894788925, "lat": 47.3715835, "lon": 8.5443183}, {"type": "node", "id": 895750353, "lat": 47.3714937, "lon": 8.5441049, "tags": {"addr:city": "Z\u00fcrich", "addr:country": "CH", "addr:housenumber": "1", "addr:postcode": "8001", "addr:street": "Napfgasse"}}, {"type": "node", "id": 895787624, "lat": 47.3715687, "lon": 8.5442823, "tags": {"addr:city": "Z\u00fcrich", "addr:country": "CH", "addr:housenumber": "3", "addr:postcode": "8001", "addr:street": "Napfgasse"}}, {"type": "node", "id": 1970613059, "lat": 47.3713932, "lon": 8.544013}, {"type": "node", "id": 2866198305, "lat": 47.3716141, "lon": 8.5438354, "tags": {"addr:city": "Z\u00fcrich", "addr:country": "CH", "addr:housenumber": "23", "addr:postcode": "8001", "addr:street": "M\u00fcnstergasse"}}, {"type": "node", "id": 2866198318, "lat": 47.3713132, "lon": 8.543809}, {"type": "node", "id": 2866198319, "lat": 47.3713186, "lon": 8.5438249}, {"type": "node", "id": 2866198320, "lat": 47.3713521, "lon": 8.54391}, {"type": "node", "id": 2866198323, "lat": 47.3714975, "lon": 8.5436746}, {"type": "node", "id": 2866198324, "lat": 47.3715232, "lon": 8.543744}, {"type": "node", "id": 2866198326, "lat": 47.3715548, "lon": 8.5436487}, {"type": "node", "id": 2866198329, "lat": 47.3715935, "lon": 8.5437312}, {"type": "node", "id": 2866198331, "lat": 47.3716082, "lon": 8.5437241}, {"type": "node", "id": 2866198332, "lat": 47.3716408, "lon": 8.543709}, {"type": "node", "id": 2883853029, "lat": 47.3715081, "lon": 8.5439954, "tags": {"addr:city": "Z\u00fcrich", "addr:country": "CH", "addr:housenumber": "26", "addr:postcode": "8001", "addr:street": "M\u00fcnstergasse"}}, {"type": "way", "id": 33806607, "nodes": [387214685, 2866198320, 1970613059, 387214691, 387214681, 2866198318, 2866198319, 387850615, 387214685], "tags": {"addr:city": "Z\u00fcrich", "addr:country": "CH", "addr:housenumber": "19", "addr:postcode": "8001", "addr:street": "M\u00fcnstergasse", "building": "yes", "source": "Stadt Z\u00fcrich Open Government Data; Geomatik + Vermessung; Tiefbau- und Entsorgungsdepartement"}}, {"type": "way", "id": 75731987, "nodes": [894108059, 2866198323, 894108047, 2866198324, 894108056, 2866198305, 894108023, 2866198332, 2866198331, 2866198329, 894108075, 2866198326, 894108059], "tags": {"addr:city": "Z\u00fcrich", "addr:country": "CH", "addr:postcode": "8001", "building": "yes", "name": "Zum roten Gatter", "source": "Stadt Z\u00fcrich Open Government Data; Geomatik + Vermessung; Tiefbau- und Entsorgungsdepartement"}}, {"type": "way", "id": 75732017, "nodes": [894108056, 894108022, 894108079, 894108047, 2866198324, 894108056], "tags": {"addr:city": "Z\u00fcrich", "addr:country": "CH", "addr:housenumber": "21", "addr:postcode": "8001", "addr:street": "M\u00fcnstergasse", "building": "yes", "name": "Zum Goldstein", "source": "Stadt Z\u00fcrich Open Government Data; Geomatik + Vermessung; Tiefbau- und Entsorgungsdepartement"}}, {"type": "way", "id": 75803831, "nodes": [894788885, 2883853029, 894788893, 895750353, 895787624, 894788925, 894788880, 894788911, 894788885], "tags": {"addr:city": "Z\u00fcrich", "addr:country": "CH", "addr:postcode": "8001", "building": "yes", "source": "Stadt Z\u00fcrich Open Government Data; Geomatik + Vermessung; Tiefbau- und Entsorgungsdepartement"}}, {"type": "way", "id": 282685244, "nodes": [387214685, 387214687, 387214689, 1970613059, 2866198320, 387214685], "tags": {"addr:city": "Z\u00fcrich", "addr:country": "CH", "addr:housenumber": "17", "addr:postcode": "8001", "addr:street": "M\u00fcnstergasse", "building": "yes", "source": "Stadt Z\u00fcrich Open Government Data; Geomatik + Vermessung; Tiefbau- und Entsorgungsdepartement"}}]}