{"version": 0.6, "generator": "Overpass API 0.7.60.6 e2dc3e5b", "osm3s": {"timestamp_osm_base": "2023-06-29T15:20:01Z", "copyright": "The data included in this document is from www.openstreetmap.org. The data is made available under ODbL."}, "elements": [{"type": "node", "id": 343530097, "lat": 47.3731884, "lon": 8.5276663}, {"type": "node", "id": 343530101, "lat": 47.3732872, "lon": 8.5276087}, {"type": "node", "id": 343530103, "lat": 47.3732038, "lon": 8.5275771}, {"type": "node", "id": 343530110, "lat": 47.3732717, "lon": 8.5276979}, {"type": "node", "id": 358147542, "lat": 47.3726274, "lon": 8.5279087}, {"type": "node", "id": 358147545, "lat": 47.3726427, "lon": 8.5282508}, {"type": "node", "id": 358147548, "lat": 47.3727335, "lon": 8.5283271}, {"type": "node", "id": 358147551, "lat": 47.3730118, "lon": 8.5279361}, {"type": "node", "id": 358147553, "lat": 47.3730173, "lon": 8.5278846}, {"type": "node", "id": 358147555, "lat": 47.3727568, "lon": 8.5272756}, {"type": "node", "id": 358160701, "lat": 47.3733693, "lon": 8.528064}, {"type": "node", "id": 358161148, "lat": 47.3730369, "lon": 8.527402}, {"type": "node", "id": 358161149, "lat": 47.3729781, "lon": 8.5274366}, {"type": "node", "id": 358161151, "lat": 47.3730128, "lon": 8.5275647}, {"type": "node", "id": 358161152, "lat": 47.3730714, "lon": 8.5275298}, {"type": "node", "id": 890983425, "lat": 47.3735082, "lon": 8.5281931, "tags": {"addr:city": "Z\u00fcrich", "addr:country": "CH", "addr:housenumber": "33a", "addr:postcode": "8004", "addr:street": "Stauffacherstrasse"}}, {"type": "node", "id": 1386852145, "lat": 47.3726984, "lon": 8.5283373}, {"type": "node", "id": 1386852149, "lat": 47.3727216, "lon": 8.5280922}, {"type": "node", "id": 1386852150, "lat": 47.372739, "lon": 8.5275217}, {"type": "node", "id": 1386852151, "lat": 47.3727502, "lon": 8.5281229}, {"type": "node", "id": 1386852154, "lat": 47.3728336, "lon": 8.5279504}, {"type": "node", "id": 1386852155, "lat": 47.3728335, "lon": 8.5280065}, {"type": "node", "id": 1386852158, "lat": 47.3728697, "lon": 8.5278995}, {"type": "node", "id": 2261078446, "lat": 47.3727029, "lon": 8.5274828}, {"type": "node", "id": 2261078447, "lat": 47.3727074, "lon": 8.5275237}, {"type": "node", "id": 2261078450, "lat": 47.372718, "lon": 8.5278962}, {"type": "node", "id": 2261078458, "lat": 47.3728101, "lon": 8.5277616}, {"type": "node", "id": 2261078459, "lat": 47.3728126, "lon": 8.5277454}, {"type": "node", "id": 2261078461, "lat": 47.3728282, "lon": 8.5277313}, {"type": "node", "id": 2261078462, "lat": 47.3728312, "lon": 8.5279786}, {"type": "node", "id": 2261078464, "lat": 47.3728414, "lon": 8.5279634}, {"type": "node", "id": 2261078480, "lat": 47.3730186, "lon": 8.5275612}, {"type": "node", "id": 2261078481, "lat": 47.3730209, "lon": 8.5279131}, {"type": "node", "id": 2261078483, "lat": 47.3730325, "lon": 8.5276123}, {"type": "node", "id": 2261078495, "lat": 47.3730672, "lon": 8.5275323}, {"type": "node", "id": 2261078497, "lat": 47.3730811, "lon": 8.5275836}, {"type": "node", "id": 2261078573, "lat": 47.37352, "lon": 8.5281763}, {"type": "node", "id": 3456354041, "lat": 47.3726114, "lon": 8.5277207}, {"type": "node", "id": 3456354043, "lat": 47.3726237, "lon": 8.5281158}, {"type": "node", "id": 3456354045, "lat": 47.3726255, "lon": 8.5281616}, {"type": "node", "id": 3456354047, "lat": 47.3726363, "lon": 8.5281011}, {"type": "node", "id": 3456354048, "lat": 47.3726371, "lon": 8.5281146}, {"type": "node", "id": 3456354049, "lat": 47.3726389, "lon": 8.5281604}, {"type": "node", "id": 3456354057, "lat": 47.3726967, "lon": 8.5272918}, {"type": "node", "id": 3456354058, "lat": 47.3726993, "lon": 8.5274363}, {"type": "node", "id": 3456354059, "lat": 47.3727015, "lon": 8.5277043}, {"type": "node", "id": 3456354060, "lat": 47.3727038, "lon": 8.5273704}, {"type": "node", "id": 3456354064, "lat": 47.3727219, "lon": 8.5281256}, {"type": "node", "id": 3456354065, "lat": 47.3727267, "lon": 8.5280922}, {"type": "node", "id": 3456354067, "lat": 47.3727486, "lon": 8.5275437}, {"type": "node", "id": 3456354069, "lat": 47.3727833, "lon": 8.5276275}, {"type": "node", "id": 3456354070, "lat": 47.3727937, "lon": 8.5280611}, {"type": "node", "id": 3456354077, "lat": 47.3728385, "lon": 8.5274664}, {"type": "node", "id": 3456354079, "lat": 47.3728433, "lon": 8.5278381}, {"type": "node", "id": 3456354080, "lat": 47.3728552, "lon": 8.5281551}, {"type": "node", "id": 3456354082, "lat": 47.3728721, "lon": 8.5275443}, {"type": "node", "id": 3456354084, "lat": 47.372889, "lon": 8.5278981}, {"type": "node", "id": 3456354087, "lat": 47.3729542, "lon": 8.5277351}, {"type": "node", "id": 3456354088, "lat": 47.3729599, "lon": 8.5280085}, {"type": "node", "id": 3461321813, "lat": 47.3733903, "lon": 8.5282437}, {"type": "node", "id": 3461321817, "lat": 47.3734965, "lon": 8.5282142}, {"type": "node", "id": 3461321819, "lat": 47.3735022, "lon": 8.5280268}, {"type": "node", "id": 10824269579, "lat": 47.3727189, "lon": 8.5279153}, {"type": "node", "id": 10824269580, "lat": 47.3726283, "lon": 8.5279276}, {"type": "node", "id": 10824269602, "lat": 47.3730209, "lon": 8.5278984}, {"type": "node", "id": 10824269603, "lat": 47.373018, "lon": 8.5279257}, {"type": "node", "id": 10824269604, "lat": 47.3728553, "lon": 8.5274759}, {"type": "node", "id": 10824283561, "lat": 47.3728259, "lon": 8.5281965}, {"type": "node", "id": 10824283562, "lat": 47.3728291, "lon": 8.5279946}, {"type": "node", "id": 10824283563, "lat": 47.3728295, "lon": 8.5279871}, {"type": "node", "id": 10824283564, "lat": 47.3728307, "lon": 8.5280011}, {"type": "node", "id": 10824289705, "lat": 47.3728569, "lon": 8.5275091}, {"type": "node", "id": 10824289706, "lat": 47.3728427, "lon": 8.5274761}, {"type": "node", "id": 10824289716, "lat": 47.372715, "lon": 8.5273692}, {"type": "node", "id": 10824289717, "lat": 47.3727555, "lon": 8.5275434}, {"type": "node", "id": 10824289718, "lat": 47.3727207, "lon": 8.527434}, {"type": "node", "id": 10824289719, "lat": 47.3728657, "lon": 8.5281712}, {"type": "node", "id": 10824289720, "lat": 47.3728364, "lon": 8.5282126}, {"type": "node", "id": 10839579036, "lat": 47.3734861, "lon": 8.5282163}, {"type": "node", "id": 10839579037, "lat": 47.3734868, "lon": 8.5282199}, {"type": "node", "id": 10839579038, "lat": 47.3734961, "lon": 8.5282114}, {"type": "node", "id": 10839579039, "lat": 47.3735178, "lon": 8.5281624}, {"type": "node", "id": 10839579040, "lat": 47.37352, "lon": 8.5281611}, {"type": "way", "id": 30899444, "nodes": [343530101, 343530103, 343530097, 343530110, 343530101], "tags": {"addr:city": "Z\u00fcrich", "addr:housenumber": "49", "addr:postcode": "8004", "addr:street": "Badenerstrasse", "building": "service", "building:levels": "1", "roof:shape": "hipped"}}, {"type": "way", "id": 31969547, "nodes": [3461321817, 10839579038, 890983425, 2261078573, 10839579039, 10839579040, 3461321819, 358160701, 3461321813, 10839579037, 10839579036, 3461321817], "tags": {"building": "yes"}}, {"type": "way", "id": 31969577, "nodes": [358161148, 358161149, 358161151, 2261078480, 2261078483, 2261078497, 2261078495, 358161152, 358161148], "tags": {"addr:city": "Z\u00fcrich", "addr:housenumber": "3", "addr:postcode": "8004", "addr:street": "Zweierstrasse", "building": "yes"}}, {"type": "way", "id": 124668412, "nodes": [2261078446, 2261078447, 1386852150, 3456354067, 10824289717, 3456354077, 358147555, 3456354057, 3456354060, 10824289716, 10824289718, 3456354058, 2261078446], "tags": {"addr:city": "Z\u00fcrich", "addr:country": "CH", "addr:housenumber": "13", "addr:postcode": "8004", "addr:street": "Birmensdorferstrasse", "building": "yes"}}, {"type": "way", "id": 338541924, "nodes": [3456354070, 1386852151, 3456354064, 1386852149, 3456354047, 3456354048, 3456354043, 3456354045, 3456354049, 358147545, 1386852145, 358147548, 10824283561, 10824289720, 10824289719, 3456354080, 3456354070], "tags": {"building": "apartments", "building:levels": "6"}}, {"type": "way", "id": 338541927, "nodes": [2261078450, 3456354059, 3456354041, 358147542, 2261078450], "tags": {"addr:city": "Z\u00fcrich", "addr:country": "CH", "addr:housenumber": "60", "addr:postcode": "8004", "addr:street": "Werdstrasse", "building": "yes", "building:levels": "6"}}, {"type": "way", "id": 338541929, "nodes": [3456354082, 10824289705, 10824269604, 10824289706, 3456354077, 10824289717, 3456354067, 3456354069, 3456354082], "tags": {"addr:housenumber": "9", "addr:street": "Birmensdorferstrasse", "building": "yes"}}, {"type": "way", "id": 338541931, "nodes": [1386852149, 3456354065, 10824269579, 2261078450, 358147542, 10824269580, 3456354047, 1386852149], "tags": {"addr:city": "Z\u00fcrich", "addr:country": "CH", "addr:housenumber": "56", "addr:postcode": "8004", "addr:street": "Werdstrasse", "building": "yes", "building:levels": "6", "roof:shape": "gabled"}}, {"type": "way", "id": 338541935, "nodes": [3456354087, 3456354082, 3456354069, 2261078461, 2261078459, 2261078458, 3456354079, 3456354087], "tags": {"addr:city": "Z\u00fcrich", "addr:country": "CH", "addr:housenumber": "5", "addr:postcode": "8004", "addr:street": "Birmensdorferstrasse", "building": "yes"}}, {"type": "way", "id": 338541939, "nodes": [3456354079, 1386852158, 3456354084, 3456354088, 358147551, 10824269603, 2261078481, 10824269602, 358147553, 3456354087, 3456354079], "tags": {"building": "yes"}}, {"type": "way", "id": 338541941, "nodes": [1386852158, 1386852154, 2261078464, 2261078462, 10824283563, 10824283562, 10824283564, 1386852155, 3456354070, 3456354080, 3456354088, 3456354084, 1386852158], "tags": {"addr:city": "Z\u00fcrich", "addr:housenumber": "17", "addr:postcode": "8004", "addr:street": "Strassburgstrasse", "building": "yes"}}]}