{"version": 0.6, "generator": "Overpass API 0.7.60.6 e2dc3e5b", "osm3s": {"timestamp_osm_base": "2023-06-29T12:42:28Z", "copyright": "The data included in this document is from www.openstreetmap.org. The data is made available under ODbL."}, "elements": [{"type": "node", "id": 633640090, "lat": 47.3688782, "lon": 8.5450889, "tags": {"addr:housenumber": "15", "addr:street": "Oberdorfstrasse"}}, {"type": "node", "id": 916462860, "lat": 47.3693854, "lon": 8.5450225}, {"type": "node", "id": 916462888, "lat": 47.3691496, "lon": 8.5449785}, {"type": "node", "id": 916462906, "lat": 47.3692268, "lon": 8.5451046}, {"type": "node", "id": 916462921, "lat": 47.3692851, "lon": 8.5447985}, {"type": "node", "id": 955271539, "lat": 47.3689107, "lon": 8.5453191}, {"type": "node", "id": 955271550, "lat": 47.3691471, "lon": 8.5448843}, {"type": "node", "id": 955271604, "lat": 47.3690501, "lon": 8.5450214}, {"type": "node", "id": 955271614, "lat": 47.3690967, "lon": 8.5447967}, {"type": "node", "id": 955271615, "lat": 47.3691765, "lon": 8.5446875}, {"type": "node", "id": 955271619, "lat": 47.3690235, "lon": 8.545161}, {"type": "node", "id": 955271650, "lat": 47.3688266, "lon": 8.5448973}, {"type": "node", "id": 955271686, "lat": 47.3691236, "lon": 8.5449229}, {"type": "node", "id": 955271693, "lat": 47.3689808, "lon": 8.5454241}, {"type": "node", "id": 955271729, "lat": 47.3689755, "lon": 8.5448883}, {"type": "node", "id": 955271785, "lat": 47.369017, "lon": 8.5447349}, {"type": "node", "id": 955271788, "lat": 47.3690253, "lon": 8.5452081}, {"type": "node", "id": 955271804, "lat": 47.3692338, "lon": 8.5447643}, {"type": "node", "id": 955271869, "lat": 47.3690576, "lon": 8.5452583}, {"type": "node", "id": 955271893, "lat": 47.3692531, "lon": 8.5452372}, {"type": "node", "id": 1031582831, "lat": 47.369148, "lon": 8.5453572}, {"type": "node", "id": 1031583294, "lat": 47.3691924, "lon": 8.5446887}, {"type": "node", "id": 1970612889, "lat": 47.3687336, "lon": 8.5449821}, {"type": "node", "id": 1970612894, "lat": 47.3689118, "lon": 8.5448021}, {"type": "node", "id": 1970612896, "lat": 47.3689871, "lon": 8.5451045}, {"type": "node", "id": 1970612898, "lat": 47.3689905, "lon": 8.5448674}, {"type": "node", "id": 1970612901, "lat": 47.3689619, "lon": 8.5448116}, {"type": "node", "id": 2860399036, "lat": 47.3690859, "lon": 8.5449731, "tags": {"addr:housenumber": "19", "addr:street": "Oberdorfstrasse"}}, {"type": "node", "id": 2860399037, "lat": 47.3691911, "lon": 8.5448227, "tags": {"addr:housenumber": "21", "addr:street": "Oberdorfstrasse"}}, {"type": "node", "id": 2860399038, "lat": 47.3687663, "lon": 8.5450463, "tags": {"addr:housenumber": "5", "addr:street": "Scheitergasse"}}, {"type": "node", "id": 2860399039, "lat": 47.3690403, "lon": 8.5447766, "tags": {"addr:housenumber": "6", "addr:street": "Geigergasse"}}, {"type": "node", "id": 2860399040, "lat": 47.3691216, "lon": 8.5448393, "tags": {"addr:housenumber": "7", "addr:street": "Geigergasse"}}, {"type": "node", "id": 2860399041, "lat": 47.3688659, "lon": 8.5451054}, {"type": "node", "id": 2860399042, "lat": 47.368882, "lon": 8.5452524}, {"type": "node", "id": 2860399043, "lat": 47.3688903, "lon": 8.5450728}, {"type": "node", "id": 2860399044, "lat": 47.3689055, "lon": 8.5447897}, {"type": "node", "id": 2860399045, "lat": 47.3689066, "lon": 8.5449818}, {"type": "node", "id": 2860399046, "lat": 47.3689238, "lon": 8.5451939}, {"type": "node", "id": 2860399047, "lat": 47.3689465, "lon": 8.5451622}, {"type": "node", "id": 2860399049, "lat": 47.3689663, "lon": 8.5449005}, {"type": "node", "id": 2860399050, "lat": 47.3690082, "lon": 8.5449551}, {"type": "node", "id": 2860399053, "lat": 47.3691831, "lon": 8.5447001}, {"type": "node", "id": 2862727049, "lat": 47.3689919, "lon": 8.5452023}, {"type": "node", "id": 2862727052, "lat": 47.3690105, "lon": 8.5452289}, {"type": "node", "id": 2862727056, "lat": 47.3690238, "lon": 8.5453042}, {"type": "node", "id": 2862727057, "lat": 47.3690254, "lon": 8.545359}, {"type": "node", "id": 2862727058, "lat": 47.3690402, "lon": 8.5451873}, {"type": "node", "id": 2862727063, "lat": 47.3690724, "lon": 8.545238}, {"type": "node", "id": 2862727069, "lat": 47.369125, "lon": 8.5450104}, {"type": "node", "id": 2862727071, "lat": 47.3691363, "lon": 8.5453388}, {"type": "node", "id": 2862727078, "lat": 47.3692132, "lon": 8.544882}, {"type": "node", "id": 2862727088, "lat": 47.3693012, "lon": 8.5450278}, {"type": "node", "id": 2862727092, "lat": 47.3693257, "lon": 8.5450764}, {"type": "node", "id": 2862727095, "lat": 47.3693495, "lon": 8.5449295}, {"type": "node", "id": 5893434714, "lat": 47.368953, "lon": 8.545153, "tags": {"inscription": "Indianer ware meine Freunde - Geburtshaus des Indianermalers Karl Bodmer (1809-1893)", "subject:wikidata": "Q124099", "subject:wikipedia": "de:Karl Bodmer"}}, {"type": "node", "id": 5893434716, "lat": 47.3688235, "lon": 8.5451588}, {"type": "way", "id": 77992916, "nodes": [916462921, 2862727078, 916462888, 916462906, 2862727088, 2862727092, 916462860, 2862727095, 916462921], "tags": {"addr:city": "Z\u00fcrich", "addr:country": "CH", "addr:housenumber": "28", "addr:postcode": "8001", "addr:street": "Oberdorfstrasse", "building": "yes", "source": "Stadt Z\u00fcrich Open Government Data; Geomatik + Vermessung; Tiefbau- und Entsorgungsdepartement"}}, {"type": "way", "id": 81993540, "nodes": [955271604, 2860399036, 955271686, 2860399039, 955271785, 1970612901, 1970612898, 955271729, 2860399050, 955271604], "tags": {"addr:city": "Z\u00fcrich", "addr:country": "CH", "addr:postcode": "8001", "building": "yes", "name": "zum Steinbock", "source": "Stadt Z\u00fcrich Open Government Data; Geomatik + Vermessung; Tiefbau- und Entsorgungsdepartement"}}, {"type": "way", "id": 81993557, "nodes": [955271729, 2860399049, 2860399045, 1970612896, 955271604, 2860399050, 955271729], "tags": {"addr:city": "Z\u00fcrich", "addr:country": "CH", "addr:housenumber": "17", "addr:postcode": "8001", "addr:street": "Oberdorfstrasse", "building": "yes", "name": "zum Bracken", "source": "Stadt Z\u00fcrich Open Government Data; Geomatik + Vermessung; Tiefbau- und Entsorgungsdepartement"}}, {"type": "way", "id": 81993561, "nodes": [955271619, 2862727069, 955271893, 1031582831, 2862727071, 2862727063, 2862727058, 955271619], "tags": {"addr:city": "Z\u00fcrich", "addr:country": "CH", "addr:housenumber": "2", "addr:postcode": "8001", "addr:street": "Trittligasse", "building": "apartments", "building:levels": "4", "name": "Zum Sitkust", "roof:levels": "1", "source": "Stadt Z\u00fcrich Open Government Data;Geomatik + Vermessung;Tiefbau- und Entsorgungsdepartement"}}, {"type": "way", "id": 81993587, "nodes": [955271615, 955271614, 2860399040, 955271550, 2860399037, 955271804, 1031583294, 2860399053, 955271615], "tags": {"addr:city": "Z\u00fcrich", "addr:country": "CH", "addr:postcode": "8001", "building": "yes", "source": "Stadt Z\u00fcrich Open Government Data; Geomatik + Vermessung; Tiefbau- und Entsorgungsdepartement"}}, {"type": "way", "id": 186380960, "nodes": [2860399049, 1970612894, 2860399044, 955271650, 1970612889, 2860399038, 5893434716, 2860399042, 2860399046, 2860399041, 633640090, 2860399043, 2860399047, 5893434714, 1970612896, 2860399045, 2860399049], "tags": {"addr:city": "Z\u00fcrich", "addr:country": "CH", "addr:postcode": "8001", "building": "yes", "source": "Stadt Z\u00fcrich Open Government Data; Geomatik + Vermessung; Tiefbau- und Entsorgungsdepartement"}}, {"type": "way", "id": 282345891, "nodes": [2862727058, 955271788, 2862727052, 2862727049, 955271539, 955271693, 2862727057, 2862727056, 955271869, 2862727063, 2862727058], "tags": {"addr:city": "Z\u00fcrich", "addr:country": "CH", "addr:housename": "Zur blauen Schnecke", "addr:housenumber": "24", "addr:postcode": "8001", "addr:street": "Oberdorfstrasse", "building": "retail", "source": "Stadt Z\u00fcrich Open Government Data; Geomatik + Vermessung; Tiefbau- und Entsorgungsdepartement"}}]}