{"version": 0.6, "generator": "Overpass API 0.7.60.6 e2dc3e5b", "osm3s": {"timestamp_osm_base": "2023-06-29T10:59:17Z", "copyright": "The data included in this document is from www.openstreetmap.org. The data is made available under ODbL."}, "elements": [{"type": "node", "id": 916945141, "lat": 47.3682943, "lon": 8.5449961}, {"type": "node", "id": 1031582296, "lat": 47.3683838, "lon": 8.5452171}, {"type": "node", "id": 1031582334, "lat": 47.3684405, "lon": 8.5450675}, {"type": "node", "id": 1031582675, "lat": 47.368377, "lon": 8.5449124}, {"type": "node", "id": 1031583438, "lat": 47.3684729, "lon": 8.5451537}, {"type": "node", "id": 1031583732, "lat": 47.3683532, "lon": 8.545137}, {"type": "node", "id": 2858512545, "lat": 47.368417, "lon": 8.544868}, {"type": "node", "id": 2858512548, "lat": 47.3684555, "lon": 8.5449604}, {"type": "node", "id": 2858512551, "lat": 47.3684769, "lon": 8.5450224}, {"type": "node", "id": 2858512553, "lat": 47.3684967, "lon": 8.5450844}, {"type": "node", "id": 2858512555, "lat": 47.3685204, "lon": 8.5451731}, {"type": "node", "id": 2858512556, "lat": 47.3685256, "lon": 8.544756}, {"type": "node", "id": 2858512562, "lat": 47.3685616, "lon": 8.545023}, {"type": "node", "id": 2858512563, "lat": 47.3685698, "lon": 8.5448516}, {"type": "node", "id": 2858512565, "lat": 47.3685771, "lon": 8.5448691}, {"type": "node", "id": 2858512568, "lat": 47.3685955, "lon": 8.5449118}, {"type": "node", "id": 2858512569, "lat": 47.3686067, "lon": 8.544933}, {"type": "node", "id": 2858512571, "lat": 47.3686197, "lon": 8.5449678}, {"type": "node", "id": 2858512572, "lat": 47.3686239, "lon": 8.5449765}, {"type": "node", "id": 2858512579, "lat": 47.368648, "lon": 8.5450462}, {"type": "node", "id": 2858512581, "lat": 47.3686542, "lon": 8.5450649}, {"type": "way", "id": 88877106, "nodes": [1031582334, 1031582675, 916945141, 1031583732, 1031582334], "tags": {"addr:city": "Z\u00fcrich", "addr:country": "CH", "addr:housenumber": "8", "addr:postcode": "8001", "addr:street": "Schiffl\u00e4nde", "building": "apartments", "building:levels": "5", "roof:levels": "1", "source": "Stadt Z\u00fcrich Open Government Data; Geomatik + Vermessung; Tiefbau- und Entsorgungsdepartement"}}, {"type": "way", "id": 88877218, "nodes": [1031582296, 1031583732, 1031582334, 1031583438, 1031582296], "tags": {"addr:city": "Z\u00fcrich", "addr:country": "CH", "addr:housenumber": "4", "addr:postcode": "8001", "addr:street": "Weite Gasse", "building": "yes", "source": "Stadt Z\u00fcrich Open Government Data; Geomatik + Vermessung; Tiefbau- und Entsorgungsdepartement"}}, {"type": "way", "id": 281891309, "nodes": [2858512545, 2858512548, 2858512563, 2858512556, 2858512545], "tags": {"addr:city": "Z\u00fcrich", "addr:country": "CH", "addr:housenumber": "10", "addr:postcode": "8001", "addr:street": "Schiffl\u00e4nde", "building": "apartments", "building:levels": "4", "roof:levels": "2", "source": "Stadt Z\u00fcrich Open Government Data; Geomatik + Vermessung; Tiefbau- und Entsorgungsdepartement"}}, {"type": "way", "id": 281891321, "nodes": [2858512548, 2858512551, 2858512568, 2858512565, 2858512563, 2858512548], "tags": {"addr:city": "Z\u00fcrich", "addr:country": "CH", "addr:housenumber": "3", "addr:postcode": "8001", "addr:street": "Weite Gasse", "building": "apartments", "source": "Stadt Z\u00fcrich Open Government Data; Geomatik + Vermessung; Tiefbau- und Entsorgungsdepartement"}}, {"type": "way", "id": 281891324, "nodes": [2858512551, 2858512553, 2858512562, 2858512571, 2858512569, 2858512568, 2858512551], "tags": {"addr:city": "Z\u00fcrich", "addr:country": "CH", "addr:housenumber": "5", "addr:postcode": "8001", "addr:street": "Weite Gasse", "building": "apartments", "source": "Stadt Z\u00fcrich Open Government Data; Geomatik + Vermessung; Tiefbau- und Entsorgungsdepartement"}}, {"type": "way", "id": 281891327, "nodes": [2858512553, 2858512555, 2858512581, 2858512579, 2858512572, 2858512571, 2858512562, 2858512553], "tags": {"addr:city": "Z\u00fcrich", "addr:country": "CH", "addr:housenumber": "7", "addr:postcode": "8001", "addr:street": "Weite Gasse", "building": "yes", "source": "Stadt Z\u00fcrich Open Government Data; Geomatik + Vermessung; Tiefbau- und Entsorgungsdepartement"}}]}