{"version": 0.6, "generator": "Overpass API 0.7.60.6 e2dc3e5b", "osm3s": {"timestamp_osm_base": "2023-06-29T15:19:02Z", "copyright": "The data included in this document is from www.openstreetmap.org. The data is made available under ODbL."}, "elements": [{"type": "node", "id": 1037539700, "lat": 47.3719955, "lon": 8.5404628}, {"type": "node", "id": 1041911599, "lat": 47.3713935, "lon": 8.5403258}, {"type": "node", "id": 1041911654, "lat": 47.3717409, "lon": 8.5407243}, {"type": "node", "id": 1041911722, "lat": 47.3719357, "lon": 8.5410039}, {"type": "node", "id": 1041911801, "lat": 47.3719515, "lon": 8.540376}, {"type": "node", "id": 1041911827, "lat": 47.371748, "lon": 8.5408052}, {"type": "node", "id": 1041911882, "lat": 47.3715232, "lon": 8.5403268}, {"type": "node", "id": 1041911935, "lat": 47.3718681, "lon": 8.5404919}, {"type": "node", "id": 1041912035, "lat": 47.3717205, "lon": 8.5405481}, {"type": "node", "id": 1041912048, "lat": 47.3713379, "lon": 8.5404974}, {"type": "node", "id": 1041912132, "lat": 47.3714658, "lon": 8.54048}, {"type": "node", "id": 1041912174, "lat": 47.3719557, "lon": 8.5404693}, {"type": "node", "id": 1041912304, "lat": 47.3718673, "lon": 8.5411137}, {"type": "node", "id": 1041912311, "lat": 47.3715395, "lon": 8.5404972}, {"type": "node", "id": 1041912313, "lat": 47.3717912, "lon": 8.5404263}, {"type": "node", "id": 1041912410, "lat": 47.3719139, "lon": 8.5409393}, {"type": "node", "id": 1041912486, "lat": 47.3718211, "lon": 8.5405935}, {"type": "node", "id": 1041912509, "lat": 47.3713979, "lon": 8.5404185}, {"type": "node", "id": 1041912690, "lat": 47.3718296, "lon": 8.5409666}, {"type": "node", "id": 1041912752, "lat": 47.371805, "lon": 8.540513}, {"type": "node", "id": 1041912808, "lat": 47.3715151, "lon": 8.5402672}, {"type": "node", "id": 1041912862, "lat": 47.37183, "lon": 8.540713}, {"type": "node", "id": 1041912912, "lat": 47.3714698, "lon": 8.5405097}, {"type": "node", "id": 1041913039, "lat": 47.3718392, "lon": 8.5407938}, {"type": "node", "id": 2205041340, "lat": 47.3719433, "lon": 8.5407157, "tags": {"addr:city": "Z\u00fcrich", "addr:country": "CH", "addr:housenumber": "1", "addr:postcode": "8001", "addr:street": "Glockengasse"}}, {"type": "node", "id": 2205041357, "lat": 47.3718179, "lon": 8.5409694, "tags": {"addr:city": "Z\u00fcrich", "addr:country": "CH", "addr:housenumber": "15", "addr:postcode": "8001", "addr:street": "Strehlgasse"}}, {"type": "node", "id": 2205041366, "lat": 47.3719413, "lon": 8.5408855, "tags": {"addr:city": "Z\u00fcrich", "addr:country": "CH", "addr:housenumber": "19", "addr:postcode": "8001", "addr:street": "Strehlgasse"}}, {"type": "node", "id": 2205041371, "lat": 47.3714208, "lon": 8.5409825, "tags": {"addr:city": "Z\u00fcrich", "addr:country": "CH", "addr:housenumber": "20", "addr:postcode": "8001", "addr:street": "Schl\u00fcsselgasse"}}, {"type": "node", "id": 2205041396, "lat": 47.371798, "lon": 8.5404696, "tags": {"addr:city": "Z\u00fcrich", "addr:country": "CH", "addr:housenumber": "5", "addr:postcode": "8001", "addr:street": "St. Peterhofstatt"}}, {"type": "node", "id": 2205041412, "lat": 47.372057, "lon": 8.5410859, "tags": {"addr:city": "Z\u00fcrich", "addr:country": "CH", "addr:housenumber": "7", "addr:postcode": "8001", "addr:street": "Schwanengasse"}}, {"type": "node", "id": 2205041420, "lat": 47.3720852, "lon": 8.5410004, "tags": {"addr:city": "Z\u00fcrich", "addr:country": "CH", "addr:housenumber": "9", "addr:postcode": "8001", "addr:street": "Schwanengasse"}}, {"type": "node", "id": 2917307818, "lat": 47.3719794, "lon": 8.541024, "tags": {"addr:city": "Z\u00fcrich", "addr:country": "CH", "addr:housenumber": "12", "addr:postcode": "8001", "addr:street": "Strehlgasse"}}, {"type": "node", "id": 2917307819, "lat": 47.3720266, "lon": 8.5409294, "tags": {"addr:city": "Z\u00fcrich", "addr:country": "CH", "addr:housenumber": "14", "addr:postcode": "8001", "addr:street": "Strehlgasse"}}, {"type": "node", "id": 2917307838, "lat": 47.3719614, "lon": 8.5410614}, {"type": "node", "id": 2917307846, "lat": 47.3719968, "lon": 8.5409883}, {"type": "node", "id": 2917307852, "lat": 47.3720251, "lon": 8.5410064}, {"type": "node", "id": 2917307853, "lat": 47.372027, "lon": 8.5410147}, {"type": "node", "id": 2917307857, "lat": 47.3720348, "lon": 8.5410251}, {"type": "node", "id": 2917307858, "lat": 47.3720471, "lon": 8.5411219}, {"type": "node", "id": 2917307859, "lat": 47.3720661, "lon": 8.5410498}, {"type": "node", "id": 2917307860, "lat": 47.3720705, "lon": 8.5408822}, {"type": "node", "id": 2917307862, "lat": 47.3721048, "lon": 8.5409514}, {"type": "node", "id": 2925696792, "lat": 47.3718524, "lon": 8.5411338, "tags": {"addr:city": "Z\u00fcrich", "addr:country": "CH", "addr:housenumber": "11", "addr:postcode": "8001", "addr:street": "Strehlgasse"}}, {"type": "node", "id": 2925696793, "lat": 47.3719534, "lon": 8.5404226, "tags": {"addr:city": "Z\u00fcrich", "addr:country": "CH", "addr:housenumber": "7", "addr:postcode": "8001", "addr:street": "Glockengasse"}}, {"type": "node", "id": 2925715585, "lat": 47.3713324, "lon": 8.5404277}, {"type": "node", "id": 2925715588, "lat": 47.371386, "lon": 8.5403284}, {"type": "node", "id": 2925754103, "lat": 47.3715623, "lon": 8.5404317}, {"type": "node", "id": 2925754104, "lat": 47.3715752, "lon": 8.5405429}, {"type": "node", "id": 2925754105, "lat": 47.371585, "lon": 8.5405788}, {"type": "node", "id": 2925754107, "lat": 47.3716242, "lon": 8.5405568}, {"type": "node", "id": 2925754108, "lat": 47.3716254, "lon": 8.5405696}, {"type": "node", "id": 2925754111, "lat": 47.3716375, "lon": 8.5404061}, {"type": "node", "id": 2925754113, "lat": 47.3716506, "lon": 8.5405303}, {"type": "node", "id": 2925754115, "lat": 47.3716529, "lon": 8.5405516}, {"type": "node", "id": 2925754116, "lat": 47.3716627, "lon": 8.5403976}, {"type": "node", "id": 2925754117, "lat": 47.3716888, "lon": 8.5403868}, {"type": "node", "id": 2925754122, "lat": 47.3716973, "lon": 8.5403835}, {"type": "node", "id": 2925754123, "lat": 47.3717082, "lon": 8.540379}, {"type": "node", "id": 2925754124, "lat": 47.371725, "lon": 8.5405169}, {"type": "node", "id": 2925754128, "lat": 47.3717558, "lon": 8.5409116}, {"type": "node", "id": 2925754132, "lat": 47.3717887, "lon": 8.5409763}, {"type": "node", "id": 2925754138, "lat": 47.3718076, "lon": 8.5405286}, {"type": "node", "id": 2925754143, "lat": 47.3718369, "lon": 8.5411544}, {"type": "node", "id": 2925754144, "lat": 47.37184, "lon": 8.5406745}, {"type": "node", "id": 2925754146, "lat": 47.3718443, "lon": 8.5407089}, {"type": "node", "id": 2925754147, "lat": 47.3718473, "lon": 8.5408051}, {"type": "node", "id": 2925754149, "lat": 47.3718509, "lon": 8.5409026}, {"type": "node", "id": 2925754151, "lat": 47.371854, "lon": 8.5407973}, {"type": "node", "id": 2925754152, "lat": 47.3718612, "lon": 8.5409001}, {"type": "node", "id": 2925754153, "lat": 47.371869, "lon": 8.5405847}, {"type": "node", "id": 2925754155, "lat": 47.3718783, "lon": 8.5406639}, {"type": "node", "id": 2925754159, "lat": 47.3718816, "lon": 8.5406977}, {"type": "node", "id": 2925754160, "lat": 47.3718849, "lon": 8.5405817}, {"type": "node", "id": 2925754161, "lat": 47.3718882, "lon": 8.5405314}, {"type": "node", "id": 2925754162, "lat": 47.3718934, "lon": 8.5406942}, {"type": "node", "id": 2925754163, "lat": 47.3718944, "lon": 8.5407023}, {"type": "node", "id": 2925754164, "lat": 47.3719189, "lon": 8.5408891}, {"type": "node", "id": 2925754165, "lat": 47.3719202, "lon": 8.5404736}, {"type": "node", "id": 2925754166, "lat": 47.3719393, "lon": 8.5406896}, {"type": "node", "id": 2925754167, "lat": 47.3719416, "lon": 8.5403741}, {"type": "node", "id": 2925754170, "lat": 47.3719555, "lon": 8.54062}, {"type": "node", "id": 2925754171, "lat": 47.3719556, "lon": 8.5405267}, {"type": "node", "id": 2925754174, "lat": 47.3719605, "lon": 8.5406827}, {"type": "node", "id": 2925754175, "lat": 47.3719638, "lon": 8.5408821}, {"type": "node", "id": 2925754176, "lat": 47.3719667, "lon": 8.5408653}, {"type": "node", "id": 2925754178, "lat": 47.37199, "lon": 8.5408613}, {"type": "node", "id": 2925754179, "lat": 47.371993, "lon": 8.5406705}, {"type": "node", "id": 2925754180, "lat": 47.3719956, "lon": 8.5405858}, {"type": "node", "id": 2925754181, "lat": 47.3719958, "lon": 8.5404987}, {"type": "node", "id": 2925754182, "lat": 47.3720356, "lon": 8.5408429}, {"type": "node", "id": 2925754183, "lat": 47.3720378, "lon": 8.540592}, {"type": "node", "id": 2925754184, "lat": 47.3720388, "lon": 8.5406805}, {"type": "node", "id": 2925754186, "lat": 47.3720428, "lon": 8.5405868}, {"type": "node", "id": 2925754187, "lat": 47.3720442, "lon": 8.5404945}, {"type": "node", "id": 2925754188, "lat": 47.3720504, "lon": 8.540683}, {"type": "node", "id": 2925754189, "lat": 47.3720512, "lon": 8.540491}, {"type": "node", "id": 2925754190, "lat": 47.3720519, "lon": 8.5406733}, {"type": "node", "id": 2925754191, "lat": 47.3720643, "lon": 8.5405927}, {"type": "node", "id": 2925754192, "lat": 47.3720802, "lon": 8.5404532}, {"type": "node", "id": 2925754194, "lat": 47.3720816, "lon": 8.5404886}, {"type": "node", "id": 2925754201, "lat": 47.3720986, "lon": 8.5406022}, {"type": "node", "id": 2925754203, "lat": 47.3721102, "lon": 8.5404893}, {"type": "node", "id": 2925754204, "lat": 47.3721194, "lon": 8.540608}, {"type": "node", "id": 2925754205, "lat": 47.3721227, "lon": 8.5406142}, {"type": "node", "id": 2925754210, "lat": 47.3721678, "lon": 8.5404935}, {"type": "node", "id": 2925754212, "lat": 47.3721993, "lon": 8.5406305}, {"type": "node", "id": 2925754213, "lat": 47.3722216, "lon": 8.5405098}, {"type": "node", "id": 2925788327, "lat": 47.3714802, "lon": 8.5409737}, {"type": "node", "id": 2925788329, "lat": 47.3715137, "lon": 8.5410969}, {"type": "node", "id": 2925788332, "lat": 47.3715514, "lon": 8.540971}, {"type": "node", "id": 2925788334, "lat": 47.3715608, "lon": 8.5410851}, {"type": "node", "id": 2925788337, "lat": 47.3715643, "lon": 8.541076}, {"type": "node", "id": 2925788349, "lat": 47.3716082, "lon": 8.540971}, {"type": "node", "id": 2925788352, "lat": 47.3716129, "lon": 8.54106}, {"type": "node", "id": 2925788353, "lat": 47.3716185, "lon": 8.541057}, {"type": "node", "id": 2925788356, "lat": 47.3716232, "lon": 8.5411277}, {"type": "node", "id": 2925788380, "lat": 47.3717082, "lon": 8.5410782}, {"type": "node", "id": 2925788382, "lat": 47.371719, "lon": 8.5410798}, {"type": "node", "id": 2925788399, "lat": 47.3717715, "lon": 8.5409627}, {"type": "node", "id": 2925789104, "lat": 47.3717911, "lon": 8.541041}, {"type": "node", "id": 2927394909, "lat": 47.3714958, "lon": 8.5411699, "tags": {"addr:city": "Z\u00fcrich", "addr:country": "CH", "addr:housenumber": "3", "addr:postcode": "8001", "addr:street": "Weggengasse"}}, {"type": "node", "id": 2927395046, "lat": 47.3713008, "lon": 8.5411805}, {"type": "node", "id": 2927395049, "lat": 47.3713024, "lon": 8.5410101}, {"type": "node", "id": 2927395052, "lat": 47.371388, "lon": 8.5411797}, {"type": "node", "id": 2927395055, "lat": 47.3713938, "lon": 8.5411878}, {"type": "node", "id": 2927395057, "lat": 47.3713965, "lon": 8.5410007}, {"type": "node", "id": 2927395061, "lat": 47.3714002, "lon": 8.5412416}, {"type": "node", "id": 2927395062, "lat": 47.3714018, "lon": 8.5411991}, {"type": "node", "id": 2927395064, "lat": 47.3714495, "lon": 8.5409743}, {"type": "node", "id": 2927395066, "lat": 47.3715097, "lon": 8.5412213}, {"type": "node", "id": 3645826594, "lat": 47.3719905, "lon": 8.540819, "tags": {"camera:mount": "wall", "camera:type": "dome", "man_made": "surveillance", "surveillance": "outdoor", "surveillance:type": "camera"}}, {"type": "node", "id": 3645952051, "lat": 47.3722101, "lon": 8.5405721, "tags": {"entrance": "main"}}, {"type": "node", "id": 3881822122, "lat": 47.3713346, "lon": 8.5404553}, {"type": "node", "id": 3881822125, "lat": 47.3715282, "lon": 8.5404992}, {"type": "node", "id": 3881822126, "lat": 47.371569, "lon": 8.5404895}, {"type": "node", "id": 4857867463, "lat": 47.3718468, "lon": 8.540961, "tags": {"addr:city": "Z\u00fcrich", "addr:country": "CH", "addr:housenumber": "13", "addr:postcode": "8001", "addr:street": "Strehlgasse", "entrance": "staircase"}}, {"type": "node", "id": 4857867464, "lat": 47.3717583, "lon": 8.5409634, "tags": {"addr:city": "Z\u00fcrich", "addr:country": "CH", "addr:housenumber": "10", "addr:postcode": "8001", "addr:street": "St. Peterhofstatt", "entrance": "staircase"}}, {"type": "node", "id": 6635185154, "lat": 47.371388, "lon": 8.5411883}, {"type": "node", "id": 6635191163, "lat": 47.3713958, "lon": 8.5411877}, {"type": "node", "id": 6635191164, "lat": 47.371394, "lon": 8.5411068}, {"type": "node", "id": 6635191165, "lat": 47.3713967, "lon": 8.5411065}, {"type": "node", "id": 6635191166, "lat": 47.3714797, "lon": 8.54111}, {"type": "node", "id": 6635191167, "lat": 47.3713971, "lon": 8.5409893}, {"type": "node", "id": 9082268048, "lat": 47.3719006, "lon": 8.5410602, "tags": {"entrance": "yes"}}, {"type": "node", "id": 9082268049, "lat": 47.3719066, "lon": 8.5410505, "tags": {"entrance": "yes"}}, {"type": "way", "id": 89896371, "nodes": [1041912808, 1041911882, 1041912311, 3881822125, 1041912912, 1041912132, 1041912048, 3881822122, 2925715585, 1041912509, 2925715588, 1041911599, 1041912808], "tags": {"addr:city": "Z\u00fcrich", "addr:country": "CH", "addr:housenumber": "2", "addr:postcode": "8001", "addr:street": "St. Peterhofstatt", "building": "yes", "source": "Stadt Z\u00fcrich Open Government Data; Geomatik + Vermessung; Tiefbau- und Entsorgungsdepartement"}}, {"type": "way", "id": 89896386, "nodes": [1041912410, 1041911722, 9082268049, 9082268048, 1041912304, 1041912690, 4857867463, 1041912410], "tags": {"addr:city": "Z\u00fcrich", "addr:country": "CH", "addr:housenumber": "13", "addr:postcode": "8001", "addr:street": "Strehlgasse", "building": "apartments", "building:levels": "5", "roof:levels": "1", "source": "Stadt Z\u00fcrich Open Government Data; Geomatik + Vermessung; Tiefbau- und Entsorgungsdepartement"}}, {"type": "way", "id": 89896451, "nodes": [1041911935, 2925754161, 2925754160, 2925754153, 1041912486, 1041912862, 1041911654, 1041912035, 2925754138, 1041912752, 1041911935], "tags": {"addr:city": "Z\u00fcrich", "addr:country": "CH", "addr:housenumber": "6", "addr:postcode": "8001", "addr:street": "St. Peterhofstatt", "building": "yes", "name": "Lavaterhaus"}}, {"type": "way", "id": 89896529, "nodes": [1041912862, 1041913039, 1041911827, 1041911654, 1041912862], "tags": {"addr:city": "Z\u00fcrich", "addr:country": "CH", "addr:housenumber": "8", "addr:postcode": "8001", "addr:street": "St. Peterhofstatt", "building": "yes", "name": "Kleine Mugg", "source": "Stadt Z\u00fcrich Open Government Data; Geomatik + Vermessung; Tiefbau- und Entsorgungsdepartement"}}, {"type": "way", "id": 89896530, "nodes": [1041912313, 2925754167, 1041911801, 2925696793, 1041912174, 2925754165, 1041911935, 1041912752, 2205041396, 1041912313], "tags": {"addr:city": "Z\u00fcrich", "addr:country": "CH", "addr:postcode": "8001", "building": "yes", "building:levels": "5", "name": "Zur grossen Reblaube", "roof:levels": "1", "roof:shape": "gabled", "source": "Stadt Z\u00fcrich Open Government Data; Geomatik + Vermessung; Tiefbau- und Entsorgungsdepartement"}}, {"type": "way", "id": 288182266, "nodes": [2917307862, 2917307860, 2917307819, 2917307846, 2917307852, 2917307853, 2917307857, 2917307859, 2205041420, 2917307862], "tags": {"addr:city": "Z\u00fcrich", "addr:country": "CH", "addr:postcode": "8001", "building": "yes", "name": "Zum grossen Leoparden", "source": "Stadt Z\u00fcrich Open Government Data; Geomatik + Vermessung; Tiefbau- und Entsorgungsdepartement"}}, {"type": "way", "id": 288182267, "nodes": [2917307846, 2917307818, 2917307838, 2917307858, 2205041412, 2917307859, 2917307857, 2917307853, 2917307852, 2917307846], "tags": {"addr:city": "Z\u00fcrich", "addr:country": "CH", "addr:postcode": "8001", "building": "yes", "source": "Stadt Z\u00fcrich Open Government Data; Geomatik + Vermessung; Tiefbau- und Entsorgungsdepartement"}}, {"type": "way", "id": 289026055, "nodes": [2925754159, 2925754155, 2925754144, 2925754146, 2925754159], "tags": {"addr:city": "Z\u00fcrich", "addr:country": "CH", "addr:housenumber": "17a", "addr:postcode": "8001", "addr:street": "Schl\u00fcsselgasse", "building": "yes", "source": "Stadt Z\u00fcrich Open Government Data; Geomatik + Vermessung; Tiefbau- und Entsorgungsdepartement"}}, {"type": "way", "id": 289026056, "nodes": [1041912690, 2205041357, 2925754132, 2925754143, 2925696792, 1041912304, 1041912690], "tags": {"addr:city": "Z\u00fcrich", "addr:country": "CH", "addr:postcode": "8001", "building": "yes", "building:levels": "5", "name": "Zur weissen Taube", "roof:levels": "1", "source": "Stadt Z\u00fcrich Open Government Data; Geomatik + Vermessung; Tiefbau- und Entsorgungsdepartement"}}, {"type": "way", "id": 289026057, "nodes": [2925754164, 2205041366, 2925754175, 2925754176, 2205041340, 2925754166, 2925754163, 2925754164], "tags": {"addr:city": "Z\u00fcrich", "addr:country": "CH", "addr:postcode": "8001", "building": "yes", "name": "Zur Gr\u00fcnen Ecke", "source": "Stadt Z\u00fcrich Open Government Data;Geomatik + Vermessung;Tiefbau- und Entsorgungsdepartement"}}, {"type": "way", "id": 289026062, "nodes": [2925754152, 2925754164, 2925754163, 2925754162, 2925754159, 2925754146, 2925754151, 2925754147, 2925754152], "tags": {"addr:city": "Z\u00fcrich", "addr:country": "CH", "addr:housenumber": "17", "addr:postcode": "8001", "addr:street": "Strehlgasse", "building": "apartments", "source": "Stadt Z\u00fcrich Open Government Data; Geomatik + Vermessung; Tiefbau- und Entsorgungsdepartement"}}, {"type": "way", "id": 289026063, "nodes": [2925754179, 3645826594, 2925754178, 2925754182, 2925754184, 2925754179], "tags": {"addr:city": "Z\u00fcrich", "addr:country": "CH", "addr:housenumber": "2", "addr:postcode": "8001", "addr:street": "Glockengasse", "building": "yes", "source": "Stadt Z\u00fcrich Open Government Data; Geomatik + Vermessung; Tiefbau- und Entsorgungsdepartement"}}, {"type": "way", "id": 289026067, "nodes": [2925754181, 2925754180, 2925754183, 2925754186, 2925754191, 2925754201, 2925754204, 2925754205, 2925754212, 3645952051, 2925754213, 2925754210, 2925754203, 2925754194, 2925754189, 2925754187, 2925754181], "tags": {"addr:city": "Z\u00fcrich", "addr:country": "CH", "addr:housenumber": "29", "addr:postcode": "8001", "addr:street": "Strehlgasse", "building": "yes", "source": "Stadt Z\u00fcrich Open Government Data; Geomatik + Vermessung; Tiefbau- und Entsorgungsdepartement"}}, {"type": "way", "id": 289026068, "nodes": [2925754166, 2925754174, 2925754170, 2925754171, 2925754161, 2925754160, 2925754153, 2925754155, 2925754159, 2925754162, 2925754163, 2925754166], "tags": {"addr:city": "Z\u00fcrich", "addr:country": "CH", "addr:housenumber": "3", "addr:postcode": "8001", "addr:street": "Glockengasse", "building": "yes", "source": "Stadt Z\u00fcrich Open Government Data; Geomatik + Vermessung; Tiefbau- und Entsorgungsdepartement"}}, {"type": "way", "id": 289026069, "nodes": [2925754103, 3881822126, 2925754104, 2925754105, 2925754108, 2925754107, 2925754115, 2925754113, 2925754111, 2925754103], "tags": {"addr:city": "Z\u00fcrich", "addr:country": "CH", "addr:housenumber": "3", "addr:postcode": "8001", "addr:street": "St. Peterhofstatt", "building": "yes", "source": "Stadt Z\u00fcrich Open Government Data; Geomatik + Vermessung; Tiefbau- und Entsorgungsdepartement"}}, {"type": "way", "id": 289026072, "nodes": [2925754180, 2925754179, 2925754184, 2925754188, 2925754190, 2925754191, 2925754186, 2925754183, 2925754180], "tags": {"addr:city": "Z\u00fcrich", "addr:country": "CH", "addr:housenumber": "4", "addr:postcode": "8001", "addr:street": "Glockengasse", "building": "yes", "name": "Kleiner Riese", "source": "Stadt Z\u00fcrich Open Government Data; Geomatik + Vermessung; Tiefbau- und Entsorgungsdepartement"}}, {"type": "way", "id": 289026073, "nodes": [2925754113, 2925754124, 2925754123, 2925754122, 2925754117, 2925754116, 2925754111, 2925754113], "tags": {"addr:city": "Z\u00fcrich", "addr:country": "CH", "addr:housenumber": "4", "addr:postcode": "8001", "addr:street": "St. Peterhofstatt", "building": "yes", "source": "Stadt Z\u00fcrich Open Government Data; Geomatik + Vermessung; Tiefbau- und Entsorgungsdepartement"}}, {"type": "way", "id": 289026074, "nodes": [2925754171, 1041912174, 2925754165, 1041911935, 2925754161, 2925754171], "tags": {"addr:city": "Z\u00fcrich", "addr:country": "CH", "addr:housenumber": "5", "addr:postcode": "8001", "addr:street": "Glockengasse", "building": "yes", "source": "Stadt Z\u00fcrich Open Government Data; Geomatik + Vermessung; Tiefbau- und Entsorgungsdepartement"}}, {"type": "way", "id": 289026076, "nodes": [1037539700, 2925754181, 2925754187, 2925754189, 2925754194, 2925754192, 1037539700], "tags": {"addr:city": "Z\u00fcrich", "addr:country": "CH", "addr:housenumber": "6a", "addr:postcode": "8001", "addr:street": "Glockengasse", "building": "yes", "note": "Hausnummer am Haus ist 8", "source": "Stadt Z\u00fcrich Open Government Data; Geomatik + Vermessung; Tiefbau- und Entsorgungsdepartement"}}, {"type": "way", "id": 289026079, "nodes": [1041911827, 2925754128, 2925754149, 1041913039, 1041911827], "tags": {"addr:city": "Z\u00fcrich", "addr:country": "CH", "addr:housenumber": "9", "addr:postcode": "8001", "addr:street": "St. Peterhofstatt", "building": "yes", "name": "Grosse Mugg", "source": "Stadt Z\u00fcrich Open Government Data; Geomatik + Vermessung; Tiefbau- und Entsorgungsdepartement"}}, {"type": "way", "id": 289029062, "nodes": [2925788399, 4857867464, 2925788349, 2925788353, 2925788352, 2925788356, 2925788380, 2925788382, 2925789104, 2925788399], "tags": {"addr:city": "Z\u00fcrich", "addr:country": "CH", "addr:housenumber": "10", "addr:postcode": "8001", "addr:street": "St. Peterhofstatt", "building": "yes", "name": "Gr\u00fcner Berg", "source": "Stadt Z\u00fcrich Open Government Data; Geomatik + Vermessung; Tiefbau- und Entsorgungsdepartement"}}, {"type": "way", "id": 289029063, "nodes": [2925788349, 2925788332, 2925788337, 2925788352, 2925788353, 2925788349], "tags": {"addr:city": "Z\u00fcrich", "addr:country": "CH", "addr:housenumber": "11", "addr:postcode": "8001", "addr:street": "St. Peterhofstatt", "building": "yes", "source": "Stadt Z\u00fcrich Open Government Data; Geomatik + Vermessung; Tiefbau- und Entsorgungsdepartement"}}, {"type": "way", "id": 289029064, "nodes": [2925788332, 2925788327, 2925788329, 2925788334, 2925788337, 2925788332], "tags": {"addr:city": "Z\u00fcrich", "addr:country": "CH", "addr:housenumber": "12", "addr:postcode": "8001", "addr:street": "St. Peterhofstatt", "building": "yes", "source": "Stadt Z\u00fcrich Open Government Data; Geomatik + Vermessung; Tiefbau- und Entsorgungsdepartement"}}, {"type": "way", "id": 289187676, "nodes": [2927395064, 2205041371, 6635191167, 2927395057, 6635191165, 6635191164, 2927395055, 6635191163, 2927395062, 2927395061, 2927395066, 2927394909, 6635191166, 2927395064], "tags": {"addr:city": "Z\u00fcrich", "addr:country": "CH", "addr:postcode": "8001", "building": "yes", "source": "Stadt Z\u00fcrich Open Government Data; Geomatik + Vermessung; Tiefbau- und Entsorgungsdepartement"}}, {"type": "way", "id": 289187694, "nodes": [2927395057, 2927395049, 2927395046, 2927395052, 6635185154, 2927395055, 6635191164, 6635191165, 2927395057], "tags": {"addr:city": "Z\u00fcrich", "addr:country": "CH", "addr:housenumber": "18", "addr:postcode": "8001", "addr:street": "Schl\u00fcsselgasse", "building": "yes", "name": "Zum kleinen Christoffel", "source": "Stadt Z\u00fcrich Open Government Data; Geomatik + Vermessung; Tiefbau- und Entsorgungsdepartement"}}]}