{"version": 0.6, "generator": "Overpass API 0.7.60.6 e2dc3e5b", "osm3s": {"timestamp_osm_base": "2023-06-29T15:22:02Z", "copyright": "The data included in this document is from www.openstreetmap.org. The data is made available under ODbL."}, "elements": [{"type": "node", "id": 358116518, "lat": 47.367863, "lon": 8.5442352}, {"type": "node", "id": 358116519, "lat": 47.3673605, "lon": 8.5445234}, {"type": "node", "id": 358116521, "lat": 47.3674917, "lon": 8.5449324}, {"type": "node", "id": 358116522, "lat": 47.3679634, "lon": 8.5444789}, {"type": "node", "id": 916616120, "lat": 47.3677864, "lon": 8.5450928}, {"type": "node", "id": 916616182, "lat": 47.3676559, "lon": 8.5452274}, {"type": "node", "id": 916616220, "lat": 47.3676498, "lon": 8.5453105}, {"type": "node", "id": 916616235, "lat": 47.3684595, "lon": 8.5454547}, {"type": "node", "id": 916616270, "lat": 47.3678147, "lon": 8.5450969}, {"type": "node", "id": 916616271, "lat": 47.3683843, "lon": 8.5455055}, {"type": "node", "id": 916945068, "lat": 47.3683146, "lon": 8.5453364}, {"type": "node", "id": 916945090, "lat": 47.3683881, "lon": 8.5452733}, {"type": "node", "id": 916945112, "lat": 47.368282, "lon": 8.545253}, {"type": "node", "id": 916945133, "lat": 47.3683562, "lon": 8.5451905}, {"type": "node", "id": 916945141, "lat": 47.3682943, "lon": 8.5449961}, {"type": "node", "id": 955271540, "lat": 47.3687961, "lon": 8.5448324}, {"type": "node", "id": 955271835, "lat": 47.3687127, "lon": 8.5448934}, {"type": "node", "id": 1031582166, "lat": 47.3681424, "lon": 8.5447276}, {"type": "node", "id": 1031582184, "lat": 47.3682236, "lon": 8.5451932}, {"type": "node", "id": 1031582296, "lat": 47.3683838, "lon": 8.5452171}, {"type": "node", "id": 1031582334, "lat": 47.3684405, "lon": 8.5450675}, {"type": "node", "id": 1031582392, "lat": 47.3680102, "lon": 8.5452529}, {"type": "node", "id": 1031582396, "lat": 47.367998, "lon": 8.545222}, {"type": "node", "id": 1031582443, "lat": 47.368532, "lon": 8.5442817}, {"type": "node", "id": 1031582550, "lat": 47.3682951, "lon": 8.5453756}, {"type": "node", "id": 1031582602, "lat": 47.3681747, "lon": 8.5450474}, {"type": "node", "id": 1031582663, "lat": 47.3682237, "lon": 8.5449482}, {"type": "node", "id": 1031582675, "lat": 47.368377, "lon": 8.5449124}, {"type": "node", "id": 1031582756, "lat": 47.3680782, "lon": 8.5454734}, {"type": "node", "id": 1031582774, "lat": 47.3688221, "lon": 8.5443312}, {"type": "node", "id": 1031582833, "lat": 47.3678934, "lon": 8.5449762}, {"type": "node", "id": 1031582905, "lat": 47.3686608, "lon": 8.5445182}, {"type": "node", "id": 1031582915, "lat": 47.3681422, "lon": 8.5453673}, {"type": "node", "id": 1031582969, "lat": 47.368109, "lon": 8.545297}, {"type": "node", "id": 1031582978, "lat": 47.3687669, "lon": 8.5445097}, {"type": "node", "id": 1031583122, "lat": 47.368279, "lon": 8.5445805}, {"type": "node", "id": 1031583185, "lat": 47.3680391, "lon": 8.5451831}, {"type": "node", "id": 1031583248, "lat": 47.3683805, "lon": 8.5447802}, {"type": "node", "id": 1031583323, "lat": 47.3681497, "lon": 8.5454021}, {"type": "node", "id": 1031583378, "lat": 47.3680654, "lon": 8.5447863}, {"type": "node", "id": 1031583438, "lat": 47.3684729, "lon": 8.5451537}, {"type": "node", "id": 1031583483, "lat": 47.3682557, "lon": 8.5452732}, {"type": "node", "id": 1031583581, "lat": 47.3686974, "lon": 8.5440985}, {"type": "node", "id": 1031583619, "lat": 47.3680527, "lon": 8.5452137}, {"type": "node", "id": 1031583665, "lat": 47.3681911, "lon": 8.5454625}, {"type": "node", "id": 1031583667, "lat": 47.3686191, "lon": 8.5446636}, {"type": "node", "id": 1031583732, "lat": 47.3683532, "lon": 8.545137}, {"type": "node", "id": 1970612874, "lat": 47.3686852, "lon": 8.5448123}, {"type": "node", "id": 1970612877, "lat": 47.3686926, "lon": 8.5445931}, {"type": "node", "id": 1970612888, "lat": 47.3686968, "lon": 8.5445862}, {"type": "node", "id": 1970612890, "lat": 47.3687914, "lon": 8.5447987}, {"type": "node", "id": 1970612893, "lat": 47.3688639, "lon": 8.5446972}, {"type": "node", "id": 2858438089, "lat": 47.3677468, "lon": 8.5447215, "tags": {"addr:city": "Z\u00fcrich", "addr:country": "CH", "addr:housenumber": "1", "addr:postcode": "8001", "addr:street": "Limmatquai"}}, {"type": "node", "id": 2858438090, "lat": 47.3679467, "lon": 8.5451035, "tags": {"addr:city": "Z\u00fcrich", "addr:country": "CH", "addr:housenumber": "1", "addr:postcode": "8001", "addr:street": "Torgasse"}}, {"type": "node", "id": 2858438092, "lat": 47.3677156, "lon": 8.5451712, "tags": {"addr:city": "Z\u00fcrich", "addr:country": "CH", "addr:housenumber": "2", "addr:postcode": "8001", "addr:street": "Limmatquai"}}, {"type": "node", "id": 2858438093, "lat": 47.3678435, "lon": 8.5451685, "tags": {"addr:city": "Z\u00fcrich", "addr:country": "CH", "addr:housenumber": "2", "addr:postcode": "8001", "addr:street": "Torgasse"}}, {"type": "node", "id": 2858438094, "lat": 47.3677329, "lon": 8.5455146, "tags": {"addr:city": "Z\u00fcrich", "addr:country": "CH", "addr:housenumber": "3", "addr:postcode": "8001", "addr:street": "R\u00e4mistrasse"}}, {"type": "node", "id": 2858438095, "lat": 47.3679797, "lon": 8.544883, "tags": {"addr:city": "Z\u00fcrich", "addr:country": "CH", "addr:housenumber": "4", "addr:postcode": "8001", "addr:street": "Limmatquai"}}, {"type": "node", "id": 2858438096, "lat": 47.3679167, "lon": 8.545346, "tags": {"addr:city": "Z\u00fcrich", "addr:country": "CH", "addr:housenumber": "4", "addr:postcode": "8001", "addr:street": "Torgasse"}}, {"type": "node", "id": 2858438097, "lat": 47.3674291, "lon": 8.5447346, "tags": {"addr:city": "Z\u00fcrich", "addr:country": "CH", "addr:housenumber": "5", "addr:postcode": "8001", "addr:street": "Bellevueplatz"}}, {"type": "node", "id": 2858438099, "lat": 47.3682065, "lon": 8.5446561, "tags": {"addr:city": "Z\u00fcrich", "addr:country": "CH", "addr:housenumber": "6", "addr:postcode": "8001", "addr:street": "Limmatquai"}}, {"type": "node", "id": 2858439301, "lat": 47.3683291, "lon": 8.5446803, "tags": {"addr:city": "Z\u00fcrich", "addr:country": "CH", "addr:housenumber": "7", "addr:postcode": "8001", "addr:street": "Hechtplatz"}}, {"type": "node", "id": 2858439304, "lat": 47.3675065, "lon": 8.5449498}, {"type": "node", "id": 2858439305, "lat": 47.3675291, "lon": 8.5449551}, {"type": "node", "id": 2858439306, "lat": 47.3676932, "lon": 8.5454074}, {"type": "node", "id": 2858439307, "lat": 47.3677763, "lon": 8.5456108}, {"type": "node", "id": 2858439308, "lat": 47.3678756, "lon": 8.5452441}, {"type": "node", "id": 2858439309, "lat": 47.3679039, "lon": 8.5442278}, {"type": "node", "id": 2858439311, "lat": 47.3679431, "lon": 8.5442524}, {"type": "node", "id": 2858439312, "lat": 47.3679601, "lon": 8.545447}, {"type": "node", "id": 2858439313, "lat": 47.3679741, "lon": 8.5442999}, {"type": "node", "id": 2858439314, "lat": 47.3679871, "lon": 8.5443561}, {"type": "node", "id": 2858439315, "lat": 47.3679871, "lon": 8.5444158}, {"type": "node", "id": 2858439316, "lat": 47.3680333, "lon": 8.545378}, {"type": "node", "id": 2858439317, "lat": 47.3680595, "lon": 8.5453525}, {"type": "node", "id": 2858439318, "lat": 47.3680648, "lon": 8.5452384}, {"type": "node", "id": 2858439319, "lat": 47.3680759, "lon": 8.5452286}, {"type": "node", "id": 2858439321, "lat": 47.3681059, "lon": 8.5453209}, {"type": "node", "id": 2858439322, "lat": 47.3681415, "lon": 8.5447521}, {"type": "node", "id": 2858439323, "lat": 47.3681807, "lon": 8.5448631}, {"type": "node", "id": 2858439324, "lat": 47.3681916, "lon": 8.5448508}, {"type": "node", "id": 2858439325, "lat": 47.3681954, "lon": 8.5451168}, {"type": "node", "id": 2858439327, "lat": 47.3682139, "lon": 8.5450551}, {"type": "node", "id": 2858439328, "lat": 47.3682371, "lon": 8.5451114}, {"type": "node", "id": 2858439329, "lat": 47.3682797, "lon": 8.5449982}, {"type": "node", "id": 2858439332, "lat": 47.3683021, "lon": 8.5450528}, {"type": "node", "id": 2858439333, "lat": 47.3684669, "lon": 8.545441}, {"type": "node", "id": 2858439334, "lat": 47.3684892, "lon": 8.5452447}, {"type": "node", "id": 2858439335, "lat": 47.3684995, "lon": 8.5452376}, {"type": "node", "id": 2858439338, "lat": 47.3685453, "lon": 8.5453963}, {"type": "node", "id": 2858512545, "lat": 47.368417, "lon": 8.544868}, {"type": "node", "id": 2858512548, "lat": 47.3684555, "lon": 8.5449604}, {"type": "node", "id": 2858512551, "lat": 47.3684769, "lon": 8.5450224}, {"type": "node", "id": 2858512553, "lat": 47.3684967, "lon": 8.5450844}, {"type": "node", "id": 2858512554, "lat": 47.3685013, "lon": 8.5447067}, {"type": "node", "id": 2858512555, "lat": 47.3685204, "lon": 8.5451731}, {"type": "node", "id": 2858512556, "lat": 47.3685256, "lon": 8.544756}, {"type": "node", "id": 2858512559, "lat": 47.3685409, "lon": 8.5452382}, {"type": "node", "id": 2858512562, "lat": 47.3685616, "lon": 8.545023}, {"type": "node", "id": 2858512563, "lat": 47.3685698, "lon": 8.5448516}, {"type": "node", "id": 2858512564, "lat": 47.3685706, "lon": 8.5446312}, {"type": "node", "id": 2858512565, "lat": 47.3685771, "lon": 8.5448691}, {"type": "node", "id": 2858512568, "lat": 47.3685955, "lon": 8.5449118}, {"type": "node", "id": 2858512569, "lat": 47.3686067, "lon": 8.544933}, {"type": "node", "id": 2858512570, "lat": 47.3686179, "lon": 8.5451797}, {"type": "node", "id": 2858512571, "lat": 47.3686197, "lon": 8.5449678}, {"type": "node", "id": 2858512572, "lat": 47.3686239, "lon": 8.5449765}, {"type": "node", "id": 2858512575, "lat": 47.3686388, "lon": 8.5452455}, {"type": "node", "id": 2858512576, "lat": 47.3686399, "lon": 8.5448918}, {"type": "node", "id": 2858512577, "lat": 47.3686416, "lon": 8.5455467}, {"type": "node", "id": 2858512578, "lat": 47.3686471, "lon": 8.5448033}, {"type": "node", "id": 2858512579, "lat": 47.368648, "lon": 8.5450462}, {"type": "node", "id": 2858512581, "lat": 47.3686542, "lon": 8.5450649}, {"type": "node", "id": 2858512582, "lat": 47.3686548, "lon": 8.5452341}, {"type": "node", "id": 2858512583, "lat": 47.368657, "lon": 8.5452179}, {"type": "node", "id": 2858512585, "lat": 47.3686715, "lon": 8.5448647}, {"type": "node", "id": 2858512586, "lat": 47.3686762, "lon": 8.5453031}, {"type": "node", "id": 2858512587, "lat": 47.3686777, "lon": 8.5451373}, {"type": "node", "id": 2858512590, "lat": 47.3686807, "lon": 8.5451465}, {"type": "node", "id": 2858512591, "lat": 47.3686856, "lon": 8.5452755}, {"type": "node", "id": 2858512593, "lat": 47.3686927, "lon": 8.5449146}, {"type": "node", "id": 2858512594, "lat": 47.3686927, "lon": 8.5452882}, {"type": "node", "id": 2858512595, "lat": 47.3686933, "lon": 8.5451967}, {"type": "node", "id": 2858515501, "lat": 47.3687153, "lon": 8.5452438}, {"type": "node", "id": 2858515502, "lat": 47.3687186, "lon": 8.5449844}, {"type": "node", "id": 2858515504, "lat": 47.3687312, "lon": 8.5452532}, {"type": "node", "id": 2858515505, "lat": 47.3687342, "lon": 8.5450218, "tags": {"door": "hinged", "entrance": "yes", "inscription": "1710", "wheelchair": "no"}}, {"type": "node", "id": 2858515508, "lat": 47.3687455, "lon": 8.5454314}, {"type": "node", "id": 2858515509, "lat": 47.3687601, "lon": 8.5450755}, {"type": "node", "id": 2858515510, "lat": 47.3687624, "lon": 8.5452152}, {"type": "node", "id": 2858515513, "lat": 47.3688056, "lon": 8.5451638}, {"type": "node", "id": 2858515517, "lat": 47.3688247, "lon": 8.5453397}, {"type": "node", "id": 4838594383, "lat": 47.3677078, "lon": 8.5454491}, {"type": "node", "id": 4838594384, "lat": 47.3676876, "lon": 8.545416}, {"type": "node", "id": 4838594385, "lat": 47.3677033, "lon": 8.5454553}, {"type": "node", "id": 4838594386, "lat": 47.3676352, "lon": 8.5452937}, {"type": "node", "id": 4838594387, "lat": 47.3676318, "lon": 8.5452661}, {"type": "node", "id": 4838594388, "lat": 47.3676412, "lon": 8.5452346}, {"type": "node", "id": 5204573004, "lat": 47.368343, "lon": 8.5451529}, {"type": "node", "id": 5204573005, "lat": 47.368278, "lon": 8.5452116}, {"type": "way", "id": 31966654, "nodes": [358116518, 358116519, 2858438097, 358116521, 2858439304, 2858439305, 2858438089, 358116522, 2858439315, 2858439314, 2858439313, 2858439311, 2858439309, 358116518], "tags": {"addr:city": "Z\u00fcrich", "addr:country": "CH", "addr:postcode": "8001", "building": "apartments", "building:levels": "5", "name": "Bellevue", "roof:levels": "1", "source": "Stadt Z\u00fcrich Open Government Data; Geomatik + Vermessung; Tiefbau- und Entsorgungsdepartement"}}, {"type": "way", "id": 78011626, "nodes": [2858439308, 2858438093, 916616270, 916616120, 2858438092, 916616182, 4838594388, 4838594387, 4838594386, 916616220, 2858439306, 2858439308], "tags": {"building": "apartments", "building:levels": "5", "roof:levels": "1", "source": "Stadt Z\u00fcrich Open Government Data; Geomatik + Vermessung; Tiefbau- und Entsorgungsdepartement", "wikidata": "Q1542522"}}, {"type": "way", "id": 78048751, "nodes": [916945068, 916616271, 916616235, 916945090, 916945068], "tags": {"addr:city": "Z\u00fcrich", "addr:country": "CH", "addr:housenumber": "7", "addr:postcode": "8001", "addr:street": "Kruggasse", "building": "yes", "source": "Stadt Z\u00fcrich Open Government Data; Geomatik + Vermessung; Tiefbau- und Entsorgungsdepartement"}}, {"type": "way", "id": 78048756, "nodes": [916945112, 916945068, 916945090, 916945133, 916945112], "tags": {"addr:city": "Z\u00fcrich", "addr:country": "CH", "addr:housenumber": "5", "addr:postcode": "8001", "addr:street": "Kruggasse", "building": "apartments", "source": "Stadt Z\u00fcrich Open Government Data; Geomatik + Vermessung; Tiefbau- und Entsorgungsdepartement"}}, {"type": "way", "id": 88877007, "nodes": [1031582602, 1031583185, 1031582396, 2858438090, 1031582833, 2858438095, 1031583378, 1031582602], "tags": {"building": "commercial", "building:levels": "6", "name": "Z\u00fcrcherhof", "owner": "PSP Swiss Property", "roof:levels": "1", "source": "Stadt Z\u00fcrich Open Government Data; Geomatik + Vermessung; Tiefbau- und Entsorgungsdepartement", "start_date": "1837"}}, {"type": "way", "id": 88877044, "nodes": [1970612877, 1031583667, 1970612874, 955271835, 955271540, 1970612877], "tags": {"addr:city": "Z\u00fcrich", "addr:country": "CH", "addr:housenumber": "16", "addr:postcode": "8001", "addr:street": "Schiffl\u00e4nde", "building": "apartments", "source": "Stadt Z\u00fcrich Open Government Data; Geomatik + Vermessung; Tiefbau- und Entsorgungsdepartement"}}, {"type": "way", "id": 88877074, "nodes": [1031582774, 1031583581, 1031582443, 1031582905, 1031582774], "tags": {"addr:city": "Z\u00fcrich", "addr:country": "CH", "addr:housenumber": "5", "addr:postcode": "8001", "addr:street": "Schiffl\u00e4nde", "building": "apartments", "source": "Stadt Z\u00fcrich Open Government Data; Geomatik + Vermessung; Tiefbau- und Entsorgungsdepartement"}}, {"type": "way", "id": 88877082, "nodes": [1031582184, 1031582969, 1031582915, 1031583483, 1031582184], "tags": {"addr:city": "Z\u00fcrich", "addr:country": "CH", "addr:housenumber": "4", "addr:postcode": "8001", "addr:street": "Kruggasse", "building": "yes", "source": "Stadt Z\u00fcrich Open Government Data; Geomatik + Vermessung; Tiefbau- und Entsorgungsdepartement"}}, {"type": "way", "id": 88877106, "nodes": [1031582334, 1031582675, 916945141, 1031583732, 1031582334], "tags": {"addr:city": "Z\u00fcrich", "addr:country": "CH", "addr:housenumber": "8", "addr:postcode": "8001", "addr:street": "Schiffl\u00e4nde", "building": "apartments", "building:levels": "5", "roof:levels": "1", "source": "Stadt Z\u00fcrich Open Government Data; Geomatik + Vermessung; Tiefbau- und Entsorgungsdepartement"}}, {"type": "way", "id": 88877125, "nodes": [1031583122, 2858438099, 1031582166, 2858439322, 2858439324, 2858439323, 1031582663, 1031583248, 2858439301, 1031583122], "tags": {"building": "retail", "building:levels": "1", "source": "Stadt Z\u00fcrich Open Government Data; Geomatik + Vermessung; Tiefbau- und Entsorgungsdepartement"}}, {"type": "way", "id": 88877190, "nodes": [1031582915, 1031583665, 1031582550, 1031583483, 1031582915], "tags": {"addr:city": "Z\u00fcrich", "addr:country": "CH", "addr:housenumber": "6", "addr:postcode": "8001", "addr:street": "Kruggasse", "building": "yes", "source": "Stadt Z\u00fcrich Open Government Data; Geomatik + Vermessung; Tiefbau- und Entsorgungsdepartement"}}, {"type": "way", "id": 88877218, "nodes": [1031582296, 1031583732, 1031582334, 1031583438, 1031582296], "tags": {"addr:city": "Z\u00fcrich", "addr:country": "CH", "addr:housenumber": "4", "addr:postcode": "8001", "addr:street": "Weite Gasse", "building": "yes", "source": "Stadt Z\u00fcrich Open Government Data; Geomatik + Vermessung; Tiefbau- und Entsorgungsdepartement"}}, {"type": "way", "id": 186380955, "nodes": [1031582978, 1970612893, 1970612890, 1970612888, 1031582978], "tags": {"addr:city": "Z\u00fcrich", "addr:country": "CH", "addr:housenumber": "18", "addr:postcode": "8001", "addr:street": "Schiffl\u00e4nde", "building": "yes", "source": "Stadt Z\u00fcrich Open Government Data; Geomatik + Vermessung; Tiefbau- und Entsorgungsdepartement"}}, {"type": "way", "id": 281884921, "nodes": [2858439312, 2858438096, 2858439308, 2858439306, 4838594384, 4838594385, 4838594383, 2858438094, 2858439307, 2858439312], "tags": {"building": "apartments", "source": "Stadt Z\u00fcrich Open Government Data; Geomatik + Vermessung; Tiefbau- und Entsorgungsdepartement"}}, {"type": "way", "id": 281884925, "nodes": [1031582184, 2858439325, 2858439319, 1031582969, 1031582184], "tags": {"addr:city": "Z\u00fcrich", "addr:country": "CH", "addr:housenumber": "2", "addr:postcode": "8001", "addr:street": "Kruggasse", "building": "apartments", "building:levels": "5", "source": "Stadt Z\u00fcrich Open Government Data; Geomatik + Vermessung; Tiefbau- und Entsorgungsdepartement"}}, {"type": "way", "id": 281884926, "nodes": [1031583185, 1031583619, 2858439318, 2858439321, 1031583323, 1031582756, 2858439316, 2858439317, 1031582392, 1031582396, 1031583185], "tags": {"addr:city": "Z\u00fcrich", "addr:country": "CH", "addr:housenumber": "3", "addr:postcode": "8001", "addr:street": "Torgasse", "building": "yes", "source": "Stadt Z\u00fcrich Open Government Data; Geomatik + Vermessung; Tiefbau- und Entsorgungsdepartement"}}, {"type": "way", "id": 281884927, "nodes": [2858439329, 2858439332, 2858439328, 2858439327, 2858439329], "tags": {"addr:city": "Z\u00fcrich", "addr:country": "CH", "addr:housenumber": "6", "addr:postcode": "8001", "addr:street": "Schiffl\u00e4nde", "building": "apartments", "source": "Stadt Z\u00fcrich Open Government Data;Geomatik + Vermessung;Tiefbau- und Entsorgungsdepartement"}}, {"type": "way", "id": 281884928, "nodes": [2858439338, 2858439334, 2858439335, 1031583438, 1031582296, 2858439333, 916616235, 2858439338], "tags": {"addr:city": "Z\u00fcrich", "addr:country": "CH", "addr:housenumber": "6", "addr:postcode": "8001", "addr:street": "Weite Gasse", "building": "yes", "source": "Stadt Z\u00fcrich Open Government Data; Geomatik + Vermessung; Tiefbau- und Entsorgungsdepartement"}}, {"type": "way", "id": 281891307, "nodes": [2858512579, 2858512581, 2858512587, 2858512590, 2858515509, 2858515505, 2858515502, 2858512579], "tags": {"addr:city": "Z\u00fcrich", "addr:country": "CH", "addr:housenumber": "10", "addr:postcode": "8001", "addr:street": "Scheitergasse", "building": "yes", "source": "Stadt Z\u00fcrich Open Government Data; Geomatik + Vermessung; Tiefbau- und Entsorgungsdepartement"}}, {"type": "way", "id": 281891309, "nodes": [2858512545, 2858512548, 2858512563, 2858512556, 2858512545], "tags": {"addr:city": "Z\u00fcrich", "addr:country": "CH", "addr:housenumber": "10", "addr:postcode": "8001", "addr:street": "Schiffl\u00e4nde", "building": "apartments", "building:levels": "4", "roof:levels": "2", "source": "Stadt Z\u00fcrich Open Government Data; Geomatik + Vermessung; Tiefbau- und Entsorgungsdepartement"}}, {"type": "way", "id": 281891310, "nodes": [2858515504, 2858512594, 2858512586, 2858515508, 2858515517, 2858515510, 2858515504], "tags": {"addr:city": "Z\u00fcrich", "addr:country": "CH", "addr:housenumber": "11", "addr:postcode": "8001", "addr:street": "Oberdorfstrasse", "building": "apartments", "source": "Stadt Z\u00fcrich Open Government Data; Geomatik + Vermessung; Tiefbau- und Entsorgungsdepartement"}}, {"type": "way", "id": 281891311, "nodes": [2858512590, 2858515504, 2858515510, 2858515513, 2858515509, 2858512590], "tags": {"addr:city": "Z\u00fcrich", "addr:country": "CH", "addr:housenumber": "12", "addr:postcode": "8001", "addr:street": "Scheitergasse", "building": "yes", "source": "Stadt Z\u00fcrich Open Government Data; Geomatik + Vermessung; Tiefbau- und Entsorgungsdepartement"}}, {"type": "way", "id": 281891312, "nodes": [2858512564, 2858512554, 2858512556, 2858512563, 2858512565, 2858512578, 2858512564], "tags": {"addr:city": "Z\u00fcrich", "addr:country": "CH", "addr:housenumber": "12", "addr:postcode": "8001", "addr:street": "Schiffl\u00e4nde", "building": "apartments", "source": "Stadt Z\u00fcrich Open Government Data; Geomatik + Vermessung; Tiefbau- und Entsorgungsdepartement"}}, {"type": "way", "id": 281891321, "nodes": [2858512548, 2858512551, 2858512568, 2858512565, 2858512563, 2858512548], "tags": {"addr:city": "Z\u00fcrich", "addr:country": "CH", "addr:housenumber": "3", "addr:postcode": "8001", "addr:street": "Weite Gasse", "building": "apartments", "source": "Stadt Z\u00fcrich Open Government Data; Geomatik + Vermessung; Tiefbau- und Entsorgungsdepartement"}}, {"type": "way", "id": 281891322, "nodes": [2858512565, 2858512568, 2858512569, 2858512576, 2858512585, 2858512578, 2858512565], "tags": {"addr:city": "Z\u00fcrich", "addr:country": "CH", "addr:housenumber": "4", "addr:postcode": "8001", "addr:street": "Scheitergasse", "building": "yes", "source": "Stadt Z\u00fcrich Open Government Data; Geomatik + Vermessung; Tiefbau- und Entsorgungsdepartement"}}, {"type": "way", "id": 281891324, "nodes": [2858512551, 2858512553, 2858512562, 2858512571, 2858512569, 2858512568, 2858512551], "tags": {"addr:city": "Z\u00fcrich", "addr:country": "CH", "addr:housenumber": "5", "addr:postcode": "8001", "addr:street": "Weite Gasse", "building": "apartments", "source": "Stadt Z\u00fcrich Open Government Data; Geomatik + Vermessung; Tiefbau- und Entsorgungsdepartement"}}, {"type": "way", "id": 281891326, "nodes": [2858512569, 2858512571, 2858512572, 2858512593, 2858512585, 2858512576, 2858512569], "tags": {"addr:city": "Z\u00fcrich", "addr:country": "CH", "addr:housenumber": "6", "addr:postcode": "8001", "addr:street": "Scheitergasse", "building": "yes", "source": "Stadt Z\u00fcrich Open Government Data; Geomatik + Vermessung; Tiefbau- und Entsorgungsdepartement"}}, {"type": "way", "id": 281891327, "nodes": [2858512553, 2858512555, 2858512581, 2858512579, 2858512572, 2858512571, 2858512562, 2858512553], "tags": {"addr:city": "Z\u00fcrich", "addr:country": "CH", "addr:housenumber": "7", "addr:postcode": "8001", "addr:street": "Weite Gasse", "building": "yes", "source": "Stadt Z\u00fcrich Open Government Data; Geomatik + Vermessung; Tiefbau- und Entsorgungsdepartement"}}, {"type": "way", "id": 281891328, "nodes": [2858512572, 2858512579, 2858515502, 2858512593, 2858512572], "tags": {"addr:city": "Z\u00fcrich", "addr:country": "CH", "addr:housenumber": "8", "addr:postcode": "8001", "addr:street": "Scheitergasse", "building": "yes", "source": "Stadt Z\u00fcrich Open Government Data; Geomatik + Vermessung; Tiefbau- und Entsorgungsdepartement"}}, {"type": "way", "id": 281891329, "nodes": [2858512594, 2858512591, 2858515501, 2858512595, 2858512583, 2858512582, 2858512575, 2858512570, 2858512559, 2858512577, 2858515508, 2858512586, 2858512594], "tags": {"addr:city": "Z\u00fcrich", "addr:country": "CH", "addr:housenumber": "9", "addr:postcode": "8001", "addr:street": "Oberdorfstrasse", "building": "yes", "source": "Stadt Z\u00fcrich Open Government Data; Geomatik + Vermessung; Tiefbau- und Entsorgungsdepartement"}}, {"type": "way", "id": 281891330, "nodes": [2858512570, 2858512587, 2858512581, 2858512555, 2858512559, 2858512570], "tags": {"addr:city": "Z\u00fcrich", "addr:country": "CH", "addr:housenumber": "9", "addr:postcode": "8001", "addr:street": "Weite Gasse", "building": "yes", "source": "Stadt Z\u00fcrich Open Government Data; Geomatik + Vermessung; Tiefbau- und Entsorgungsdepartement"}}, {"type": "way", "id": 537468148, "nodes": [2858439332, 5204573004, 5204573005, 2858439328, 2858439332], "tags": {"addr:city": "Z\u00fcrich", "addr:housenumber": "1", "addr:postcode": "8001", "addr:street": "Kruggasse", "building": "yes", "building:levels": "4"}}]}