{"version": 0.6, "generator": "Overpass API 0.7.60.6 e2dc3e5b", "osm3s": {"timestamp_osm_base": "2023-06-29T15:19:02Z", "copyright": "The data included in this document is from www.openstreetmap.org. The data is made available under ODbL."}, "elements": [{"type": "node", "id": 318212804, "lat": 47.376365, "lon": 8.5295689}, {"type": "node", "id": 318213430, "lat": 47.3765402, "lon": 8.5296167}, {"type": "node", "id": 318213432, "lat": 47.3764325, "lon": 8.5294462}, {"type": "node", "id": 318213435, "lat": 47.3768202, "lon": 8.5288589}, {"type": "node", "id": 318213437, "lat": 47.3771271, "lon": 8.5291913}, {"type": "node", "id": 318213439, "lat": 47.3770368, "lon": 8.5293833}, {"type": "node", "id": 318213440, "lat": 47.3768372, "lon": 8.5291675}, {"type": "node", "id": 663310708, "lat": 47.3760207, "lon": 8.529618, "tags": {"addr:city": "Z\u00fcrich", "addr:country": "CH", "addr:housenumber": "70", "addr:postcode": "8004", "addr:street": "Rotwandstrasse"}}, {"type": "node", "id": 663310775, "lat": 47.3760789, "lon": 8.5294992, "tags": {"addr:city": "Z\u00fcrich", "addr:country": "CH", "addr:housenumber": "69", "addr:postcode": "8004", "addr:street": "Rotwandstrasse"}}, {"type": "node", "id": 843156224, "lat": 47.3764845, "lon": 8.5295308, "tags": {"addr:city": "Z\u00fcrich", "addr:housenumber": "60", "addr:postcode": "8004", "addr:street": "Zeughausstrasse"}}, {"type": "node", "id": 850608026, "lat": 47.3760373, "lon": 8.5298586}, {"type": "node", "id": 850608036, "lat": 47.3763052, "lon": 8.5290534}, {"type": "node", "id": 850608157, "lat": 47.3763538, "lon": 8.5293149}, {"type": "node", "id": 850608163, "lat": 47.3763605, "lon": 8.5290667}, {"type": "node", "id": 850608190, "lat": 47.3760926, "lon": 8.529775}, {"type": "node", "id": 850608220, "lat": 47.3761647, "lon": 8.5296292}, {"type": "node", "id": 850608245, "lat": 47.3762411, "lon": 8.5291684}, {"type": "node", "id": 850608259, "lat": 47.3762855, "lon": 8.52949}, {"type": "node", "id": 914702952, "lat": 47.3761906, "lon": 8.529107}, {"type": "node", "id": 914703005, "lat": 47.376019, "lon": 8.5294093, "tags": {"addr:city": "Z\u00fcrich", "addr:country": "CH", "addr:housenumber": "67", "addr:postcode": "8004", "addr:street": "Rotwandstrasse"}}, {"type": "node", "id": 914703021, "lat": 47.3764547, "lon": 8.5289951, "tags": {"addr:city": "Z\u00fcrich", "addr:country": "CH", "addr:housenumber": "65", "addr:postcode": "8004", "addr:street": "Zeughausstrasse"}}, {"type": "node", "id": 914703076, "lat": 47.3759417, "lon": 8.5292947, "tags": {"addr:city": "Z\u00fcrich", "addr:country": "CH", "addr:housenumber": "65", "addr:postcode": "8004", "addr:street": "Rotwandstrasse"}}, {"type": "node", "id": 914703101, "lat": 47.3763609, "lon": 8.5289535}, {"type": "node", "id": 914703189, "lat": 47.3764107, "lon": 8.5290581, "tags": {"addr:city": "Z\u00fcrich", "addr:country": "CH", "addr:housenumber": "61", "addr:postcode": "8004", "addr:street": "Zeughausstrasse"}}, {"type": "node", "id": 914703190, "lat": 47.3763402, "lon": 8.5289284, "tags": {"addr:city": "Z\u00fcrich", "addr:country": "CH", "addr:housenumber": "118a", "addr:postcode": "8004", "addr:street": "Ankerstrasse"}}, {"type": "node", "id": 914703230, "lat": 47.3763151, "lon": 8.528898}, {"type": "node", "id": 915410090, "lat": 47.3762486, "lon": 8.5295469, "tags": {"addr:city": "Z\u00fcrich", "addr:country": "CH", "addr:housenumber": "55", "addr:postcode": "8004", "addr:street": "Zeughausstrasse"}}, {"type": "node", "id": 915410095, "lat": 47.3765332, "lon": 8.5290879, "tags": {"addr:city": "Z\u00fcrich", "addr:country": "CH", "addr:housenumber": "67", "addr:postcode": "8004", "addr:street": "Zeughausstrasse", "name": "Roggenhof"}}, {"type": "node", "id": 915410108, "lat": 47.3760659, "lon": 8.5298151, "tags": {"addr:city": "Z\u00fcrich", "addr:country": "CH", "addr:housenumber": "51", "addr:postcode": "8004", "addr:street": "Zeughausstrasse"}}, {"type": "node", "id": 936942720, "lat": 47.3770875, "lon": 8.529282, "tags": {"addr:city": "Z\u00fcrich", "addr:country": "CH", "addr:housenumber": "16", "addr:postcode": "8004", "addr:street": "Kanonengasse"}}, {"type": "node", "id": 3462185896, "lat": 47.3758811, "lon": 8.5292008}, {"type": "node", "id": 3462185899, "lat": 47.375901, "lon": 8.529661}, {"type": "node", "id": 3462185902, "lat": 47.3759705, "lon": 8.5297613}, {"type": "node", "id": 3462185903, "lat": 47.3759808, "lon": 8.5290548}, {"type": "node", "id": 3462185904, "lat": 47.3759781, "lon": 8.5295526}, {"type": "node", "id": 3462185905, "lat": 47.3759856, "lon": 8.5293603}, {"type": "node", "id": 3462185906, "lat": 47.3760451, "lon": 8.5296519}, {"type": "node", "id": 3462185907, "lat": 47.3760495, "lon": 8.5294554}, {"type": "node", "id": 3462185908, "lat": 47.3760983, "lon": 8.5292066}, {"type": "node", "id": 3462185909, "lat": 47.376094, "lon": 8.5297269}, {"type": "node", "id": 3462185910, "lat": 47.3761113, "lon": 8.5295483}, {"type": "node", "id": 3462185912, "lat": 47.3761625, "lon": 8.5292883}, {"type": "node", "id": 3462185914, "lat": 47.3761959, "lon": 8.5296284}, {"type": "node", "id": 3462185916, "lat": 47.3762309, "lon": 8.5293751}, {"type": "node", "id": 3462185924, "lat": 47.3762835, "lon": 8.5294439}, {"type": "node", "id": 3462185926, "lat": 47.3763103, "lon": 8.5288921}, {"type": "node", "id": 3462185930, "lat": 47.3763406, "lon": 8.5291005}, {"type": "node", "id": 3462185931, "lat": 47.3763801, "lon": 8.5291299}, {"type": "node", "id": 3462185932, "lat": 47.3763813, "lon": 8.5293176}, {"type": "node", "id": 3462185935, "lat": 47.3763912, "lon": 8.5291111}, {"type": "node", "id": 3462185936, "lat": 47.3763981, "lon": 8.5290783}, {"type": "node", "id": 3462185938, "lat": 47.3764042, "lon": 8.5290876}, {"type": "node", "id": 3462185941, "lat": 47.3764345, "lon": 8.5290245}, {"type": "node", "id": 3462185943, "lat": 47.3764484, "lon": 8.5292209}, {"type": "node", "id": 3462185947, "lat": 47.3765027, "lon": 8.5289165}, {"type": "node", "id": 3462185948, "lat": 47.3765065, "lon": 8.5291277}, {"type": "node", "id": 3462185950, "lat": 47.3765166, "lon": 8.5289358}, {"type": "node", "id": 3462185951, "lat": 47.3765437, "lon": 8.5288945}, {"type": "node", "id": 3462185952, "lat": 47.3765543, "lon": 8.5289103}, {"type": "node", "id": 3462185958, "lat": 47.3766061, "lon": 8.5289807}, {"type": "node", "id": 4118364378, "lat": 47.3763564, "lon": 8.5298768}, {"type": "node", "id": 4118364379, "lat": 47.3763603, "lon": 8.5298709}, {"type": "node", "id": 4118364380, "lat": 47.3764625, "lon": 8.5297276}, {"type": "node", "id": 4118364381, "lat": 47.3764665, "lon": 8.5297217}, {"type": "node", "id": 4118364383, "lat": 47.3767982, "lon": 8.5305302}, {"type": "node", "id": 4118364384, "lat": 47.3768989, "lon": 8.5303842}, {"type": "node", "id": 4156516663, "lat": 47.3762696, "lon": 8.5297412}, {"type": "node", "id": 4851815758, "lat": 47.3762574, "lon": 8.5297227}, {"type": "way", "id": 28943784, "nodes": [318213430, 843156224, 318213432, 318213435, 318213437, 936942720, 318213439, 318213440, 318213430], "tags": {"addr:city": "Z\u00fcrich", "addr:country": "CH", "addr:postcode": "8004", "building": "yes", "name": "Zeughaus 5"}}, {"type": "way", "id": 71504821, "nodes": [3462185902, 850608026, 915410108, 850608190, 3462185909, 3462185906, 3462185902], "tags": {"building": "yes"}}, {"type": "way", "id": 71504840, "nodes": [3462185910, 850608220, 3462185914, 915410090, 850608259, 3462185924, 3462185916, 3462185910], "tags": {"building": "apartments"}}, {"type": "way", "id": 77771637, "nodes": [850608036, 914703101, 914703190, 914703230, 3462185926, 914702952, 850608245, 850608036], "tags": {"addr:city": "Z\u00fcrich", "addr:country": "CH", "addr:housenumber": "9", "addr:postcode": "8004", "addr:street": "Kr\u00e4uelgasse", "building": "yes"}}, {"type": "way", "id": 339029341, "nodes": [3462185899, 3462185902, 3462185906, 663310708, 3462185904, 3462185899], "tags": {"building": "apartments"}}, {"type": "way", "id": 339029342, "nodes": [3462185907, 663310775, 3462185910, 3462185916, 3462185912, 3462185907], "tags": {"building": "apartments"}}, {"type": "way", "id": 339029343, "nodes": [3462185896, 914703076, 3462185905, 3462185908, 3462185903, 3462185896], "tags": {"building": "apartments"}}, {"type": "way", "id": 339029344, "nodes": [3462185905, 914703005, 3462185907, 3462185912, 3462185908, 3462185905], "tags": {"building": "yes"}}, {"type": "way", "id": 339029358, "nodes": [3462185935, 3462185938, 3462185936, 914703189, 3462185941, 3462185948, 3462185943, 3462185931, 3462185935], "tags": {"building": "apartments"}}, {"type": "way", "id": 339029362, "nodes": [3462185958, 915410095, 3462185948, 3462185941, 914703021, 3462185947, 3462185950, 3462185951, 3462185952, 3462185958], "tags": {"building": "yes"}}, {"type": "way", "id": 339029364, "nodes": [3462185943, 3462185932, 850608157, 850608245, 850608036, 3462185930, 850608163, 3462185935, 3462185931, 3462185943], "tags": {"building": "apartments"}}, {"type": "way", "id": 409968048, "nodes": [4851815758, 4156516663, 4118364378, 4118364379, 4118364383, 4118364384, 4118364380, 4118364381, 318212804, 4851815758], "tags": {"addr:city": "Z\u00fcrich", "addr:country": "CH", "addr:housenumber": "18a", "addr:postcode": "8004", "addr:street": "Kanonengasse", "building": "yes", "name": "Zeughaus 4"}}]}