{"version": 0.6, "generator": "Overpass API 0.7.60.6 e2dc3e5b", "osm3s": {"timestamp_osm_base": "2023-06-29T15:18:01Z", "copyright": "The data included in this document is from www.openstreetmap.org. The data is made available under ODbL."}, "elements": [{"type": "node", "id": 430731933, "lat": 47.3738639, "lon": 8.537253}, {"type": "node", "id": 430731936, "lat": 47.3739102, "lon": 8.5378591}, {"type": "node", "id": 430731938, "lat": 47.3739741, "lon": 8.5379199}, {"type": "node", "id": 430731941, "lat": 47.3746194, "lon": 8.5377122}, {"type": "node", "id": 430731945, "lat": 47.3746058, "lon": 8.5373422}, {"type": "node", "id": 430731948, "lat": 47.3745566, "lon": 8.5371702, "tags": {"addr:city": "Z\u00fcrich", "addr:country": "CH", "addr:housenumber": "25", "addr:postcode": "8001", "addr:street": "Uraniastrasse"}}, {"type": "node", "id": 430731950, "lat": 47.3745207, "lon": 8.5370556}, {"type": "node", "id": 430731953, "lat": 47.3744873, "lon": 8.5369632}, {"type": "node", "id": 430731956, "lat": 47.3744283, "lon": 8.536849}, {"type": "node", "id": 430731965, "lat": 47.3743696, "lon": 8.5367604}, {"type": "node", "id": 430731968, "lat": 47.3741392, "lon": 8.5365459}, {"type": "node", "id": 430731971, "lat": 47.3738823, "lon": 8.5369217}, {"type": "node", "id": 430731975, "lat": 47.3738687, "lon": 8.5369759}, {"type": "node", "id": 430731977, "lat": 47.3738562, "lon": 8.5370655, "tags": {"addr:city": "Z\u00fcrich", "addr:country": "CH", "addr:housenumber": "6", "addr:postcode": "8001", "addr:street": "Sihlstrasse", "entrance": "yes"}}, {"type": "node", "id": 430731980, "lat": 47.3738559, "lon": 8.5371811}, {"type": "node", "id": 937801722, "lat": 47.3733032, "lon": 8.5378475}, {"type": "node", "id": 937801723, "lat": 47.3734658, "lon": 8.5378433}, {"type": "node", "id": 937801724, "lat": 47.3736039, "lon": 8.5377952}, {"type": "node", "id": 937801726, "lat": 47.3733001, "lon": 8.5377472}, {"type": "node", "id": 937801729, "lat": 47.3736592, "lon": 8.5378473}, {"type": "node", "id": 937801737, "lat": 47.3733213, "lon": 8.5375512}, {"type": "node", "id": 937801738, "lat": 47.3736321, "lon": 8.5381041}, {"type": "node", "id": 937801739, "lat": 47.3734695, "lon": 8.5381089}, {"type": "node", "id": 937801753, "lat": 47.3733126, "lon": 8.5381166}, {"type": "node", "id": 937801756, "lat": 47.3731989, "lon": 8.5381203}, {"type": "node", "id": 937801757, "lat": 47.3734158, "lon": 8.5375497}, {"type": "node", "id": 937801759, "lat": 47.3735264, "lon": 8.5375486}, {"type": "node", "id": 937801763, "lat": 47.3735299, "lon": 8.5377285}, {"type": "node", "id": 937801765, "lat": 47.3736293, "lon": 8.5378997}, {"type": "node", "id": 937801766, "lat": 47.3737531, "lon": 8.5380962}, {"type": "node", "id": 937801771, "lat": 47.3731775, "lon": 8.5378515}, {"type": "node", "id": 937801778, "lat": 47.3731719, "lon": 8.5375552}, {"type": "node", "id": 937801782, "lat": 47.3737843, "lon": 8.5378439}, {"type": "node", "id": 937801791, "lat": 47.3737977, "lon": 8.5380205}, {"type": "node", "id": 937801792, "lat": 47.3737588, "lon": 8.5375324}, {"type": "node", "id": 1783649767, "lat": 47.3739427, "lon": 8.537895, "tags": {"addr:city": "Z\u00fcrich", "addr:country": "CH", "addr:housenumber": "4", "addr:postcode": "8001", "addr:street": "Sihlstrasse", "entrance": "yes"}}, {"type": "node", "id": 3250568447, "lat": 47.374053, "lon": 8.5365745}, {"type": "node", "id": 3250568448, "lat": 47.3740699, "lon": 8.5365457, "tags": {"entrance": "yes"}}, {"type": "node", "id": 3250568449, "lat": 47.3740885, "lon": 8.5365335}, {"type": "node", "id": 3250568450, "lat": 47.374111, "lon": 8.5365326}, {"type": "node", "id": 3250568665, "lat": 47.3745928, "lon": 8.5373354}, {"type": "node", "id": 3251868075, "lat": 47.3731834, "lon": 8.5380984}, {"type": "node", "id": 3251868079, "lat": 47.3736589, "lon": 8.5377957}, {"type": "node", "id": 3251868080, "lat": 47.3736593, "lon": 8.5378998}, {"type": "node", "id": 3324778742, "lat": 47.3741509, "lon": 8.5365257}, {"type": "node", "id": 3324778747, "lat": 47.374304, "lon": 8.5366654}, {"type": "node", "id": 3334716993, "lat": 47.3737911, "lon": 8.537932, "tags": {"addr:city": "Z\u00fcrich", "addr:country": "CH", "addr:housenumber": "1", "addr:postcode": "8001", "addr:street": "Sihlstrasse"}}, {"type": "node", "id": 3334716994, "lat": 47.3731813, "lon": 8.5379817, "tags": {"addr:city": "Z\u00fcrich", "addr:country": "CH", "addr:housenumber": "2", "addr:postcode": "8001", "addr:street": "F\u00fcsslistrasse"}}, {"type": "node", "id": 3334716996, "lat": 47.3732555, "lon": 8.5381189, "tags": {"addr:city": "Z\u00fcrich", "addr:country": "CH", "addr:housenumber": "61", "addr:postcode": "8001", "addr:street": "Bahnhofstrasse"}}, {"type": "node", "id": 3334716997, "lat": 47.3736928, "lon": 8.5380997, "tags": {"addr:city": "Z\u00fcrich", "addr:country": "CH", "addr:housenumber": "67", "addr:postcode": "8001", "addr:street": "Bahnhofstrasse"}}, {"type": "node", "id": 3334716999, "lat": 47.3733129, "lon": 8.5377308}, {"type": "node", "id": 3334717004, "lat": 47.3734977, "lon": 8.5375501}, {"type": "node", "id": 3334717005, "lat": 47.3735, "lon": 8.5377286}, {"type": "node", "id": 3334717006, "lat": 47.3735298, "lon": 8.5377398}, {"type": "node", "id": 3334717007, "lat": 47.3735503, "lon": 8.5378408}, {"type": "node", "id": 3334717008, "lat": 47.3735511, "lon": 8.537902}, {"type": "node", "id": 3334717009, "lat": 47.3736047, "lon": 8.5377404}, {"type": "node", "id": 3344372625, "lat": 47.3743197, "lon": 8.5378048, "tags": {"addr:city": "Z\u00fcrich", "addr:country": "CH", "addr:housenumber": "1", "addr:postcode": "8001", "addr:street": "Seidengasse"}}, {"type": "node", "id": 3344372626, "lat": 47.3745821, "lon": 8.5372608}, {"type": "node", "id": 3344372627, "lat": 47.374611, "lon": 8.5375151, "tags": {"entrance": "yes"}}, {"type": "node", "id": 7546304469, "lat": 47.3731771, "lon": 8.5378292}, {"type": "node", "id": 7546304470, "lat": 47.3733025, "lon": 8.5378237}, {"type": "way", "id": 37037045, "nodes": [430731933, 430731936, 1783649767, 430731938, 3344372625, 430731941, 3344372627, 430731945, 3250568665, 3344372626, 430731948, 430731950, 430731953, 430731956, 430731965, 3324778747, 3324778742, 430731968, 3250568450, 3250568449, 3250568448, 3250568447, 430731971, 430731975, 430731977, 430731980, 430731933], "tags": {"addr:city": "Z\u00fcrich", "addr:country": "CH", "addr:postcode": "8001", "building": "retail", "name": "Jelmoli", "note": "actually consisting of three buildings, interconnected at different levels", "opening_hours": "Mo-Fr 09:30-20:00; Sa 09:00-20:00", "operator": "Wincasa", "owner": "Swiss Prime Site (SPS)", "shop": "department_store", "source": "Stadt Z\u00fcrich Open Government Data; Geomatik + Vermessung; Tiefbau- und Entsorgungsdepartement", "wheelchair": "yes", "wheelchair:description": "Beste Behindertentoilette der Stadt - 3. Stock", "wikidata": "Q21031096"}}, {"type": "way", "id": 80359837, "nodes": [937801722, 937801723, 937801739, 937801753, 937801722], "tags": {"addr:city": "Z\u00fcrich", "addr:country": "CH", "addr:housenumber": "63", "addr:postcode": "8001", "addr:street": "Bahnhofstrasse", "building": "apartments", "building:levels": "5", "owner": "Swiss Re", "roof:levels": "1", "source": "Stadt Z\u00fcrich Open Government Data; Geomatik + Vermessung; Tiefbau- und Entsorgungsdepartement"}}, {"type": "way", "id": 80359838, "nodes": [937801765, 3251868080, 937801729, 937801782, 3334716993, 937801791, 937801766, 3334716997, 937801738, 937801765], "tags": {"addr:city": "Z\u00fcrich", "addr:country": "CH", "addr:postcode": "8001", "building": "apartments", "owner": "Swiss Life", "source": "Stadt Z\u00fcrich Open Government Data; Geomatik + Vermessung; Tiefbau- und Entsorgungsdepartement"}}, {"type": "way", "id": 80359843, "nodes": [937801723, 3334717007, 3334717008, 937801765, 937801738, 937801739, 937801723], "tags": {"addr:city": "Z\u00fcrich", "addr:country": "CH", "addr:housenumber": "65", "addr:postcode": "8001", "addr:street": "Bahnhofstrasse", "building": "apartments", "building:levels": "4", "source": "Stadt Z\u00fcrich Open Government Data; Geomatik + Vermessung; Tiefbau- und Entsorgungsdepartement"}}, {"type": "way", "id": 80359850, "nodes": [937801771, 3334716994, 3251868075, 937801756, 3334716996, 937801753, 937801722, 937801771], "tags": {"addr:city": "Z\u00fcrich", "addr:country": "CH", "addr:postcode": "8001", "building": "retail", "building:levels": "5", "roof:shape": "quadruple_saltbox", "source": "Stadt Z\u00fcrich Open Government Data; Geomatik + Vermessung; Tiefbau- und Entsorgungsdepartement"}}, {"type": "way", "id": 80359851, "nodes": [937801737, 937801757, 3334717004, 3334717005, 3334716999, 937801726, 7546304470, 937801722, 937801771, 7546304469, 937801778, 937801737], "tags": {"addr:city": "Z\u00fcrich", "addr:country": "CH", "addr:housenumber": "4", "addr:postcode": "8001", "addr:street": "F\u00fcsslistrasse", "building": "retail", "building:levels": "5", "roof:shape": "gabled", "source": "Stadt Z\u00fcrich Open Government Data; Geomatik + Vermessung; Tiefbau- und Entsorgungsdepartement"}}, {"type": "way", "id": 80359856, "nodes": [937801729, 3251868079, 937801724, 3334717009, 3334717006, 937801763, 937801759, 937801792, 937801782, 937801729], "tags": {"addr:city": "Z\u00fcrich", "addr:country": "CH", "addr:housenumber": "3", "addr:postcode": "8001", "addr:street": "Sihlstrasse", "building": "commercial", "source": "Stadt Z\u00fcrich Open Government Data; Geomatik + Vermessung; Tiefbau- und Entsorgungsdepartement"}}]}