{"version": 0.6, "generator": "Overpass API 0.7.60.6 e2dc3e5b", "osm3s": {"timestamp_osm_base": "2023-06-29T15:17:00Z", "copyright": "The data included in this document is from www.openstreetmap.org. The data is made available under ODbL."}, "elements": [{"type": "node", "id": 387219678, "lat": 47.3742775, "lon": 8.5431821}, {"type": "node", "id": 387219679, "lat": 47.3740999, "lon": 8.5431221}, {"type": "node", "id": 387219680, "lat": 47.3740508, "lon": 8.5436184}, {"type": "node", "id": 387219681, "lat": 47.3742018, "lon": 8.5436695}, {"type": "node", "id": 387234302, "lat": 47.3745744, "lon": 8.5443402}, {"type": "node", "id": 633678286, "lat": 47.3741873, "lon": 8.5431516, "tags": {"addr:city": "Z\u00fcrich", "addr:country": "CH", "addr:housenumber": "94", "addr:postcode": "8001", "addr:street": "Limmatquai"}}, {"type": "node", "id": 637820257, "lat": 47.3740789, "lon": 8.5433193}, {"type": "node", "id": 637820261, "lat": 47.3739592, "lon": 8.5437605}, {"type": "node", "id": 637820263, "lat": 47.3741053, "lon": 8.5433282}, {"type": "node", "id": 637820266, "lat": 47.3738085, "lon": 8.5440088}, {"type": "node", "id": 637820269, "lat": 47.3739393, "lon": 8.5440214}, {"type": "node", "id": 637820272, "lat": 47.3738421, "lon": 8.5442484}, {"type": "node", "id": 637820273, "lat": 47.3739371, "lon": 8.5442382}, {"type": "node", "id": 637820274, "lat": 47.3738271, "lon": 8.5441156}, {"type": "node", "id": 637820275, "lat": 47.3739388, "lon": 8.5441223}, {"type": "node", "id": 637820281, "lat": 47.3740877, "lon": 8.5443511}, {"type": "node", "id": 637820282, "lat": 47.3741174, "lon": 8.5441728}, {"type": "node", "id": 656327580, "lat": 47.3745606, "lon": 8.5442604, "tags": {"addr:city": "Z\u00fcrich", "addr:country": "CH", "addr:housenumber": "3", "addr:postcode": "8001", "addr:street": "Malergasse"}}, {"type": "node", "id": 656683829, "lat": 47.3743965, "lon": 8.5434555}, {"type": "node", "id": 656683830, "lat": 47.3743695, "lon": 8.5434517}, {"type": "node", "id": 656683831, "lat": 47.3743548, "lon": 8.5436425}, {"type": "node", "id": 656683832, "lat": 47.3743498, "lon": 8.543754}, {"type": "node", "id": 656683834, "lat": 47.3743108, "lon": 8.5442247}, {"type": "node", "id": 656683836, "lat": 47.3743577, "lon": 8.5442353}, {"type": "node", "id": 656683851, "lat": 47.3745235, "lon": 8.5435}, {"type": "node", "id": 656683859, "lat": 47.3744992, "lon": 8.5438917}, {"type": "node", "id": 656683860, "lat": 47.3745332, "lon": 8.543768}, {"type": "node", "id": 656683862, "lat": 47.3744962, "lon": 8.5436496}, {"type": "node", "id": 656683863, "lat": 47.3747123, "lon": 8.5438629}, {"type": "node", "id": 656683866, "lat": 47.3746074, "lon": 8.5435637}, {"type": "node", "id": 656683867, "lat": 47.3746085, "lon": 8.5436366}, {"type": "node", "id": 656683888, "lat": 47.3745248, "lon": 8.544048}, {"type": "node", "id": 656683889, "lat": 47.3744806, "lon": 8.5439464}, {"type": "node", "id": 656683890, "lat": 47.3744745, "lon": 8.5441045}, {"type": "node", "id": 656683892, "lat": 47.374631, "lon": 8.5440219}, {"type": "node", "id": 656683897, "lat": 47.3746642, "lon": 8.5442983}, {"type": "node", "id": 660831135, "lat": 47.3738798, "lon": 8.5438662}, {"type": "node", "id": 660831137, "lat": 47.3738844, "lon": 8.5437437}, {"type": "node", "id": 660831138, "lat": 47.3738182, "lon": 8.5437373}, {"type": "node", "id": 660831140, "lat": 47.373949, "lon": 8.5438716}, {"type": "node", "id": 660831141, "lat": 47.3739801, "lon": 8.5437595}, {"type": "node", "id": 660831142, "lat": 47.3740514, "lon": 8.5437811}, {"type": "node", "id": 660831143, "lat": 47.3742232, "lon": 8.5438397}, {"type": "node", "id": 660831144, "lat": 47.3741323, "lon": 8.5438086}, {"type": "node", "id": 660831147, "lat": 47.373874, "lon": 8.544016}, {"type": "node", "id": 660831159, "lat": 47.3739681, "lon": 8.5441022}, {"type": "node", "id": 660831160, "lat": 47.3739698, "lon": 8.5440011}, {"type": "node", "id": 660831161, "lat": 47.3740269, "lon": 8.5440163}, {"type": "node", "id": 660831162, "lat": 47.3740413, "lon": 8.5438628}, {"type": "node", "id": 660831169, "lat": 47.374159, "lon": 8.5440869}, {"type": "node", "id": 660831171, "lat": 47.3741842, "lon": 8.5441007}, {"type": "node", "id": 660831172, "lat": 47.3741136, "lon": 8.5439449}, {"type": "node", "id": 660831173, "lat": 47.3741043, "lon": 8.5440572}, {"type": "node", "id": 693318685, "lat": 47.3738507, "lon": 8.543542, "tags": {"addr:city": "Z\u00fcrich", "addr:country": "CH", "addr:housenumber": "9", "addr:postcode": "8001", "addr:street": "Badergasse"}}, {"type": "node", "id": 693318700, "lat": 47.3741508, "lon": 8.5441356, "tags": {"addr:city": "Z\u00fcrich", "addr:country": "CH", "addr:housenumber": "14", "addr:postcode": "8001", "addr:street": "M\u00fchlegasse"}}, {"type": "node", "id": 725592747, "lat": 47.3743368, "lon": 8.5439364}, {"type": "node", "id": 1964294388, "lat": 47.374319, "lon": 8.5440635}, {"type": "node", "id": 1964294395, "lat": 47.3743915, "lon": 8.5442384}, {"type": "node", "id": 1964294397, "lat": 47.3744189, "lon": 8.5442289}, {"type": "node", "id": 1964294398, "lat": 47.3744198, "lon": 8.5441716}, {"type": "node", "id": 1964294399, "lat": 47.3744505, "lon": 8.5441724}, {"type": "node", "id": 1964294400, "lat": 47.3744979, "lon": 8.5436312}, {"type": "node", "id": 1964294401, "lat": 47.3745004, "lon": 8.5435019}, {"type": "node", "id": 1964294402, "lat": 47.3745217, "lon": 8.5435533}, {"type": "node", "id": 1964294403, "lat": 47.374522, "lon": 8.5436321}, {"type": "node", "id": 1964294405, "lat": 47.3745363, "lon": 8.543562}, {"type": "node", "id": 1964294406, "lat": 47.3745378, "lon": 8.5436787}, {"type": "node", "id": 1964294408, "lat": 47.3746395, "lon": 8.5441573}, {"type": "node", "id": 1964294410, "lat": 47.3746528, "lon": 8.5441509}, {"type": "node", "id": 1964294411, "lat": 47.3747366, "lon": 8.5440266}, {"type": "node", "id": 1964294413, "lat": 47.3747207, "lon": 8.5440311}, {"type": "node", "id": 1965809862, "lat": 47.3741428, "lon": 8.5441843}, {"type": "node", "id": 1981710693, "lat": 47.3743646, "lon": 8.543643}, {"type": "node", "id": 1981710696, "lat": 47.3744569, "lon": 8.5437606}, {"type": "node", "id": 2895820205, "lat": 47.3739022, "lon": 8.5436886, "tags": {"addr:city": "Z\u00fcrich", "addr:country": "CH", "addr:housenumber": "21", "addr:postcode": "8001", "addr:street": "Niederdorfstrasse"}}, {"type": "node", "id": 2895820206, "lat": 47.3741268, "lon": 8.5436441, "tags": {"addr:city": "Z\u00fcrich", "addr:country": "CH", "addr:housenumber": "25", "addr:postcode": "8001", "addr:street": "Niederdorfstrasse"}}, {"type": "node", "id": 2895820216, "lat": 47.3738376, "lon": 8.5436791}, {"type": "node", "id": 2895820217, "lat": 47.3738419, "lon": 8.5436065}, {"type": "node", "id": 2895820221, "lat": 47.37386, "lon": 8.5434762}, {"type": "node", "id": 2895820228, "lat": 47.3739669, "lon": 8.5436983}, {"type": "node", "id": 2895820229, "lat": 47.3739769, "lon": 8.5435524}, {"type": "node", "id": 2895820230, "lat": 47.3739856, "lon": 8.5435129}, {"type": "node", "id": 2895850901, "lat": 47.373972, "lon": 8.5439501, "tags": {"addr:city": "Z\u00fcrich", "addr:country": "CH", "addr:housenumber": "13", "addr:postcode": "8001", "addr:street": "Preyergasse"}}, {"type": "node", "id": 2895850903, "lat": 47.3740157, "lon": 8.5437703, "tags": {"addr:city": "Z\u00fcrich", "addr:country": "CH", "addr:housenumber": "28", "addr:postcode": "8001", "addr:street": "Niederdorfstrasse"}}, {"type": "node", "id": 2895850904, "lat": 47.3740916, "lon": 8.5437947, "tags": {"addr:city": "Z\u00fcrich", "addr:country": "CH", "addr:housenumber": "30", "addr:postcode": "8001", "addr:street": "Niederdorfstrasse"}}, {"type": "node", "id": 2895850936, "lat": 47.3739659, "lon": 8.5443258}, {"type": "node", "id": 2895850937, "lat": 47.3739725, "lon": 8.5443268}, {"type": "node", "id": 2895850938, "lat": 47.3740421, "lon": 8.5438716}, {"type": "node", "id": 2895850939, "lat": 47.3740594, "lon": 8.5441394}, {"type": "node", "id": 2895850940, "lat": 47.3740849, "lon": 8.5441557}, {"type": "node", "id": 2895850941, "lat": 47.3741145, "lon": 8.5439585}, {"type": "node", "id": 2911567280, "lat": 47.3745412, "lon": 8.5441428, "tags": {"addr:city": "Z\u00fcrich", "addr:country": "CH", "addr:housenumber": "1", "addr:postcode": "8001", "addr:street": "Malergasse"}}, {"type": "node", "id": 2911567284, "lat": 47.3745713, "lon": 8.5440322}, {"type": "node", "id": 2911567285, "lat": 47.3745728, "lon": 8.5440401}, {"type": "node", "id": 2911567286, "lat": 47.3746289, "lon": 8.5440035}, {"type": "node", "id": 2911567287, "lat": 47.3746631, "lon": 8.5443085}, {"type": "node", "id": 2911567288, "lat": 47.3747021, "lon": 8.54399}, {"type": "node", "id": 2911567289, "lat": 47.3747083, "lon": 8.5440349}, {"type": "node", "id": 2911567290, "lat": 47.3747162, "lon": 8.5439834}, {"type": "node", "id": 2911567292, "lat": 47.3747366, "lon": 8.5439817}, {"type": "node", "id": 2915894305, "lat": 47.3744952, "lon": 8.5437641, "tags": {"addr:city": "Z\u00fcrich", "addr:country": "CH", "addr:housenumber": "29", "addr:postcode": "8001", "addr:street": "Niederdorfstrasse"}}, {"type": "node", "id": 2915894306, "lat": 47.3745727, "lon": 8.5437695, "tags": {"addr:city": "Z\u00fcrich", "addr:country": "CH", "addr:housenumber": "31", "addr:postcode": "8001", "addr:street": "Niederdorfstrasse"}}, {"type": "node", "id": 2915894310, "lat": 47.3744544, "lon": 8.5436516}, {"type": "node", "id": 2915894311, "lat": 47.3744559, "lon": 8.5436457}, {"type": "node", "id": 2915894312, "lat": 47.3744611, "lon": 8.5436733}, {"type": "node", "id": 2915894313, "lat": 47.3744954, "lon": 8.543676}, {"type": "node", "id": 2915894314, "lat": 47.3745003, "lon": 8.5435528}, {"type": "node", "id": 2915894316, "lat": 47.374525, "lon": 8.5434729}, {"type": "node", "id": 2915894317, "lat": 47.3746088, "lon": 8.5436769}, {"type": "node", "id": 2915894318, "lat": 47.3746124, "lon": 8.5437712}, {"type": "node", "id": 2915894319, "lat": 47.3746164, "lon": 8.5436764}, {"type": "node", "id": 10820644415, "lat": 47.3740901, "lon": 8.5431856}, {"type": "node", "id": 10820644416, "lat": 47.3740992, "lon": 8.5431887}, {"type": "node", "id": 10820644417, "lat": 47.3740604, "lon": 8.5435566}, {"type": "node", "id": 10820644418, "lat": 47.3740694, "lon": 8.5435596}, {"type": "node", "id": 10820644419, "lat": 47.3742131, "lon": 8.5435971}, {"type": "node", "id": 10820644420, "lat": 47.3742038, "lon": 8.543594}, {"type": "node", "id": 10820644421, "lat": 47.3742663, "lon": 8.5432544}, {"type": "node", "id": 10820644422, "lat": 47.3742569, "lon": 8.5432512}, {"type": "way", "id": 33806990, "nodes": [387219678, 633678286, 387219679, 10820644415, 10820644416, 637820257, 637820263, 10820644418, 10820644417, 387219680, 2895820206, 387219681, 10820644419, 10820644420, 10820644422, 10820644421, 387219678], "tags": {"building": "yes", "source": "Stadt Z\u00fcrich Open Government Data; Geomatik + Vermessung; Tiefbau- und Entsorgungsdepartement"}}, {"type": "way", "id": 50175157, "nodes": [637820275, 637820274, 637820272, 637820273, 637820275], "tags": {"addr:city": "Z\u00fcrich", "addr:country": "CH", "addr:housenumber": "20", "addr:postcode": "8001", "addr:street": "Preyergasse", "building": "yes", "source": "Stadt Z\u00fcrich Open Government Data; Geomatik + Vermessung; Tiefbau- und Entsorgungsdepartement"}}, {"type": "way", "id": 51445376, "nodes": [656683889, 725592747, 1964294388, 656683834, 656683836, 1964294395, 1964294397, 1964294398, 1964294399, 656683890, 656683889], "tags": {"addr:city": "Z\u00fcrich", "addr:country": "CH", "addr:housenumber": "11", "addr:postcode": "8001", "addr:street": "M\u00fchlegasse", "building": "yes", "source": "Stadt Z\u00fcrich Open Government Data; Geomatik + Vermessung; Tiefbau- und Entsorgungsdepartement"}}, {"type": "way", "id": 51445382, "nodes": [656683829, 656683830, 656683831, 1981710693, 2915894310, 2915894311, 656683862, 1964294400, 1964294403, 1964294402, 2915894314, 1964294401, 656683851, 2915894316, 656683829], "tags": {"addr:city": "Z\u00fcrich", "addr:country": "CH", "addr:housenumber": "5", "addr:postcode": "8001", "addr:street": "M\u00fchlegasse", "building": "yes", "building:levels": "3", "source": "Stadt Z\u00fcrich Open Government Data; Geomatik + Vermessung; Tiefbau- und Entsorgungsdepartement", "wikidata": "Q61144757"}}, {"type": "way", "id": 51445383, "nodes": [1981710693, 656683832, 1981710696, 2915894312, 2915894313, 656683862, 2915894311, 2915894310, 1981710693], "tags": {"addr:city": "Z\u00fcrich", "addr:country": "CH", "addr:housenumber": "7", "addr:postcode": "8001", "addr:street": "M\u00fchlegasse", "building": "apartments", "source": "Stadt Z\u00fcrich Open Government Data; Geomatik + Vermessung; Tiefbau- und Entsorgungsdepartement"}}, {"type": "way", "id": 51445395, "nodes": [1964294411, 2911567292, 2911567290, 656683863, 656683859, 656683888, 2911567284, 2911567285, 656683892, 2911567286, 2911567288, 2911567289, 1964294413, 1964294411], "tags": {"addr:city": "Z\u00fcrich", "addr:country": "CH", "addr:housenumber": "40", "addr:postcode": "8001", "addr:street": "Niederdorfstrasse", "building": "retail", "source": "Stadt Z\u00fcrich Open Government Data; Geomatik + Vermessung; Tiefbau- und Entsorgungsdepartement"}}, {"type": "way", "id": 51445401, "nodes": [2915894313, 2915894312, 1981710696, 2915894305, 656683860, 2915894306, 2915894318, 2915894319, 2915894317, 656683867, 656683866, 1964294405, 1964294406, 2915894313], "tags": {"addr:city": "Z\u00fcrich", "addr:country": "CH", "addr:housenumber": "29", "addr:postcode": "8001", "addr:street": "Niederdorfstrasse", "building": "retail", "source": "Stadt Z\u00fcrich Open Government Data; Geomatik + Vermessung; Tiefbau- und Entsorgungsdepartement"}}, {"type": "way", "id": 51445408, "nodes": [656683888, 2911567280, 656327580, 387234302, 2911567287, 656683897, 1964294408, 1964294410, 656683892, 2911567285, 2911567284, 656683888], "tags": {"addr:city": "Z\u00fcrich", "addr:country": "CH", "addr:postcode": "8001", "addr:street": "Malergasse", "building": "yes", "source": "Stadt Z\u00fcrich Open Government Data; Geomatik + Vermessung; Tiefbau- und Entsorgungsdepartement"}}, {"type": "way", "id": 51790983, "nodes": [660831135, 660831147, 637820269, 660831140, 660831135], "tags": {"addr:city": "Z\u00fcrich", "addr:country": "CH", "addr:housenumber": "16", "addr:postcode": "8001", "addr:street": "Preyergasse", "building": "yes", "source": "Stadt Z\u00fcrich Open Government Data; Geomatik + Vermessung; Tiefbau- und Entsorgungsdepartement"}}, {"type": "way", "id": 51790984, "nodes": [660831138, 637820266, 660831147, 660831135, 660831137, 660831138], "tags": {"addr:city": "Z\u00fcrich", "addr:country": "CH", "addr:housenumber": "24", "addr:postcode": "8001", "addr:street": "Niederdorfstrasse", "building": "yes", "source": "Stadt Z\u00fcrich Open Government Data; Geomatik + Vermessung; Tiefbau- und Entsorgungsdepartement"}}, {"type": "way", "id": 51790985, "nodes": [660831169, 660831173, 2895850941, 660831172, 660831144, 2895850904, 660831142, 660831162, 2895850938, 660831161, 660831160, 660831159, 2895850939, 2895850940, 637820282, 1965809862, 693318700, 660831169], "tags": {"addr:city": "Z\u00fcrich", "addr:country": "CH", "addr:postcode": "8001", "building": "yes", "source": "Stadt Z\u00fcrich Open Government Data; Geomatik + Vermessung; Tiefbau- und Entsorgungsdepartement"}}, {"type": "way", "id": 51790986, "nodes": [660831144, 660831143, 660831171, 660831169, 660831173, 2895850941, 660831172, 660831144], "tags": {"addr:city": "Z\u00fcrich", "addr:country": "CH", "addr:housenumber": "12", "addr:postcode": "8001", "addr:street": "M\u00fchlegasse", "building": "yes", "source": "Stadt Z\u00fcrich Open Government Data; Geomatik + Vermessung; Tiefbau- und Entsorgungsdepartement"}}, {"type": "way", "id": 51790987, "nodes": [660831142, 2895850903, 660831141, 2895850901, 660831160, 660831161, 2895850938, 660831162, 660831142], "tags": {"addr:city": "Z\u00fcrich", "addr:country": "CH", "addr:postcode": "8001", "building": "apartments", "source": "Stadt Z\u00fcrich Open Government Data; Geomatik + Vermessung; Tiefbau- und Entsorgungsdepartement"}}, {"type": "way", "id": 51790989, "nodes": [660831137, 660831135, 660831140, 637820261, 660831137], "tags": {"addr:city": "Z\u00fcrich", "addr:country": "CH", "addr:housenumber": "26", "addr:postcode": "8001", "addr:street": "Niederdorfstrasse", "building": "yes", "source": "Stadt Z\u00fcrich Open Government Data; Geomatik + Vermessung; Tiefbau- und Entsorgungsdepartement"}}, {"type": "way", "id": 285940479, "nodes": [2895820221, 693318685, 2895820217, 2895820216, 2895820205, 2895820228, 2895820229, 2895820230, 2895820221], "tags": {"addr:city": "Z\u00fcrich", "addr:country": "CH", "addr:postcode": "8001", "building": "yes", "source": "Stadt Z\u00fcrich Open Government Data; Geomatik + Vermessung; Tiefbau- und Entsorgungsdepartement"}}, {"type": "way", "id": 285944475, "nodes": [637820281, 637820282, 2895850940, 2895850939, 660831159, 2895850936, 2895850937, 637820281], "tags": {"addr:city": "Z\u00fcrich", "addr:country": "CH", "addr:housenumber": "18", "addr:postcode": "8001", "addr:street": "M\u00fchlegasse", "building": "yes", "source": "Stadt Z\u00fcrich Open Government Data; Geomatik + Vermessung; Tiefbau- und Entsorgungsdepartement"}}]}