{"version": 0.6, "generator": "Overpass API 0.7.60.6 e2dc3e5b", "osm3s": {"timestamp_osm_base": "2023-06-29T15:23:04Z", "copyright": "The data included in this document is from www.openstreetmap.org. The data is made available under ODbL."}, "elements": [{"type": "node", "id": 313371707, "lat": 47.3755123, "lon": 8.5370548}, {"type": "node", "id": 313371708, "lat": 47.3754799, "lon": 8.5369085}, {"type": "node", "id": 313371709, "lat": 47.3753894, "lon": 8.5368221}, {"type": "node", "id": 313371710, "lat": 47.3753135, "lon": 8.5369866}, {"type": "node", "id": 313371714, "lat": 47.3753767, "lon": 8.5371615}, {"type": "node", "id": 430600266, "lat": 47.3760142, "lon": 8.5377192}, {"type": "node", "id": 430600267, "lat": 47.3757409, "lon": 8.5375406}, {"type": "node", "id": 430600268, "lat": 47.3755607, "lon": 8.5382988}, {"type": "node", "id": 430600269, "lat": 47.3758496, "lon": 8.53841}, {"type": "node", "id": 430731933, "lat": 47.3738639, "lon": 8.537253}, {"type": "node", "id": 430731936, "lat": 47.3739102, "lon": 8.5378591}, {"type": "node", "id": 430731938, "lat": 47.3739741, "lon": 8.5379199}, {"type": "node", "id": 430731941, "lat": 47.3746194, "lon": 8.5377122}, {"type": "node", "id": 430731945, "lat": 47.3746058, "lon": 8.5373422}, {"type": "node", "id": 430731948, "lat": 47.3745566, "lon": 8.5371702, "tags": {"addr:city": "Z\u00fcrich", "addr:country": "CH", "addr:housenumber": "25", "addr:postcode": "8001", "addr:street": "Uraniastrasse"}}, {"type": "node", "id": 430731950, "lat": 47.3745207, "lon": 8.5370556}, {"type": "node", "id": 430731953, "lat": 47.3744873, "lon": 8.5369632}, {"type": "node", "id": 430731956, "lat": 47.3744283, "lon": 8.536849}, {"type": "node", "id": 430731965, "lat": 47.3743696, "lon": 8.5367604}, {"type": "node", "id": 430731968, "lat": 47.3741392, "lon": 8.5365459}, {"type": "node", "id": 430731971, "lat": 47.3738823, "lon": 8.5369217}, {"type": "node", "id": 430731975, "lat": 47.3738687, "lon": 8.5369759}, {"type": "node", "id": 430731977, "lat": 47.3738562, "lon": 8.5370655, "tags": {"addr:city": "Z\u00fcrich", "addr:country": "CH", "addr:housenumber": "6", "addr:postcode": "8001", "addr:street": "Sihlstrasse", "entrance": "yes"}}, {"type": "node", "id": 430731980, "lat": 47.3738559, "lon": 8.5371811}, {"type": "node", "id": 430733693, "lat": 47.3746793, "lon": 8.5385514}, {"type": "node", "id": 430733696, "lat": 47.3748135, "lon": 8.5380714}, {"type": "node", "id": 430733697, "lat": 47.3747786, "lon": 8.5380714}, {"type": "node", "id": 430733698, "lat": 47.3747496, "lon": 8.5380886}, {"type": "node", "id": 430733699, "lat": 47.3747263, "lon": 8.5381315}, {"type": "node", "id": 430733700, "lat": 47.3747205, "lon": 8.5381744}, {"type": "node", "id": 693318452, "lat": 47.3745818, "lon": 8.5380909, "tags": {"addr:city": "Z\u00fcrich", "addr:country": "CH", "addr:housenumber": "15", "addr:postcode": "8001", "addr:street": "Uraniastrasse"}}, {"type": "node", "id": 693318454, "lat": 47.3752046, "lon": 8.5382679}, {"type": "node", "id": 693318470, "lat": 47.3749653, "lon": 8.538695}, {"type": "node", "id": 921917319, "lat": 47.3742273, "lon": 8.5383169}, {"type": "node", "id": 921917325, "lat": 47.3744379, "lon": 8.5381695}, {"type": "node", "id": 921917355, "lat": 47.3745672, "lon": 8.5382343}, {"type": "node", "id": 921917370, "lat": 47.3742533, "lon": 8.5379932}, {"type": "node", "id": 921917375, "lat": 47.3743804, "lon": 8.538392}, {"type": "node", "id": 921917379, "lat": 47.3745758, "lon": 8.5379124}, {"type": "node", "id": 922509143, "lat": 47.3753936, "lon": 8.5375609}, {"type": "node", "id": 922509144, "lat": 47.3752262, "lon": 8.5378604}, {"type": "node", "id": 922509146, "lat": 47.3755706, "lon": 8.537393}, {"type": "node", "id": 922509148, "lat": 47.3753841, "lon": 8.5381934}, {"type": "node", "id": 922509149, "lat": 47.3748308, "lon": 8.5379162}, {"type": "node", "id": 922509151, "lat": 47.3754432, "lon": 8.537298}, {"type": "node", "id": 922509152, "lat": 47.3749462, "lon": 8.5378288}, {"type": "node", "id": 922509163, "lat": 47.3753792, "lon": 8.5377262}, {"type": "node", "id": 922509165, "lat": 47.3752536, "lon": 8.5374482}, {"type": "node", "id": 922509167, "lat": 47.3750825, "lon": 8.5378602}, {"type": "node", "id": 922509169, "lat": 47.3749076, "lon": 8.5377177}, {"type": "node", "id": 922509171, "lat": 47.3752101, "lon": 8.5379258}, {"type": "node", "id": 922509173, "lat": 47.3755711, "lon": 8.5373183}, {"type": "node", "id": 922509176, "lat": 47.3754238, "lon": 8.5375367}, {"type": "node", "id": 922509184, "lat": 47.3753198, "lon": 8.5378603}, {"type": "node", "id": 922509185, "lat": 47.3753115, "lon": 8.5376088}, {"type": "node", "id": 922509187, "lat": 47.3755563, "lon": 8.5374681}, {"type": "node", "id": 922509189, "lat": 47.3750851, "lon": 8.5378487}, {"type": "node", "id": 922509190, "lat": 47.3750436, "lon": 8.5380237}, {"type": "node", "id": 922509192, "lat": 47.3748464, "lon": 8.5377628}, {"type": "node", "id": 922509194, "lat": 47.3754748, "lon": 8.5374244}, {"type": "node", "id": 922509196, "lat": 47.3755473, "lon": 8.5372164}, {"type": "node", "id": 922509207, "lat": 47.3754815, "lon": 8.5377786}, {"type": "node", "id": 922532886, "lat": 47.3750405, "lon": 8.5369457}, {"type": "node", "id": 922532913, "lat": 47.3747733, "lon": 8.5375254}, {"type": "node", "id": 922532955, "lat": 47.3751485, "lon": 8.5369604}, {"type": "node", "id": 922532962, "lat": 47.3751215, "lon": 8.5373615}, {"type": "node", "id": 922532981, "lat": 47.3747972, "lon": 8.5373147}, {"type": "node", "id": 922532987, "lat": 47.3752003, "lon": 8.5368769}, {"type": "node", "id": 922532992, "lat": 47.3750631, "lon": 8.5374141}, {"type": "node", "id": 922533018, "lat": 47.3748394, "lon": 8.5375915}, {"type": "node", "id": 922533020, "lat": 47.3752093, "lon": 8.5368849}, {"type": "node", "id": 922533049, "lat": 47.3752338, "lon": 8.5372718}, {"type": "node", "id": 922533055, "lat": 47.3749735, "lon": 8.5371747}, {"type": "node", "id": 937593838, "lat": 47.3748421, "lon": 8.5367608}, {"type": "node", "id": 937593845, "lat": 47.3749225, "lon": 8.5370228}, {"type": "node", "id": 937593855, "lat": 47.3748323, "lon": 8.5368395}, {"type": "node", "id": 937593864, "lat": 47.3747216, "lon": 8.5371335}, {"type": "node", "id": 937593871, "lat": 47.374665, "lon": 8.536936}, {"type": "node", "id": 937593886, "lat": 47.3749435, "lon": 8.5367721}, {"type": "node", "id": 937593896, "lat": 47.3747516, "lon": 8.5368749}, {"type": "node", "id": 1552985913, "lat": 47.3751717, "lon": 8.5380888}, {"type": "node", "id": 1783649767, "lat": 47.3739427, "lon": 8.537895, "tags": {"addr:city": "Z\u00fcrich", "addr:country": "CH", "addr:housenumber": "4", "addr:postcode": "8001", "addr:street": "Sihlstrasse", "entrance": "yes"}}, {"type": "node", "id": 3230040561, "lat": 47.3758742, "lon": 8.5383063, "tags": {"addr:city": "Z\u00fcrich", "addr:country": "CH", "addr:housenumber": "11", "addr:postcode": "8001", "addr:street": "Schweizergasse", "entrance": "yes"}}, {"type": "node", "id": 3250568447, "lat": 47.374053, "lon": 8.5365745}, {"type": "node", "id": 3250568448, "lat": 47.3740699, "lon": 8.5365457, "tags": {"entrance": "yes"}}, {"type": "node", "id": 3250568449, "lat": 47.3740885, "lon": 8.5365335}, {"type": "node", "id": 3250568450, "lat": 47.374111, "lon": 8.5365326}, {"type": "node", "id": 3250568663, "lat": 47.3745408, "lon": 8.5379005}, {"type": "node", "id": 3250568665, "lat": 47.3745928, "lon": 8.5373354}, {"type": "node", "id": 3250568666, "lat": 47.3745944, "lon": 8.5379629}, {"type": "node", "id": 3250568667, "lat": 47.3747042, "lon": 8.537088}, {"type": "node", "id": 3250568668, "lat": 47.3747598, "lon": 8.5371463}, {"type": "node", "id": 3250568669, "lat": 47.3747681, "lon": 8.5369257}, {"type": "node", "id": 3324778716, "lat": 47.3749537, "lon": 8.5379767, "tags": {"addr:city": "Z\u00fcrich", "addr:country": "CH", "addr:housenumber": "1", "addr:postcode": "8001", "addr:street": "Lintheschergasse"}}, {"type": "node", "id": 3324778717, "lat": 47.3751769, "lon": 8.5373167, "tags": {"addr:city": "Z\u00fcrich", "addr:country": "CH", "addr:housenumber": "13", "addr:postcode": "8001", "addr:street": "Seidengasse"}}, {"type": "node", "id": 3324778719, "lat": 47.3749158, "lon": 8.5381227, "tags": {"addr:city": "Z\u00fcrich", "addr:country": "CH", "addr:housenumber": "2", "addr:postcode": "8001", "addr:street": "Lintheschergasse"}}, {"type": "node", "id": 3324778722, "lat": 47.3750325, "lon": 8.5370492, "tags": {"addr:city": "Z\u00fcrich", "addr:country": "CH", "addr:housenumber": "4", "addr:postcode": "8001", "addr:street": "Gerbergasse"}}, {"type": "node", "id": 3324778727, "lat": 47.3750731, "lon": 8.5372306, "tags": {"addr:city": "Z\u00fcrich", "addr:country": "CH", "addr:housenumber": "4a", "addr:postcode": "8001", "addr:street": "Gerbergasse"}}, {"type": "node", "id": 3324778728, "lat": 47.3758776, "lon": 8.5376046, "tags": {"addr:city": "Z\u00fcrich", "addr:country": "CH", "addr:housenumber": "50", "addr:postcode": "8001", "addr:street": "L\u00f6wenstrasse", "entrance": "yes"}}, {"type": "node", "id": 3324778730, "lat": 47.3743297, "lon": 8.5379682, "tags": {"addr:city": "Z\u00fcrich", "addr:country": "CH", "addr:housenumber": "6", "addr:postcode": "8001", "addr:street": "Seidengasse"}}, {"type": "node", "id": 3324778731, "lat": 47.3748396, "lon": 8.5378339, "tags": {"addr:city": "Z\u00fcrich", "addr:country": "CH", "addr:housenumber": "6", "addr:postcode": "8001", "addr:street": "Uraniastrasse"}}, {"type": "node", "id": 3324778733, "lat": 47.3743047, "lon": 8.5383552, "tags": {"addr:city": "Z\u00fcrich", "addr:country": "CH", "addr:housenumber": "71", "addr:postcode": "8001", "addr:street": "Bahnhofstrasse"}}, {"type": "node", "id": 3324778742, "lat": 47.3741509, "lon": 8.5365257}, {"type": "node", "id": 3324778746, "lat": 47.3742759, "lon": 8.5381232}, {"type": "node", "id": 3324778747, "lat": 47.374304, "lon": 8.5366654}, {"type": "node", "id": 3324778748, "lat": 47.3749893, "lon": 8.5378019}, {"type": "node", "id": 3324778749, "lat": 47.3750277, "lon": 8.5371069}, {"type": "node", "id": 3324778750, "lat": 47.3750361, "lon": 8.5376183}, {"type": "node", "id": 3324778751, "lat": 47.3750391, "lon": 8.5383813}, {"type": "node", "id": 3324778753, "lat": 47.3750982, "lon": 8.5377912}, {"type": "node", "id": 3324778756, "lat": 47.3751406, "lon": 8.5370122}, {"type": "node", "id": 3324778759, "lat": 47.3751613, "lon": 8.5375208}, {"type": "node", "id": 3324778760, "lat": 47.3751629, "lon": 8.5384448}, {"type": "node", "id": 3324781062, "lat": 47.375194, "lon": 8.536967}, {"type": "node", "id": 3324781063, "lat": 47.3752095, "lon": 8.5368975}, {"type": "node", "id": 3324781064, "lat": 47.375224, "lon": 8.5376945}, {"type": "node", "id": 3324781065, "lat": 47.3752514, "lon": 8.5376562}, {"type": "node", "id": 3324781066, "lat": 47.3752561, "lon": 8.5376692}, {"type": "node", "id": 3324781067, "lat": 47.3752804, "lon": 8.5378871}, {"type": "node", "id": 3324781068, "lat": 47.3752903, "lon": 8.5378451}, {"type": "node", "id": 3324781069, "lat": 47.3753052, "lon": 8.5369916}, {"type": "node", "id": 3324781070, "lat": 47.3753185, "lon": 8.5375792}, {"type": "node", "id": 3324781071, "lat": 47.3753254, "lon": 8.5375978}, {"type": "node", "id": 3324781074, "lat": 47.3753543, "lon": 8.5377134}, {"type": "node", "id": 3324781075, "lat": 47.3753599, "lon": 8.5373634}, {"type": "node", "id": 3324781076, "lat": 47.3753728, "lon": 8.5375356}, {"type": "node", "id": 3324781077, "lat": 47.3753847, "lon": 8.5375681}, {"type": "node", "id": 3324781078, "lat": 47.3754022, "lon": 8.5374782}, {"type": "node", "id": 3324781079, "lat": 47.3754075, "lon": 8.5376113}, {"type": "node", "id": 3324781080, "lat": 47.3754446, "lon": 8.5375475}, {"type": "node", "id": 3324781081, "lat": 47.3754601, "lon": 8.5374326}, {"type": "node", "id": 3324781082, "lat": 47.3754711, "lon": 8.5374395}, {"type": "node", "id": 3324781083, "lat": 47.3754822, "lon": 8.5374021}, {"type": "node", "id": 3324781085, "lat": 47.3755071, "lon": 8.5381327}, {"type": "node", "id": 3324781086, "lat": 47.3755139, "lon": 8.5381031}, {"type": "node", "id": 3324781087, "lat": 47.375526, "lon": 8.5375912}, {"type": "node", "id": 3324781088, "lat": 47.3755312, "lon": 8.5381446}, {"type": "node", "id": 3324781089, "lat": 47.3755379, "lon": 8.538115}, {"type": "node", "id": 3324781090, "lat": 47.3756774, "lon": 8.5383643, "tags": {"entrance": "yes"}}, {"type": "node", "id": 3324802891, "lat": 47.3751263, "lon": 8.5377692}, {"type": "node", "id": 3324802892, "lat": 47.3751321, "lon": 8.5377854}, {"type": "node", "id": 3324802893, "lat": 47.3751429, "lon": 8.5377576}, {"type": "node", "id": 3324802894, "lat": 47.3751484, "lon": 8.5377727}, {"type": "node", "id": 3327353662, "lat": 47.3747098, "lon": 8.5370652, "tags": {"addr:city": "Z\u00fcrich", "addr:country": "CH", "addr:housenumber": "10", "addr:postcode": "8001", "addr:street": "Uraniastrasse"}}, {"type": "node", "id": 3327353666, "lat": 47.3749346, "lon": 8.5369062, "tags": {"addr:city": "Z\u00fcrich", "addr:country": "CH", "addr:housenumber": "5", "addr:postcode": "8001", "addr:street": "Gerbergasse"}}, {"type": "node", "id": 3327353672, "lat": 47.3748427, "lon": 8.5368669}, {"type": "node", "id": 3344372625, "lat": 47.3743197, "lon": 8.5378048, "tags": {"addr:city": "Z\u00fcrich", "addr:country": "CH", "addr:housenumber": "1", "addr:postcode": "8001", "addr:street": "Seidengasse"}}, {"type": "node", "id": 3344372626, "lat": 47.3745821, "lon": 8.5372608}, {"type": "node", "id": 3344372627, "lat": 47.374611, "lon": 8.5375151, "tags": {"entrance": "yes"}}, {"type": "node", "id": 5651261027, "lat": 47.3758139, "lon": 8.5383915}, {"type": "node", "id": 5651261028, "lat": 47.3758035, "lon": 8.538435}, {"type": "node", "id": 5651261029, "lat": 47.3756901, "lon": 8.5377257}, {"type": "node", "id": 5651261030, "lat": 47.3755988, "lon": 8.5381099}, {"type": "node", "id": 5651261031, "lat": 47.3759885, "lon": 8.5376565}, {"type": "node", "id": 5651261032, "lat": 47.3759781, "lon": 8.5377004}, {"type": "node", "id": 10721724389, "lat": 47.3758055, "lon": 8.538427}, {"type": "node", "id": 10721724391, "lat": 47.3759867, "lon": 8.5376641}, {"type": "node", "id": 10722724328, "lat": 47.3759874, "lon": 8.5378317, "tags": {"entrance": "yes"}}, {"type": "way", "id": 28528223, "nodes": [313371707, 313371714, 313371710, 313371709, 313371708, 313371707], "tags": {"addr:city": "Z\u00fcrich", "addr:country": "CH", "addr:housenumber": "17", "addr:postcode": "8001", "addr:street": "Seidengasse", "building": "yes", "source": "Stadt Z\u00fcrich Open Government Data; Geomatik + Vermessung; Tiefbau- und Entsorgungsdepartement"}}, {"type": "way", "id": 37024471, "nodes": [5651261028, 3324781090, 430600268, 5651261030, 5651261029, 430600267, 3324778728, 5651261031, 10721724391, 5651261032, 430600266, 10722724328, 3230040561, 430600269, 5651261027, 10721724389, 5651261028], "tags": {"architect": "Karl Egender", "building": "retail", "building:levels": "6", "owner": "Liegenschaften-Betrieb AG (LiB-AG)", "roof:shape": "flat", "start_date": "1967"}}, {"type": "way", "id": 37037045, "nodes": [430731933, 430731936, 1783649767, 430731938, 3344372625, 430731941, 3344372627, 430731945, 3250568665, 3344372626, 430731948, 430731950, 430731953, 430731956, 430731965, 3324778747, 3324778742, 430731968, 3250568450, 3250568449, 3250568448, 3250568447, 430731971, 430731975, 430731977, 430731980, 430731933], "tags": {"addr:city": "Z\u00fcrich", "addr:country": "CH", "addr:postcode": "8001", "building": "retail", "name": "Jelmoli", "note": "actually consisting of three buildings, interconnected at different levels", "opening_hours": "Mo-Fr 09:30-20:00; Sa 09:00-20:00", "operator": "Wincasa", "owner": "Swiss Prime Site (SPS)", "shop": "department_store", "source": "Stadt Z\u00fcrich Open Government Data; Geomatik + Vermessung; Tiefbau- und Entsorgungsdepartement", "wheelchair": "yes", "wheelchair:description": "Beste Behindertentoilette der Stadt - 3. Stock", "wikidata": "Q21031096"}}, {"type": "way", "id": 37037133, "nodes": [693318470, 3324778751, 3324778760, 693318454, 3324778719, 430733696, 430733697, 430733698, 430733699, 430733700, 430733693, 693318470], "tags": {"addr:city": "Z\u00fcrich", "addr:country": "CH", "addr:housenumber": "75", "addr:postcode": "8001", "addr:street": "Bahnhofstrasse", "building": "retail", "building:levels": "6", "check_date": "2022-08-23", "disused:name": "Manor", "disused:shop": "department_store", "max_level": "5", "min_level": "-1", "name": "Swiss Life Brannhof", "opening_hours": "closed", "operator": "Manor", "owner": "Swiss Life", "source": "Stadt Z\u00fcrich Open Government Data;Geomatik + Vermessung;Tiefbau- und Entsorgungsdepartement"}}, {"type": "way", "id": 78574927, "nodes": [921917370, 3324778746, 921917319, 3324778733, 921917375, 921917325, 921917355, 693318452, 3250568666, 921917379, 3250568663, 3324778730, 921917370], "tags": {"addr:city": "Z\u00fcrich", "addr:country": "CH", "addr:postcode": "8001", "building": "retail", "source": "Stadt Z\u00fcrich Open Government Data; Geomatik + Vermessung; Tiefbau- und Entsorgungsdepartement"}}, {"type": "way", "id": 78630739, "nodes": [922509190, 3324778716, 922509149, 3324778731, 922509192, 922509169, 922509152, 3324778748, 922509189, 922509167, 922509190], "tags": {"addr:city": "Z\u00fcrich", "addr:country": "CH", "addr:postcode": "8001", "building": "yes", "source": "Stadt Z\u00fcrich Open Government Data; Geomatik + Vermessung; Tiefbau- und Entsorgungsdepartement"}}, {"type": "way", "id": 78630740, "nodes": [922509151, 922509196, 922509173, 922509146, 922509187, 922509194, 3324781083, 922509151], "tags": {"addr:city": "Z\u00fcrich", "addr:country": "CH", "addr:housenumber": "20", "addr:postcode": "8001", "addr:street": "Seidengasse", "building": "yes", "source": "Stadt Z\u00fcrich Open Government Data; Geomatik + Vermessung; Tiefbau- und Entsorgungsdepartement"}}, {"type": "way", "id": 78630741, "nodes": [3324781087, 922509207, 922509163, 3324781079, 922509143, 922509176, 3324781080, 3324781087], "tags": {"addr:city": "Z\u00fcrich", "addr:country": "CH", "addr:housenumber": "9", "addr:postcode": "8001", "addr:street": "Usteristrasse", "building": "yes", "source": "Stadt Z\u00fcrich Open Government Data; Geomatik + Vermessung; Tiefbau- und Entsorgungsdepartement"}}, {"type": "way", "id": 78630744, "nodes": [922509171, 1552985913, 922509148, 922509207, 922509163, 3324781074, 922509184, 3324781068, 3324781067, 922509144, 922509171], "tags": {"addr:city": "Z\u00fcrich", "addr:country": "CH", "addr:housenumber": "7", "addr:postcode": "8001", "addr:street": "Lintheschergasse", "building": "commercial", "owner": "Hardturm Immobilien", "source": "Stadt Z\u00fcrich Open Government Data; Geomatik + Vermessung; Tiefbau- und Entsorgungsdepartement"}}, {"type": "way", "id": 78631733, "nodes": [922532992, 922533055, 922532981, 922532913, 922533018, 922532992], "tags": {"addr:city": "Z\u00fcrich", "addr:country": "CH", "addr:housenumber": "2", "addr:postcode": "8001", "addr:street": "Gerbergasse", "building": "commercial", "owner": "Redevco Suisse", "source": "Stadt Z\u00fcrich Open Government Data; Geomatik + Vermessung; Tiefbau- und Entsorgungsdepartement"}}, {"type": "way", "id": 78631735, "nodes": [922532955, 3324778756, 922533049, 3324778717, 922532962, 3324778727, 3324778749, 3324778722, 922532886, 922532955], "tags": {"addr:city": "Z\u00fcrich", "addr:country": "CH", "addr:postcode": "8001", "building": "yes", "source": "Stadt Z\u00fcrich Open Government Data; Geomatik + Vermessung; Tiefbau- und Entsorgungsdepartement"}}, {"type": "way", "id": 78631736, "nodes": [922533049, 3324778756, 922532955, 3324781062, 922532987, 922533020, 3324781063, 3324781069, 313371710, 313371714, 922533049], "tags": {"addr:city": "Z\u00fcrich", "addr:country": "CH", "addr:housenumber": "15", "addr:postcode": "8001", "addr:street": "Seidengasse", "building": "yes", "source": "Stadt Z\u00fcrich Open Government Data; Geomatik + Vermessung; Tiefbau- und Entsorgungsdepartement"}}, {"type": "way", "id": 80338504, "nodes": [937593871, 3327353662, 3250568667, 937593864, 3250568668, 937593845, 3327353666, 937593886, 937593838, 937593855, 3327353672, 3250568669, 937593896, 937593871], "tags": {"addr:city": "Z\u00fcrich", "addr:country": "CH", "addr:postcode": "8001", "building": "commercial", "building:levels": "5", "owner": "PSP Swiss Property", "source": "Stadt Z\u00fcrich Open Government Data; Geomatik + Vermessung; Tiefbau- und Entsorgungsdepartement", "start_date": "1904"}}, {"type": "way", "id": 141887990, "nodes": [922509171, 1552985913, 922509190, 922509167, 922509171], "tags": {"addr:city": "Z\u00fcrich", "addr:country": "CH", "addr:housenumber": "3", "addr:postcode": "8001", "addr:street": "Lintheschergasse", "building": "yes", "source": "Stadt Z\u00fcrich Open Government Data; Geomatik + Vermessung; Tiefbau- und Entsorgungsdepartement"}}, {"type": "way", "id": 325859830, "nodes": [3324781089, 3324781086, 3324781085, 3324781088, 3324781089], "tags": {"access": "yes", "addr:housenumber": "6", "addr:street": "Usteristrasse", "amenity": "toilets", "building": "toilets", "building:levels": "1", "centralkey": "eurokey", "fee": "yes", "fee:centralkey": "no", "name": "Pestalozziwiese", "opening_hours": "24/7", "operator": "Z\u00fcriWC", "toilets:disposal": "flush", "unisex": "yes", "wheelchair": "yes"}}, {"type": "way", "id": 325859843, "nodes": [922509169, 3324778750, 3324778753, 922509189, 3324778748, 922509152, 922509169], "tags": {"addr:city": "Z\u00fcrich", "addr:country": "CH", "addr:housenumber": "10", "addr:postcode": "8001", "addr:street": "Seidengasse", "building": "yes", "source": "Stadt Z\u00fcrich Open Government Data; Geomatik + Vermessung; Tiefbau- und Entsorgungsdepartement"}}, {"type": "way", "id": 325859848, "nodes": [3324778759, 922509165, 922509185, 3324781065, 3324781066, 3324781064, 3324778759], "tags": {"addr:city": "Z\u00fcrich", "addr:country": "CH", "addr:housenumber": "14", "addr:postcode": "8001", "addr:street": "Seidengasse", "building": "yes", "source": "Stadt Z\u00fcrich Open Government Data; Geomatik + Vermessung; Tiefbau- und Entsorgungsdepartement"}}, {"type": "way", "id": 325859849, "nodes": [3324781075, 922509165, 922509185, 3324781071, 3324781070, 3324781076, 3324781077, 922509143, 922509176, 3324781078, 3324781075], "tags": {"addr:city": "Z\u00fcrich", "addr:country": "CH", "addr:housenumber": "16", "addr:postcode": "8001", "addr:street": "Seidengasse", "building": "commercial", "owner": "UBS", "source": "Stadt Z\u00fcrich Open Government Data; Geomatik + Vermessung; Tiefbau- und Entsorgungsdepartement", "start_date": "1873"}}, {"type": "way", "id": 325859850, "nodes": [922509151, 3324781075, 3324781078, 3324781081, 3324781082, 922509194, 3324781083, 922509151], "tags": {"addr:city": "Z\u00fcrich", "addr:country": "CH", "addr:housenumber": "18", "addr:postcode": "8001", "addr:street": "Seidengasse", "building": "yes", "source": "Stadt Z\u00fcrich Open Government Data; Geomatik + Vermessung; Tiefbau- und Entsorgungsdepartement"}}, {"type": "way", "id": 325862009, "nodes": [922509194, 3324781082, 3324781080, 3324781087, 922509187, 922509194], "tags": {"addr:city": "Z\u00fcrich", "addr:country": "CH", "addr:housenumber": "11", "addr:postcode": "8001", "addr:street": "Usteristrasse", "building": "yes", "source": "Stadt Z\u00fcrich Open Government Data; Geomatik + Vermessung; Tiefbau- und Entsorgungsdepartement"}}, {"type": "way", "id": 325862010, "nodes": [3324778750, 3324778759, 3324781064, 3324802893, 3324802894, 3324802892, 3324802891, 3324778753, 3324778750], "tags": {"addr:city": "Z\u00fcrich", "addr:country": "CH", "addr:housenumber": "12", "addr:postcode": "8001", "addr:street": "Seidengasse", "building": "yes", "source": "Stadt Z\u00fcrich Open Government Data; Geomatik + Vermessung; Tiefbau- und Entsorgungsdepartement"}}]}