{"version": 0.6, "generator": "Overpass API 0.7.60.6 e2dc3e5b", "osm3s": {"timestamp_osm_base": "2023-06-29T11:00:17Z", "copyright": "The data included in this document is from www.openstreetmap.org. The data is made available under ODbL."}, "elements": [{"type": "node", "id": 1037539457, "lat": 47.3721415, "lon": 8.5403085}, {"type": "node", "id": 1037539612, "lat": 47.3722459, "lon": 8.5403214}, {"type": "node", "id": 1037539700, "lat": 47.3719955, "lon": 8.5404628}, {"type": "node", "id": 1037539705, "lat": 47.3722363, "lon": 8.5404183}, {"type": "node", "id": 1037539821, "lat": 47.3719942, "lon": 8.5403352}, {"type": "node", "id": 1037539961, "lat": 47.3721316, "lon": 8.540399}, {"type": "node", "id": 2925754179, "lat": 47.371993, "lon": 8.5406705}, {"type": "node", "id": 2925754180, "lat": 47.3719956, "lon": 8.5405858}, {"type": "node", "id": 2925754181, "lat": 47.3719958, "lon": 8.5404987}, {"type": "node", "id": 2925754183, "lat": 47.3720378, "lon": 8.540592}, {"type": "node", "id": 2925754184, "lat": 47.3720388, "lon": 8.5406805}, {"type": "node", "id": 2925754186, "lat": 47.3720428, "lon": 8.5405868}, {"type": "node", "id": 2925754187, "lat": 47.3720442, "lon": 8.5404945}, {"type": "node", "id": 2925754188, "lat": 47.3720504, "lon": 8.540683}, {"type": "node", "id": 2925754189, "lat": 47.3720512, "lon": 8.540491}, {"type": "node", "id": 2925754190, "lat": 47.3720519, "lon": 8.5406733}, {"type": "node", "id": 2925754191, "lat": 47.3720643, "lon": 8.5405927}, {"type": "node", "id": 2925754192, "lat": 47.3720802, "lon": 8.5404532}, {"type": "node", "id": 2925754194, "lat": 47.3720816, "lon": 8.5404886}, {"type": "node", "id": 2925754197, "lat": 47.372089, "lon": 8.5404045}, {"type": "node", "id": 2925754198, "lat": 47.3720906, "lon": 8.540452}, {"type": "node", "id": 2925754199, "lat": 47.3720925, "lon": 8.5406908}, {"type": "node", "id": 2925754200, "lat": 47.3720944, "lon": 8.5403063}, {"type": "node", "id": 2925754201, "lat": 47.3720986, "lon": 8.5406022}, {"type": "node", "id": 2925754202, "lat": 47.3721086, "lon": 8.5404493}, {"type": "node", "id": 2925754203, "lat": 47.3721102, "lon": 8.5404893}, {"type": "node", "id": 2925754204, "lat": 47.3721194, "lon": 8.540608}, {"type": "node", "id": 2925754205, "lat": 47.3721227, "lon": 8.5406142}, {"type": "node", "id": 2925754206, "lat": 47.3721312, "lon": 8.5403809}, {"type": "node", "id": 2925754208, "lat": 47.3721408, "lon": 8.5403807}, {"type": "node", "id": 2925754210, "lat": 47.3721678, "lon": 8.5404935}, {"type": "node", "id": 2925754211, "lat": 47.3721764, "lon": 8.5407088}, {"type": "node", "id": 2925754212, "lat": 47.3721993, "lon": 8.5406305}, {"type": "node", "id": 2925754213, "lat": 47.3722216, "lon": 8.5405098}, {"type": "node", "id": 2925754214, "lat": 47.372228, "lon": 8.5405118}, {"type": "node", "id": 3645952051, "lat": 47.3722101, "lon": 8.5405721, "tags": {"entrance": "main"}}, {"type": "way", "id": 89469956, "nodes": [1037539961, 2925754206, 2925754208, 1037539457, 1037539612, 1037539705, 1037539961], "tags": {"addr:city": "Z\u00fcrich", "addr:country": "CH", "addr:housenumber": "33", "addr:postcode": "8001", "addr:street": "Strehlgasse", "building": "yes", "source": "Stadt Z\u00fcrich Open Government Data; Geomatik + Vermessung; Tiefbau- und Entsorgungsdepartement"}}, {"type": "way", "id": 89469991, "nodes": [1037539457, 2925754208, 2925754206, 1037539961, 2925754197, 2925754198, 2925754192, 1037539700, 1037539821, 2925754200, 1037539457], "tags": {"addr:city": "Z\u00fcrich", "addr:country": "CH", "addr:housenumber": "8", "addr:postcode": "8001", "addr:street": "Glockengasse", "building": "yes", "building:levels": "5", "roof:levels": "1", "source": "Stadt Z\u00fcrich Open Government Data; Geomatik + Vermessung; Tiefbau- und Entsorgungsdepartement"}}, {"type": "way", "id": 289026066, "nodes": [2925754211, 2925754212, 2925754205, 2925754204, 2925754201, 2925754199, 2925754211], "tags": {"addr:city": "Z\u00fcrich", "addr:country": "CH", "addr:housenumber": "27", "addr:postcode": "8001", "addr:street": "Strehlgasse", "building": "yes", "source": "Stadt Z\u00fcrich Open Government Data; Geomatik + Vermessung; Tiefbau- und Entsorgungsdepartement"}}, {"type": "way", "id": 289026067, "nodes": [2925754181, 2925754180, 2925754183, 2925754186, 2925754191, 2925754201, 2925754204, 2925754205, 2925754212, 3645952051, 2925754213, 2925754210, 2925754203, 2925754194, 2925754189, 2925754187, 2925754181], "tags": {"addr:city": "Z\u00fcrich", "addr:country": "CH", "addr:housenumber": "29", "addr:postcode": "8001", "addr:street": "Strehlgasse", "building": "yes", "source": "Stadt Z\u00fcrich Open Government Data; Geomatik + Vermessung; Tiefbau- und Entsorgungsdepartement"}}, {"type": "way", "id": 289026070, "nodes": [2925754213, 2925754214, 1037539705, 1037539961, 2925754197, 2925754198, 2925754202, 2925754203, 2925754210, 2925754213], "tags": {"addr:city": "Z\u00fcrich", "addr:country": "CH", "addr:housenumber": "31", "addr:postcode": "8001", "addr:street": "Strehlgasse", "building": "yes", "source": "Stadt Z\u00fcrich Open Government Data; Geomatik + Vermessung; Tiefbau- und Entsorgungsdepartement"}}, {"type": "way", "id": 289026072, "nodes": [2925754180, 2925754179, 2925754184, 2925754188, 2925754190, 2925754191, 2925754186, 2925754183, 2925754180], "tags": {"addr:city": "Z\u00fcrich", "addr:country": "CH", "addr:housenumber": "4", "addr:postcode": "8001", "addr:street": "Glockengasse", "building": "yes", "name": "Kleiner Riese", "source": "Stadt Z\u00fcrich Open Government Data; Geomatik + Vermessung; Tiefbau- und Entsorgungsdepartement"}}, {"type": "way", "id": 289026076, "nodes": [1037539700, 2925754181, 2925754187, 2925754189, 2925754194, 2925754192, 1037539700], "tags": {"addr:city": "Z\u00fcrich", "addr:country": "CH", "addr:housenumber": "6a", "addr:postcode": "8001", "addr:street": "Glockengasse", "building": "yes", "note": "Hausnummer am Haus ist 8", "source": "Stadt Z\u00fcrich Open Government Data; Geomatik + Vermessung; Tiefbau- und Entsorgungsdepartement"}}]}