{"version": 0.6, "generator": "Overpass API 0.7.60.6 e2dc3e5b", "osm3s": {"timestamp_osm_base": "2023-06-29T12:47:33Z", "copyright": "The data included in this document is from www.openstreetmap.org. The data is made available under ODbL."}, "elements": [{"type": "node", "id": 791378544, "lat": 47.3724511, "lon": 8.5441405}, {"type": "node", "id": 791378550, "lat": 47.3724274, "lon": 8.543866}, {"type": "node", "id": 791378555, "lat": 47.3726118, "lon": 8.5438222}, {"type": "node", "id": 791378564, "lat": 47.3723563, "lon": 8.5441722}, {"type": "node", "id": 791378570, "lat": 47.3724748, "lon": 8.5438512}, {"type": "node", "id": 791378592, "lat": 47.3725039, "lon": 8.5440714}, {"type": "node", "id": 791378594, "lat": 47.3725412, "lon": 8.5443052}, {"type": "node", "id": 791378600, "lat": 47.3724348, "lon": 8.5440456}, {"type": "node", "id": 791378605, "lat": 47.3727863, "lon": 8.5440026}, {"type": "node", "id": 791378610, "lat": 47.3725217, "lon": 8.5441832}, {"type": "node", "id": 791378618, "lat": 47.3727444, "lon": 8.5437827}, {"type": "node", "id": 791378623, "lat": 47.3725329, "lon": 8.5442562}, {"type": "node", "id": 791378637, "lat": 47.3723671, "lon": 8.5442332}, {"type": "node", "id": 791378643, "lat": 47.3723309, "lon": 8.5438896}, {"type": "node", "id": 791378644, "lat": 47.3726822, "lon": 8.5441887}, {"type": "node", "id": 791378648, "lat": 47.3726402, "lon": 8.5439992}, {"type": "node", "id": 791378651, "lat": 47.3723445, "lon": 8.5440547}, {"type": "node", "id": 1965809598, "lat": 47.3725035, "lon": 8.5443184}, {"type": "node", "id": 1965809599, "lat": 47.3724607, "lon": 8.5441922}, {"type": "node", "id": 1965809602, "lat": 47.3725162, "lon": 8.544149}, {"type": "node", "id": 1965809650, "lat": 47.3725662, "lon": 8.5439664}, {"type": "node", "id": 1965809654, "lat": 47.3725885, "lon": 8.5440378}, {"type": "node", "id": 1965809668, "lat": 47.372649, "lon": 8.5440158}, {"type": "node", "id": 1965809676, "lat": 47.3726596, "lon": 8.5440708}, {"type": "node", "id": 1965809738, "lat": 47.3727436, "lon": 8.5440069}, {"type": "node", "id": 2888641512, "lat": 47.3724409, "lon": 8.5440456}, {"type": "node", "id": 2888641515, "lat": 47.3724681, "lon": 8.5441735}, {"type": "node", "id": 2888641517, "lat": 47.3724722, "lon": 8.5442421}, {"type": "node", "id": 2888641518, "lat": 47.3724736, "lon": 8.544204}, {"type": "node", "id": 2888641521, "lat": 47.3724884, "lon": 8.5439938}, {"type": "node", "id": 2888641522, "lat": 47.3724887, "lon": 8.5442324}, {"type": "node", "id": 2888641525, "lat": 47.3725517, "lon": 8.5438307}, {"type": "node", "id": 2888641526, "lat": 47.3725707, "lon": 8.5442395}, {"type": "node", "id": 2888641527, "lat": 47.3725726, "lon": 8.5442438}, {"type": "node", "id": 2888641528, "lat": 47.3725795, "lon": 8.5439648}, {"type": "node", "id": 2888641529, "lat": 47.3725843, "lon": 8.5440052}, {"type": "node", "id": 2888641530, "lat": 47.3725939, "lon": 8.544013}, {"type": "node", "id": 2888641531, "lat": 47.3726766, "lon": 8.5439864}, {"type": "node", "id": 2888641532, "lat": 47.3726785, "lon": 8.5440001}, {"type": "node", "id": 2888641533, "lat": 47.3726849, "lon": 8.5437901}, {"type": "node", "id": 2888641534, "lat": 47.3726886, "lon": 8.5439831}, {"type": "node", "id": 2888641535, "lat": 47.3726909, "lon": 8.5439955}, {"type": "node", "id": 2888641537, "lat": 47.3727374, "lon": 8.5439661}, {"type": "node", "id": 2888641538, "lat": 47.3727598, "lon": 8.5440059}, {"type": "node", "id": 2888641539, "lat": 47.3727628, "lon": 8.5440184}, {"type": "node", "id": 3587167979, "lat": 47.3726605, "lon": 8.5438008}, {"type": "node", "id": 3587167980, "lat": 47.3726963, "lon": 8.5439804}, {"type": "way", "id": 64260363, "nodes": [1965809668, 1965809676, 791378644, 2888641527, 2888641526, 791378623, 791378610, 1965809602, 791378592, 1965809654, 1965809668], "tags": {"addr:city": "Z\u00fcrich", "addr:country": "CH", "addr:housenumber": "9", "addr:postcode": "8001", "addr:street": "St\u00fcssihofstatt", "building": "yes", "source": "Stadt Z\u00fcrich Open Government Data; Geomatik + Vermessung; Tiefbau- und Entsorgungsdepartement"}}, {"type": "way", "id": 64260365, "nodes": [791378600, 2888641512, 791378550, 791378643, 791378651, 791378600], "tags": {"addr:city": "Z\u00fcrich", "addr:country": "CH", "addr:housenumber": "1", "addr:postcode": "8001", "addr:street": "Rindermarkt", "building": "yes", "name": "Zum grossen Pfauen", "source": "Stadt Z\u00fcrich Open Government Data; Geomatik + Vermessung; Tiefbau- und Entsorgungsdepartement"}}, {"type": "way", "id": 64260368, "nodes": [2888641525, 1965809650, 1965809654, 791378592, 2888641521, 791378570, 2888641525], "tags": {"addr:city": "Z\u00fcrich", "addr:country": "CH", "addr:housenumber": "10", "addr:postcode": "8001", "addr:street": "St\u00fcssihofstatt", "building": "yes", "source": "Stadt Z\u00fcrich Open Government Data; Geomatik + Vermessung; Tiefbau- und Entsorgungsdepartement"}}, {"type": "way", "id": 64260371, "nodes": [791378550, 791378570, 2888641521, 791378592, 1965809602, 2888641515, 2888641518, 791378610, 791378623, 791378594, 1965809598, 2888641522, 2888641517, 1965809599, 791378544, 791378600, 2888641512, 791378550], "tags": {"addr:city": "Z\u00fcrich", "addr:country": "CH", "addr:housenumber": "11", "addr:postcode": "8001", "addr:street": "St\u00fcssihofstatt", "building": "yes", "source": "Stadt Z\u00fcrich Open Government Data; Geomatik + Vermessung; Tiefbau- und Entsorgungsdepartement"}}, {"type": "way", "id": 64260381, "nodes": [791378618, 2888641533, 3587167979, 791378555, 791378648, 2888641531, 2888641532, 2888641535, 2888641534, 3587167980, 2888641537, 1965809738, 2888641538, 2888641539, 791378605, 791378618], "tags": {"addr:city": "Z\u00fcrich", "addr:country": "CH", "addr:housenumber": "6", "addr:postcode": "8001", "addr:street": "St\u00fcssihofstatt", "building": "yes", "source": "Stadt Z\u00fcrich Open Government Data;Geomatik + Vermessung;Tiefbau- und Entsorgungsdepartement"}}, {"type": "way", "id": 64260382, "nodes": [1965809599, 791378637, 791378564, 791378544, 1965809599], "tags": {"addr:city": "Z\u00fcrich", "addr:country": "CH", "addr:housenumber": "5", "addr:postcode": "8001", "addr:street": "Rindermarkt", "building": "yes", "name": "zum Farren", "source": "Stadt Z\u00fcrich Open Government Data; Geomatik + Vermessung; Tiefbau- und Entsorgungsdepartement"}}, {"type": "way", "id": 64260385, "nodes": [791378544, 791378600, 791378651, 791378564, 791378544], "tags": {"addr:city": "Z\u00fcrich", "addr:country": "CH", "addr:housenumber": "3", "addr:postcode": "8001", "addr:street": "Rindermarkt", "building": "yes", "name": "Zum weissen T\u00e4ubli", "source": "Stadt Z\u00fcrich Open Government Data; Geomatik + Vermessung; Tiefbau- und Entsorgungsdepartement"}}, {"type": "way", "id": 285188190, "nodes": [2888641525, 791378555, 791378648, 2888641530, 2888641529, 2888641528, 1965809650, 2888641525], "tags": {"addr:city": "Z\u00fcrich", "addr:country": "CH", "addr:housenumber": "8", "addr:postcode": "8001", "addr:street": "St\u00fcssihofstatt", "building": "yes", "source": "Stadt Z\u00fcrich Open Government Data;Geomatik + Vermessung;Tiefbau- und Entsorgungsdepartement"}}]}