{"version": 0.6, "generator": "Overpass API 0.7.60.6 e2dc3e5b", "osm3s": {"timestamp_osm_base": "2023-06-29T15:19:02Z", "copyright": "The data included in this document is from www.openstreetmap.org. The data is made available under ODbL."}, "elements": [{"type": "node", "id": 1388623166, "lat": 47.3675431, "lon": 8.5330922}, {"type": "node", "id": 1388623167, "lat": 47.3675811, "lon": 8.5332047}, {"type": "node", "id": 1388623168, "lat": 47.3676155, "lon": 8.5329594}, {"type": "node", "id": 1388623169, "lat": 47.3677585, "lon": 8.5328612}, {"type": "node", "id": 1388623171, "lat": 47.3678174, "lon": 8.5330264}, {"type": "node", "id": 1388636732, "lat": 47.3677315, "lon": 8.5332387}, {"type": "node", "id": 1388636738, "lat": 47.3676882, "lon": 8.5334815}, {"type": "node", "id": 1388651098, "lat": 47.3667586, "lon": 8.5331068}, {"type": "node", "id": 1388651099, "lat": 47.3669839, "lon": 8.5334402}, {"type": "node", "id": 1388651100, "lat": 47.3669828, "lon": 8.5331649}, {"type": "node", "id": 1388651101, "lat": 47.3670466, "lon": 8.5334851}, {"type": "node", "id": 1388651105, "lat": 47.3670818, "lon": 8.5332451}, {"type": "node", "id": 1388651108, "lat": 47.3671614, "lon": 8.5332934}, {"type": "node", "id": 1388651110, "lat": 47.3672554, "lon": 8.5334033}, {"type": "node", "id": 1388651113, "lat": 47.3672733, "lon": 8.5331066}, {"type": "node", "id": 1388651116, "lat": 47.3672556, "lon": 8.5327196}, {"type": "node", "id": 1388651117, "lat": 47.3673138, "lon": 8.532992}, {"type": "node", "id": 1388651128, "lat": 47.367363, "lon": 8.5332236}, {"type": "node", "id": 1388651129, "lat": 47.367377, "lon": 8.532886}, {"type": "node", "id": 1388651130, "lat": 47.3674208, "lon": 8.5328207}, {"type": "node", "id": 1388651131, "lat": 47.3674294, "lon": 8.5334592}, {"type": "node", "id": 1388651133, "lat": 47.3674344, "lon": 8.5331505}, {"type": "node", "id": 1388651142, "lat": 47.3674667, "lon": 8.5327445}, {"type": "node", "id": 1388651147, "lat": 47.3674871, "lon": 8.5336282}, {"type": "node", "id": 1388651149, "lat": 47.3674131, "lon": 8.5334061}, {"type": "node", "id": 1388651153, "lat": 47.367498, "lon": 8.5330451}, {"type": "node", "id": 1388651155, "lat": 47.3675272, "lon": 8.5329648}, {"type": "node", "id": 1388651156, "lat": 47.3674784, "lon": 8.5333551}, {"type": "node", "id": 1388651158, "lat": 47.3675596, "lon": 8.5329038}, {"type": "node", "id": 1388651167, "lat": 47.3676308, "lon": 8.5333123}, {"type": "node", "id": 2809086437, "lat": 47.3668052, "lon": 8.5330646, "tags": {"addr:city": "Z\u00fcrich", "addr:country": "CH", "addr:housenumber": "2", "addr:postcode": "8002", "addr:street": "Freigutstrasse", "entrance": "yes"}}, {"type": "node", "id": 2809086439, "lat": 47.3668788, "lon": 8.5329745, "tags": {"addr:city": "Z\u00fcrich", "addr:country": "CH", "addr:housenumber": "4", "addr:postcode": "8002", "addr:street": "Freigutstrasse", "entrance": "yes"}}, {"type": "node", "id": 2809086441, "lat": 47.3669641, "lon": 8.5328646, "tags": {"addr:city": "Z\u00fcrich", "addr:country": "CH", "addr:housenumber": "6", "addr:postcode": "8002", "addr:street": "Freigutstrasse", "entrance": "yes"}}, {"type": "node", "id": 2809086443, "lat": 47.367112, "lon": 8.5326759, "tags": {"addr:city": "Z\u00fcrich", "addr:country": "CH", "addr:housenumber": "8", "addr:postcode": "8002", "addr:street": "Freigutstrasse", "entrance": "yes"}}, {"type": "node", "id": 3344853738, "lat": 47.3670648, "lon": 8.5329911}, {"type": "node", "id": 3344853739, "lat": 47.3671403, "lon": 8.5331407}, {"type": "node", "id": 3344853740, "lat": 47.367232, "lon": 8.5329661}, {"type": "node", "id": 3344853741, "lat": 47.3672998, "lon": 8.5328628}, {"type": "node", "id": 3344853742, "lat": 47.36726, "lon": 8.5327944}, {"type": "node", "id": 3344853743, "lat": 47.3672327, "lon": 8.5328207}, {"type": "node", "id": 3344853744, "lat": 47.3672201, "lon": 8.5328044}, {"type": "node", "id": 3728341418, "lat": 47.3667562, "lon": 8.5331414}, {"type": "node", "id": 3728341419, "lat": 47.3667629, "lon": 8.5331451}, {"type": "node", "id": 3728341420, "lat": 47.3667688, "lon": 8.5331053}, {"type": "node", "id": 3728341421, "lat": 47.3668675, "lon": 8.5329895}, {"type": "node", "id": 3728341422, "lat": 47.366886, "lon": 8.5333007}, {"type": "node", "id": 3728341423, "lat": 47.3668885, "lon": 8.5330729}, {"type": "node", "id": 3728341424, "lat": 47.3669003, "lon": 8.533053}, {"type": "node", "id": 3728343525, "lat": 47.3669105, "lon": 8.5329073}, {"type": "node", "id": 3728343526, "lat": 47.3669189, "lon": 8.532916}, {"type": "node", "id": 3728343527, "lat": 47.3669231, "lon": 8.5332435}, {"type": "node", "id": 3728343528, "lat": 47.3669307, "lon": 8.5332571}, {"type": "node", "id": 3728343529, "lat": 47.3669324, "lon": 8.5328762}, {"type": "node", "id": 3728343530, "lat": 47.3669383, "lon": 8.5328974}, {"type": "node", "id": 3728343531, "lat": 47.3669391, "lon": 8.5331488}, {"type": "node", "id": 3728343532, "lat": 47.3669518, "lon": 8.5331277}, {"type": "node", "id": 3728343533, "lat": 47.3669526, "lon": 8.5328837}, {"type": "node", "id": 3728343534, "lat": 47.3669956, "lon": 8.5328015}, {"type": "node", "id": 3728343535, "lat": 47.3669998, "lon": 8.5331314}, {"type": "node", "id": 3728343536, "lat": 47.3670032, "lon": 8.5328164}, {"type": "node", "id": 3728343537, "lat": 47.3670142, "lon": 8.5327754}, {"type": "node", "id": 3728343538, "lat": 47.3670184, "lon": 8.5331364}, {"type": "node", "id": 3728343539, "lat": 47.3670201, "lon": 8.5330343}, {"type": "node", "id": 3728343540, "lat": 47.3670226, "lon": 8.5330106}, {"type": "node", "id": 3728343541, "lat": 47.3670302, "lon": 8.5327841}, {"type": "node", "id": 3728343542, "lat": 47.367053, "lon": 8.532982}, {"type": "node", "id": 3728343543, "lat": 47.3670555, "lon": 8.5330057}, {"type": "node", "id": 3728343544, "lat": 47.3670816, "lon": 8.5327193}, {"type": "node", "id": 3728343545, "lat": 47.3671643, "lon": 8.5328588}, {"type": "node", "id": 3728343546, "lat": 47.3671693, "lon": 8.5336478}, {"type": "node", "id": 3728343547, "lat": 47.3671811, "lon": 8.5325886}, {"type": "node", "id": 3728343548, "lat": 47.3672469, "lon": 8.5329297}, {"type": "node", "id": 3728343549, "lat": 47.3672654, "lon": 8.532738}, {"type": "node", "id": 3728343553, "lat": 47.3672928, "lon": 8.53345}, {"type": "node", "id": 3728343556, "lat": 47.3673114, "lon": 8.5329805}, {"type": "node", "id": 3728343557, "lat": 47.3673166, "lon": 8.5329873}, {"type": "node", "id": 3728343558, "lat": 47.3673309, "lon": 8.5329482}, {"type": "node", "id": 3728343559, "lat": 47.3673358, "lon": 8.5329548}, {"type": "node", "id": 3728343560, "lat": 47.3673475, "lon": 8.5329186}, {"type": "node", "id": 3728343561, "lat": 47.3673531, "lon": 8.5329261}, {"type": "node", "id": 3728343562, "lat": 47.3673679, "lon": 8.5328848}, {"type": "node", "id": 3728343563, "lat": 47.3673734, "lon": 8.532892}, {"type": "node", "id": 3728343570, "lat": 47.3675394, "lon": 8.5333409}, {"type": "node", "id": 3728343584, "lat": 47.3676207, "lon": 8.5332834}, {"type": "node", "id": 3728343600, "lat": 47.3677893, "lon": 8.5334044}, {"type": "way", "id": 124897003, "nodes": [1388623171, 1388623167, 1388623166, 1388623168, 1388623169, 1388623171], "tags": {"addr:city": "Z\u00fcrich", "addr:country": "CH", "addr:housenumber": "49", "addr:postcode": "8002", "addr:street": "T\u00f6distrasse", "building": "yes"}}, {"type": "way", "id": 124900863, "nodes": [1388651155, 1388651130, 1388651142, 1388651158, 1388651155], "tags": {"addr:city": "Z\u00fcrich", "addr:country": "CH", "addr:housenumber": "64", "addr:postcode": "8002", "addr:street": "Bleicherweg", "building": "yes"}}, {"type": "way", "id": 124900869, "nodes": [1388651153, 1388651133, 1388651117, 3728343557, 3728343556, 3728343558, 3728343559, 3728343561, 3728343560, 3728343562, 3728343563, 1388651129, 1388651153], "tags": {"addr:city": "Z\u00fcrich", "addr:country": "CH", "addr:housenumber": "64a", "addr:postcode": "8002", "addr:street": "Bleicherweg", "building": "yes"}}, {"type": "way", "id": 124900872, "nodes": [3728343553, 1388651110, 1388651128, 1388651113, 1388651108, 1388651101, 3728343546, 3728343553], "tags": {"addr:city": "Z\u00fcrich", "addr:country": "CH", "addr:housenumber": "62", "addr:postcode": "8002", "addr:street": "Bleicherweg", "building": "commercial", "note": "Eigent\u00fcmer: AXA Versicherungen", "start_date": "1978"}}, {"type": "way", "id": 124900879, "nodes": [1388636738, 1388651167, 3728343584, 3728343570, 1388651156, 1388651149, 1388651131, 1388651147, 1388636738], "tags": {"addr:city": "Z\u00fcrich", "addr:country": "CH", "addr:housenumber": "47", "addr:postcode": "8002", "addr:street": "T\u00f6distrasse", "building": "yes"}}, {"type": "way", "id": 124900886, "nodes": [3728343532, 1388651100, 3728343528, 3728343527, 3728341422, 3728341419, 3728341418, 1388651098, 3728341420, 2809086437, 3728341421, 3728341424, 3728341423, 3728343531, 3728343532], "tags": {"building": "yes"}}, {"type": "way", "id": 327681317, "nodes": [3728343545, 3344853738, 3728343543, 3344853739, 3344853740, 3728343545], "tags": {"addr:city": "Z\u00fcrich", "addr:country": "CH", "addr:housenumber": "66", "addr:postcode": "8002", "addr:street": "Bleicherweg", "building": "yes"}}, {"type": "way", "id": 368996941, "nodes": [3728343545, 3344853738, 3728343542, 3728343540, 3728343533, 2809086441, 3728343536, 3728343534, 3728343537, 3728343541, 3728343544, 3728343545], "tags": {"building": "yes"}}, {"type": "way", "id": 368996943, "nodes": [3728343544, 2809086443, 3728343547, 1388651116, 3728343549, 3344853744, 3344853743, 3344853742, 3344853741, 3728343548, 3344853740, 3728343545, 3728343544], "tags": {"building": "yes"}}, {"type": "way", "id": 368996944, "nodes": [3728343540, 3728343539, 3728343532, 3728343531, 3728341423, 3728341424, 3728341421, 2809086439, 3728343526, 3728343525, 3728343529, 3728343530, 3728343533, 3728343540], "tags": {"building": "yes"}}, {"type": "way", "id": 368996949, "nodes": [3728343600, 1388636738, 1388651167, 1388636732, 3728343600], "tags": {"building": "yes"}}, {"type": "way", "id": 368996956, "nodes": [1388651100, 3728343535, 3728343538, 1388651105, 1388651099, 3728341422, 3728343527, 3728343528, 1388651100], "tags": {"building": "yes"}}]}