{"version": 0.6, "generator": "Overpass API 0.7.60.6 e2dc3e5b", "osm3s": {"timestamp_osm_base": "2023-06-29T13:48:35Z", "copyright": "The data included in this document is from www.openstreetmap.org. The data is made available under ODbL."}, "elements": [{"type": "node", "id": 656683827, "lat": 47.3744234, "lon": 8.543204}, {"type": "node", "id": 656683828, "lat": 47.3744154, "lon": 8.5433239}, {"type": "node", "id": 656683829, "lat": 47.3743965, "lon": 8.5434555}, {"type": "node", "id": 656683848, "lat": 47.3745318, "lon": 8.5432245}, {"type": "node", "id": 656683849, "lat": 47.3745138, "lon": 8.5433422}, {"type": "node", "id": 656683851, "lat": 47.3745235, "lon": 8.5435}, {"type": "node", "id": 656683852, "lat": 47.3747133, "lon": 8.5433719}, {"type": "node", "id": 656683853, "lat": 47.3747106, "lon": 8.5434378}, {"type": "node", "id": 656683854, "lat": 47.3746198, "lon": 8.5433652}, {"type": "node", "id": 656683856, "lat": 47.3746165, "lon": 8.5434338}, {"type": "node", "id": 656683857, "lat": 47.3747673, "lon": 8.5432734}, {"type": "node", "id": 656683858, "lat": 47.3747518, "lon": 8.5434939}, {"type": "node", "id": 656683865, "lat": 47.3747085, "lon": 8.5436394}, {"type": "node", "id": 656683866, "lat": 47.3746074, "lon": 8.5435637}, {"type": "node", "id": 656683867, "lat": 47.3746085, "lon": 8.5436366}, {"type": "node", "id": 656683870, "lat": 47.3748791, "lon": 8.5433174}, {"type": "node", "id": 656683871, "lat": 47.3748598, "lon": 8.5435063}, {"type": "node", "id": 660831176, "lat": 47.374595, "lon": 8.5433671}, {"type": "node", "id": 660831177, "lat": 47.3746036, "lon": 8.5432332}, {"type": "node", "id": 1964294407, "lat": 47.3745783, "lon": 8.5435047}, {"type": "node", "id": 1981710669, "lat": 47.3747598, "lon": 8.5433851, "tags": {"addr:city": "Z\u00fcrich", "addr:country": "CH", "addr:housenumber": "1", "addr:postcode": "8001", "addr:street": "Schmidgasse"}}, {"type": "node", "id": 1981710700, "lat": 47.3745123, "lon": 8.543365}, {"type": "node", "id": 1981710701, "lat": 47.3745212, "lon": 8.5433542}, {"type": "node", "id": 1981710703, "lat": 47.3745826, "lon": 8.5433833}, {"type": "node", "id": 2915894302, "lat": 47.3746733, "lon": 8.543253, "tags": {"addr:city": "Z\u00fcrich", "addr:country": "CH", "addr:housenumber": "100", "addr:postcode": "8001", "addr:street": "Limmatquai"}}, {"type": "node", "id": 2915894303, "lat": 47.3748231, "lon": 8.5432956, "tags": {"addr:city": "Z\u00fcrich", "addr:country": "CH", "addr:housenumber": "102", "addr:postcode": "8001", "addr:street": "Limmatquai"}}, {"type": "node", "id": 2915894304, "lat": 47.3747175, "lon": 8.5433137, "tags": {"addr:city": "Z\u00fcrich", "addr:country": "CH", "addr:housenumber": "2", "addr:postcode": "8001", "addr:street": "Schmidgasse"}}, {"type": "node", "id": 2915894309, "lat": 47.3744116, "lon": 8.5433235}, {"type": "node", "id": 2915894315, "lat": 47.3745218, "lon": 8.5433432}, {"type": "node", "id": 2915894316, "lat": 47.374525, "lon": 8.5434729}, {"type": "node", "id": 2915894320, "lat": 47.374625, "lon": 8.5432504}, {"type": "node", "id": 2915894321, "lat": 47.3746665, "lon": 8.5433664}, {"type": "node", "id": 2915894322, "lat": 47.3746705, "lon": 8.5433704}, {"type": "node", "id": 2915894323, "lat": 47.3747218, "lon": 8.5432554}, {"type": "node", "id": 2915894324, "lat": 47.3747973, "lon": 8.543503}, {"type": "node", "id": 2915894325, "lat": 47.374804, "lon": 8.5434962}, {"type": "way", "id": 51445380, "nodes": [656683848, 656683827, 656683828, 656683849, 2915894315, 656683848], "tags": {"addr:city": "Z\u00fcrich", "addr:country": "CH", "addr:housenumber": "96", "addr:postcode": "8001", "addr:street": "Limmatquai", "building": "yes", "source": "Stadt Z\u00fcrich Open Government Data; Geomatik + Vermessung; Tiefbau- und Entsorgungsdepartement"}}, {"type": "way", "id": 51445381, "nodes": [656683849, 1981710700, 1981710703, 1964294407, 656683851, 2915894316, 656683829, 2915894309, 656683828, 656683849], "tags": {"addr:city": "Z\u00fcrich", "addr:country": "CH", "addr:housenumber": "3", "addr:postcode": "8001", "addr:street": "M\u00fchlegasse", "building": "yes", "source": "Stadt Z\u00fcrich Open Government Data; Geomatik + Vermessung; Tiefbau- und Entsorgungsdepartement"}}, {"type": "way", "id": 51445398, "nodes": [656683871, 656683870, 2915894303, 656683857, 1981710669, 656683858, 2915894324, 2915894325, 656683871], "tags": {"addr:city": "Z\u00fcrich", "addr:country": "CH", "addr:postcode": "8001", "building": "yes", "source": "Stadt Z\u00fcrich Open Government Data; Geomatik + Vermessung; Tiefbau- und Entsorgungsdepartement"}}, {"type": "way", "id": 51445400, "nodes": [656683854, 2915894321, 2915894322, 656683852, 656683853, 656683856, 656683854], "tags": {"addr:city": "Z\u00fcrich", "addr:country": "CH", "addr:housenumber": "4", "addr:postcode": "8001", "addr:street": "Schmidgasse", "building": "yes", "source": "Stadt Z\u00fcrich Open Government Data; Geomatik + Vermessung; Tiefbau- und Entsorgungsdepartement"}}, {"type": "way", "id": 51445402, "nodes": [656683853, 656683865, 656683867, 656683866, 656683856, 656683853], "tags": {"addr:city": "Z\u00fcrich", "addr:country": "CH", "addr:housenumber": "6", "addr:postcode": "8001", "addr:street": "Schmidgasse", "building": "yes", "source": "Stadt Z\u00fcrich Open Government Data; Geomatik + Vermessung; Tiefbau- und Entsorgungsdepartement"}}, {"type": "way", "id": 51790999, "nodes": [2915894315, 656683848, 660831177, 660831176, 1981710701, 2915894315], "tags": {"addr:city": "Z\u00fcrich", "addr:country": "CH", "addr:housenumber": "98", "addr:postcode": "8001", "addr:street": "Limmatquai", "building": "yes", "source": "Stadt Z\u00fcrich Open Government Data; Geomatik + Vermessung; Tiefbau- und Entsorgungsdepartement"}}, {"type": "way", "id": 288041875, "nodes": [656683852, 2915894304, 2915894323, 2915894302, 2915894320, 656683854, 2915894321, 2915894322, 656683852], "tags": {"addr:city": "Z\u00fcrich", "addr:country": "CH", "addr:postcode": "8001", "building": "yes", "name": "L\u00e4mmli", "source": "Stadt Z\u00fcrich Open Government Data; Geomatik + Vermessung; Tiefbau- und Entsorgungsdepartement"}}]}