{"version": 0.6, "generator": "Overpass API 0.7.60.6 e2dc3e5b", "osm3s": {"timestamp_osm_base": "2023-06-29T15:19:02Z", "copyright": "The data included in this document is from www.openstreetmap.org. The data is made available under ODbL."}, "elements": [{"type": "node", "id": 268493470, "lat": 47.3709723, "lon": 8.5404994}, {"type": "node", "id": 268493485, "lat": 47.3711797, "lon": 8.5410276}, {"type": "node", "id": 268493490, "lat": 47.3711723, "lon": 8.5409707}, {"type": "node", "id": 268493491, "lat": 47.3712241, "lon": 8.5408948}, {"type": "node", "id": 268493492, "lat": 47.3711657, "lon": 8.5404448}, {"type": "node", "id": 1013992320, "lat": 47.3709701, "lon": 8.5407485}, {"type": "node", "id": 1013992325, "lat": 47.3709628, "lon": 8.5406919}, {"type": "node", "id": 1013992340, "lat": 47.3710034, "lon": 8.540739}, {"type": "node", "id": 1041996179, "lat": 47.3709546, "lon": 8.5405886}, {"type": "node", "id": 1041996182, "lat": 47.3707137, "lon": 8.5404154}, {"type": "node", "id": 1041996234, "lat": 47.3712215, "lon": 8.5406248}, {"type": "node", "id": 1041996237, "lat": 47.3708386, "lon": 8.5403089}, {"type": "node", "id": 1041996253, "lat": 47.3708845, "lon": 8.5412958}, {"type": "node", "id": 1041996274, "lat": 47.3709678, "lon": 8.5406905}, {"type": "node", "id": 1041996298, "lat": 47.3708567, "lon": 8.541084}, {"type": "node", "id": 1041996305, "lat": 47.3711902, "lon": 8.5406336}, {"type": "node", "id": 1041996317, "lat": 47.3709453, "lon": 8.5405351}, {"type": "node", "id": 1041996339, "lat": 47.3707614, "lon": 8.5412544}, {"type": "node", "id": 1041996357, "lat": 47.3706303, "lon": 8.5411882}, {"type": "node", "id": 1041996401, "lat": 47.3709112, "lon": 8.5411477}, {"type": "node", "id": 1041996417, "lat": 47.3711775, "lon": 8.5405355}, {"type": "node", "id": 1041996422, "lat": 47.3707639, "lon": 8.5408825}, {"type": "node", "id": 1041996438, "lat": 47.3707507, "lon": 8.5410472}, {"type": "node", "id": 1041996443, "lat": 47.3706982, "lon": 8.5412207}, {"type": "node", "id": 1041996449, "lat": 47.3709829, "lon": 8.5405806}, {"type": "node", "id": 1041996457, "lat": 47.3708665, "lon": 8.5408201}, {"type": "node", "id": 1041996465, "lat": 47.3707891, "lon": 8.5411082}, {"type": "node", "id": 1041996468, "lat": 47.370658, "lon": 8.541063}, {"type": "node", "id": 1041996470, "lat": 47.3711005, "lon": 8.5404632}, {"type": "node", "id": 1041996481, "lat": 47.3712088, "lon": 8.5405266}, {"type": "node", "id": 1041996508, "lat": 47.3707769, "lon": 8.5408017}, {"type": "node", "id": 1041996513, "lat": 47.3707237, "lon": 8.5410873}, {"type": "node", "id": 1042858309, "lat": 47.3702467, "lon": 8.5408059}, {"type": "node", "id": 1042858310, "lat": 47.3704713, "lon": 8.5408469}, {"type": "node", "id": 1042858315, "lat": 47.3704248, "lon": 8.5404863}, {"type": "node", "id": 1042858316, "lat": 47.370449, "lon": 8.540395}, {"type": "node", "id": 1042858320, "lat": 47.3705602, "lon": 8.5409545}, {"type": "node", "id": 1042858338, "lat": 47.3703905, "lon": 8.5410574}, {"type": "node", "id": 1042858345, "lat": 47.3703181, "lon": 8.5405909}, {"type": "node", "id": 1042858347, "lat": 47.3703995, "lon": 8.541178}, {"type": "node", "id": 1042858349, "lat": 47.3702012, "lon": 8.5406551}, {"type": "node", "id": 1042858353, "lat": 47.3705725, "lon": 8.5403458}, {"type": "node", "id": 1042858356, "lat": 47.3703185, "lon": 8.5407572}, {"type": "node", "id": 1042858358, "lat": 47.3702794, "lon": 8.5409163}, {"type": "node", "id": 1042858363, "lat": 47.3706245, "lon": 8.5407821}, {"type": "node", "id": 1042858365, "lat": 47.3706335, "lon": 8.541039}, {"type": "node", "id": 1042858379, "lat": 47.3705096, "lon": 8.540965}, {"type": "node", "id": 1042858384, "lat": 47.3705153, "lon": 8.5411612}, {"type": "node", "id": 1042858387, "lat": 47.3703886, "lon": 8.5410017}, {"type": "node", "id": 1042858390, "lat": 47.3705052, "lon": 8.5410305}, {"type": "node", "id": 1042858391, "lat": 47.3705065, "lon": 8.5408116}, {"type": "node", "id": 1042858402, "lat": 47.3704579, "lon": 8.5407063}, {"type": "node", "id": 1042858416, "lat": 47.3706274, "lon": 8.5409124}, {"type": "node", "id": 1042858420, "lat": 47.3703156, "lon": 8.5410431}, {"type": "node", "id": 1042858424, "lat": 47.3704845, "lon": 8.5409498}, {"type": "node", "id": 1042858432, "lat": 47.3705094, "lon": 8.5410707}, {"type": "node", "id": 1852219830, "lat": 47.370858, "lon": 8.5410485}, {"type": "node", "id": 1852219843, "lat": 47.3710957, "lon": 8.5410513}, {"type": "node", "id": 2454047087, "lat": 47.3710302, "lon": 8.5409461}, {"type": "node", "id": 2926962975, "lat": 47.3706508, "lon": 8.5407004}, {"type": "node", "id": 2926962976, "lat": 47.3706512, "lon": 8.5408264}, {"type": "node", "id": 2926962977, "lat": 47.3706539, "lon": 8.5405726}, {"type": "node", "id": 2926962978, "lat": 47.3706626, "lon": 8.5410328}, {"type": "node", "id": 2926962979, "lat": 47.3707303, "lon": 8.5405796}, {"type": "node", "id": 2926962980, "lat": 47.3707389, "lon": 8.5406553}, {"type": "node", "id": 2926962981, "lat": 47.3707538, "lon": 8.5409394}, {"type": "node", "id": 2926962982, "lat": 47.3707624, "lon": 8.5409388}, {"type": "node", "id": 2926962983, "lat": 47.3707718, "lon": 8.5408822}, {"type": "node", "id": 2926962984, "lat": 47.3707757, "lon": 8.5406605}, {"type": "node", "id": 2926962991, "lat": 47.370865, "lon": 8.5408605}, {"type": "node", "id": 2926962993, "lat": 47.3708866, "lon": 8.5404108}, {"type": "node", "id": 2926962999, "lat": 47.3708643, "lon": 8.5407257}, {"type": "node", "id": 2926967211, "lat": 47.3709961, "lon": 8.5406825}, {"type": "node", "id": 2926967216, "lat": 47.3711743, "lon": 8.5405109}, {"type": "node", "id": 2926967217, "lat": 47.371173, "lon": 8.5405007}, {"type": "node", "id": 2926967219, "lat": 47.3711901, "lon": 8.5409044}, {"type": "node", "id": 2926967220, "lat": 47.3711977, "lon": 8.5409635}, {"type": "node", "id": 2927334022, "lat": 47.3707295, "lon": 8.5412373, "tags": {"addr:city": "Z\u00fcrich", "addr:country": "CH", "addr:housenumber": "11", "addr:postcode": "8001", "addr:street": "Storchengasse"}}, {"type": "node", "id": 2927334024, "lat": 47.3708229, "lon": 8.5412751, "tags": {"addr:city": "Z\u00fcrich", "addr:country": "CH", "addr:housename": "Zum Thor", "addr:housenumber": "13", "addr:postcode": "8001", "addr:street": "Storchengasse"}}, {"type": "node", "id": 2927334026, "lat": 47.3706909, "lon": 8.5410751, "tags": {"addr:city": "Z\u00fcrich", "addr:country": "CH", "addr:housenumber": "2", "addr:postcode": "8001", "addr:street": "Schl\u00fcsselgasse"}}, {"type": "node", "id": 2927334030, "lat": 47.3707563, "lon": 8.5410972, "tags": {"addr:city": "Z\u00fcrich", "addr:country": "CH", "addr:housenumber": "4", "addr:postcode": "8001", "addr:street": "Schl\u00fcsselgasse"}}, {"type": "node", "id": 2927334033, "lat": 47.3708502, "lon": 8.5411279, "tags": {"addr:city": "Z\u00fcrich", "addr:country": "CH", "addr:housenumber": "6", "addr:postcode": "8001", "addr:street": "Schl\u00fcsselgasse"}}, {"type": "node", "id": 2927334035, "lat": 47.3706641, "lon": 8.5412046, "tags": {"addr:city": "Z\u00fcrich", "addr:country": "CH", "addr:housenumber": "9", "addr:postcode": "8001", "addr:street": "Storchengasse"}}, {"type": "node", "id": 2927334074, "lat": 47.3703263, "lon": 8.5405597}, {"type": "node", "id": 2927334075, "lat": 47.3703292, "lon": 8.5408829}, {"type": "node", "id": 2927334077, "lat": 47.3703312, "lon": 8.5408915}, {"type": "node", "id": 2927334081, "lat": 47.3703606, "lon": 8.5410146}, {"type": "node", "id": 2927334087, "lat": 47.3703922, "lon": 8.5410013}, {"type": "node", "id": 2927334088, "lat": 47.370391, "lon": 8.540978}, {"type": "node", "id": 2927334094, "lat": 47.3704344, "lon": 8.5406153}, {"type": "node", "id": 2927334095, "lat": 47.3704434, "lon": 8.54104}, {"type": "node", "id": 2927334096, "lat": 47.3704459, "lon": 8.5406097}, {"type": "node", "id": 2927334097, "lat": 47.3704412, "lon": 8.5406339}, {"type": "node", "id": 2927334098, "lat": 47.3704498, "lon": 8.5410378}, {"type": "node", "id": 2927334099, "lat": 47.3704553, "lon": 8.5411678}, {"type": "node", "id": 2927334100, "lat": 47.3704735, "lon": 8.5405076}, {"type": "node", "id": 2927334701, "lat": 47.3704778, "lon": 8.5406117}, {"type": "node", "id": 2927334702, "lat": 47.3704826, "lon": 8.5406112}, {"type": "node", "id": 2927334703, "lat": 47.370492, "lon": 8.5407325}, {"type": "node", "id": 2927334704, "lat": 47.3704911, "lon": 8.5409473}, {"type": "node", "id": 2927334705, "lat": 47.3704977, "lon": 8.5407296}, {"type": "node", "id": 2927334706, "lat": 47.3705044, "lon": 8.5410717}, {"type": "node", "id": 2927334707, "lat": 47.3705251, "lon": 8.5410653}, {"type": "node", "id": 2927334708, "lat": 47.3705522, "lon": 8.5408}, {"type": "node", "id": 2927334709, "lat": 47.3705536, "lon": 8.5407917}, {"type": "node", "id": 2927334710, "lat": 47.3705694, "lon": 8.541042}, {"type": "node", "id": 2927334711, "lat": 47.3705858, "lon": 8.541137}, {"type": "node", "id": 2927334712, "lat": 47.370589, "lon": 8.5404003}, {"type": "node", "id": 2927334713, "lat": 47.3707768, "lon": 8.5411582}, {"type": "node", "id": 2927334714, "lat": 47.3707806, "lon": 8.54116}, {"type": "node", "id": 2927394970, "lat": 47.3709297, "lon": 8.5412181}, {"type": "node", "id": 2927394974, "lat": 47.370949, "lon": 8.5411397}, {"type": "node", "id": 2927394975, "lat": 47.3709599, "lon": 8.5411388}, {"type": "node", "id": 2927394979, "lat": 47.3709864, "lon": 8.5412353}, {"type": "node", "id": 2927394980, "lat": 47.3709877, "lon": 8.5412308}, {"type": "node", "id": 2927394984, "lat": 47.3710072, "lon": 8.5412118}, {"type": "node", "id": 2927394986, "lat": 47.3710108, "lon": 8.5412353}, {"type": "node", "id": 2927394987, "lat": 47.3710124, "lon": 8.5412313}, {"type": "node", "id": 2927394988, "lat": 47.3710127, "lon": 8.5411227}, {"type": "node", "id": 2927394993, "lat": 47.3710282, "lon": 8.5412317}, {"type": "node", "id": 2927394995, "lat": 47.3710288, "lon": 8.5412122}, {"type": "node", "id": 2927395004, "lat": 47.3710804, "lon": 8.541097}, {"type": "node", "id": 2927395006, "lat": 47.3710875, "lon": 8.5412124}, {"type": "node", "id": 2927395008, "lat": 47.3710883, "lon": 8.5412532}, {"type": "node", "id": 2927395009, "lat": 47.3710928, "lon": 8.5412121}, {"type": "node", "id": 2927395017, "lat": 47.3711423, "lon": 8.5410806}, {"type": "node", "id": 2927395018, "lat": 47.3711429, "lon": 8.5412484}, {"type": "node", "id": 3881823378, "lat": 47.3708697, "lon": 8.5407239}, {"type": "node", "id": 3881823379, "lat": 47.371026, "lon": 8.5409132}, {"type": "node", "id": 3881823382, "lat": 47.3710197, "lon": 8.5408651}, {"type": "node", "id": 3881828004, "lat": 47.3712179, "lon": 8.5406258}, {"type": "node", "id": 3881828007, "lat": 47.371214, "lon": 8.5408169}, {"type": "node", "id": 3881828011, "lat": 47.3711934, "lon": 8.5406584, "tags": {"entrance": "main"}}, {"type": "node", "id": 3881828014, "lat": 47.3709998, "lon": 8.5407114, "tags": {"entrance": "yes"}}, {"type": "node", "id": 3881828015, "lat": 47.3710802, "lon": 8.540932}, {"type": "node", "id": 3881835214, "lat": 47.3711965, "lon": 8.5406819}, {"type": "node", "id": 3881835218, "lat": 47.3712173, "lon": 8.5408423, "tags": {"entrance": "yes"}}, {"type": "node", "id": 3881835220, "lat": 47.3712203, "lon": 8.5408656}, {"type": "node", "id": 3881835222, "lat": 47.371023, "lon": 8.5408898, "tags": {"entrance": "yes"}}, {"type": "node", "id": 3881835223, "lat": 47.3710058, "lon": 8.5409189}, {"type": "node", "id": 3881835224, "lat": 47.3709995, "lon": 8.5408708}, {"type": "node", "id": 3881835225, "lat": 47.3709665, "lon": 8.5407208}, {"type": "node", "id": 3881835226, "lat": 47.3710027, "lon": 8.5408955}, {"type": "node", "id": 4741926253, "lat": 47.3703124, "lon": 8.540579}, {"type": "node", "id": 4741926254, "lat": 47.3705938, "lon": 8.5404333}, {"type": "node", "id": 5419097718, "lat": 47.3703032, "lon": 8.5405602}, {"type": "node", "id": 6549508244, "lat": 47.3704286, "lon": 8.5405089}, {"type": "node", "id": 6549508250, "lat": 47.3703074, "lon": 8.5405577}, {"type": "node", "id": 6549508251, "lat": 47.3703863, "lon": 8.540517}, {"type": "node", "id": 6549508252, "lat": 47.3703773, "lon": 8.540521}, {"type": "node", "id": 6549508253, "lat": 47.3704392, "lon": 8.5406347}, {"type": "node", "id": 6549508254, "lat": 47.3703636, "lon": 8.5407416}, {"type": "node", "id": 6549508255, "lat": 47.3704145, "lon": 8.5408656}, {"type": "node", "id": 6549508256, "lat": 47.3704853, "lon": 8.5409566}, {"type": "node", "id": 6549508257, "lat": 47.3704149, "lon": 8.5411741}, {"type": "node", "id": 6549508258, "lat": 47.3705218, "lon": 8.5410456}, {"type": "node", "id": 6549508259, "lat": 47.3705741, "lon": 8.5410672}, {"type": "node", "id": 6549508260, "lat": 47.3704695, "lon": 8.5404876}, {"type": "node", "id": 6549508261, "lat": 47.3705107, "lon": 8.5408754}, {"type": "node", "id": 6549508263, "lat": 47.3704611, "lon": 8.5404456}, {"type": "node", "id": 6549508264, "lat": 47.3706148, "lon": 8.5406692}, {"type": "node", "id": 6549508265, "lat": 47.3706099, "lon": 8.5405853}, {"type": "way", "id": 24701951, "nodes": [268493470, 1041996449, 1041996179, 1041996274, 2926967211, 3881828014, 1013992340, 3881823382, 3881835222, 3881823379, 2454047087, 3881828015, 1852219843, 268493485, 268493490, 2926967220, 2926967219, 268493491, 3881835220, 3881835218, 3881828007, 3881835214, 3881828011, 1041996305, 3881828004, 1041996234, 1041996481, 1041996417, 2926967216, 2926967217, 268493492, 1041996470, 268493470], "tags": {"addr:city": "Z\u00fcrich", "addr:country": "CH", "addr:housenumber": "1", "addr:postcode": "8001", "addr:street": "St. Peterhofstatt", "amenity": "place_of_worship", "building": "church", "denomination": "protestant", "height": "64", "name": "St. Peter", "name:ko": "\uc131 \ud53c\ud130 \uad50\ud68c", "opening_hours": "Mo-Fr 08:00-18:00; Sa 10:00-16:00; Su 11:00-17:00", "religion": "christian", "service_times": "Su 10:00", "uzh_landmark": "true", "website": "https://www.st-peter-zh.ch/", "wheelchair": "limited", "wikidata": "Q690687", "wikipedia": "de:St. Peter (Z\u00fcrich)"}}, {"type": "way", "id": 89902494, "nodes": [1041996457, 2926962991, 1852219830, 1041996298, 1041996438, 2926962981, 2926962982, 1041996422, 2926962983, 1041996508, 1041996457], "tags": {"addr:city": "Z\u00fcrich", "addr:country": "CH", "addr:housenumber": "3", "addr:postcode": "8001", "addr:street": "Schl\u00fcsselgasse", "building": "yes", "name": "Zum hohen Brunnen", "source": "Stadt Z\u00fcrich Open Government Data; Geomatik + Vermessung; Tiefbau- und Entsorgungsdepartement"}}, {"type": "way", "id": 89902499, "nodes": [2926962999, 1041996182, 1041996237, 2926962993, 1041996317, 1041996179, 1041996274, 1013992325, 3881823378, 2926962999], "tags": {"addr:city": "Z\u00fcrich", "addr:country": "CH", "addr:housenumber": "10", "addr:postcode": "8001", "addr:street": "In Gassen", "building": "construction", "owner": "ZFV-Unternehmungen", "source": "Stadt Z\u00fcrich Open Government Data; Geomatik + Vermessung; Tiefbau- und Entsorgungsdepartement"}}, {"type": "way", "id": 89902511, "nodes": [1041996339, 2927334022, 1041996443, 1041996513, 2927334030, 1041996465, 2927334713, 2927334714, 1041996339], "tags": {"addr:city": "Z\u00fcrich", "addr:country": "CH", "addr:postcode": "8001", "building": "yes", "source": "Stadt Z\u00fcrich Open Government Data; Geomatik + Vermessung; Tiefbau- und Entsorgungsdepartement"}}, {"type": "way", "id": 89902515, "nodes": [1041996443, 2927334035, 1041996357, 1041996468, 2927334026, 1041996513, 1041996443], "tags": {"addr:city": "Z\u00fcrich", "addr:country": "CH", "addr:postcode": "8001", "building": "yes", "source": "Stadt Z\u00fcrich Open Government Data; Geomatik + Vermessung; Tiefbau- und Entsorgungsdepartement"}}, {"type": "way", "id": 89902521, "nodes": [1041996401, 1041996253, 2927334024, 1041996339, 2927334714, 2927334713, 1041996465, 2927334033, 1041996401], "tags": {"addr:city": "Z\u00fcrich", "addr:country": "CH", "addr:postcode": "8001", "building": "yes", "source": "Stadt Z\u00fcrich Open Government Data; Geomatik + Vermessung; Tiefbau- und Entsorgungsdepartement"}}, {"type": "way", "id": 89967865, "nodes": [1042858358, 1042858309, 1042858356, 6549508254, 1042858402, 1042858310, 6549508255, 2927334077, 2927334075, 1042858358], "tags": {"addr:city": "Z\u00fcrich", "addr:country": "CH", "addr:housenumber": "13", "addr:postcode": "8001", "addr:street": "M\u00fcnsterhof", "building": "yes", "building:levels": "5", "roof:levels": "1", "source": "Stadt Z\u00fcrich Open Government Data; Geomatik + Vermessung; Tiefbau- und Entsorgungsdepartement"}}, {"type": "way", "id": 89967868, "nodes": [1042858363, 1042858416, 1042858365, 2927334710, 1042858320, 1042858379, 6549508261, 1042858391, 2927334708, 2927334709, 1042858363], "tags": {"addr:city": "Z\u00fcrich", "addr:country": "CH", "addr:housenumber": "7", "addr:postcode": "8001", "addr:street": "Storchengasse", "building": "yes", "name": "Zum roten Mann", "source": "Stadt Z\u00fcrich Open Government Data; Geomatik + Vermessung; Tiefbau- und Entsorgungsdepartement"}}, {"type": "way", "id": 89967879, "nodes": [2927334095, 2927334098, 1042858390, 1042858432, 2927334706, 1042858384, 2927334099, 2927334095], "tags": {"addr:city": "Z\u00fcrich", "addr:country": "CH", "addr:housenumber": "3", "addr:postcode": "8001", "addr:street": "Storchengasse", "building": "yes", "source": "Stadt Z\u00fcrich Open Government Data; Geomatik + Vermessung; Tiefbau- und Entsorgungsdepartement"}}, {"type": "way", "id": 89967881, "nodes": [1042858353, 2927334712, 4741926254, 6549508265, 6549508264, 1042858363, 2927334709, 2927334708, 1042858391, 2927334705, 2927334703, 2927334701, 2927334702, 2927334100, 6549508260, 6549508263, 1042858316, 1042858353], "tags": {"addr:city": "Z\u00fcrich", "addr:country": "CH", "addr:housenumber": "5", "addr:postcode": "8001", "addr:street": "In Gassen", "building": "yes", "source": "Stadt Z\u00fcrich Open Government Data; Geomatik + Vermessung; Tiefbau- und Entsorgungsdepartement"}}, {"type": "way", "id": 89967884, "nodes": [1042858315, 6549508251, 6549508252, 2927334074, 6549508250, 5419097718, 4741926253, 1042858345, 1042858349, 1042858309, 1042858356, 6549508254, 1042858402, 2927334097, 6549508253, 2927334094, 2927334096, 6549508244, 1042858315], "tags": {"addr:city": "Z\u00fcrich", "addr:country": "CH", "addr:housenumber": "12", "addr:postcode": "8001", "addr:street": "M\u00fcnsterhof", "building": "yes", "building:levels": "4", "source": "Stadt Z\u00fcrich Open Government Data; Geomatik + Vermessung; Tiefbau- und Entsorgungsdepartement"}}, {"type": "way", "id": 89967885, "nodes": [1042858390, 2927334704, 1042858424, 6549508256, 2927334088, 2927334087, 1042858387, 1042858338, 2927334095, 2927334098, 1042858390], "tags": {"addr:city": "Z\u00fcrich", "addr:country": "CH", "addr:housenumber": "15", "addr:postcode": "8001", "addr:street": "M\u00fcnsterhof", "building": "yes", "building:levels": "6", "source": "Stadt Z\u00fcrich Open Government Data; Geomatik + Vermessung; Tiefbau- und Entsorgungsdepartement"}}, {"type": "way", "id": 89967893, "nodes": [1042858424, 1042858310, 6549508255, 2927334077, 2927334075, 1042858358, 1042858420, 2927334081, 1042858387, 2927334087, 2927334088, 6549508256, 1042858424], "tags": {"addr:city": "Z\u00fcrich", "addr:country": "CH", "addr:housenumber": "14", "addr:postcode": "8001", "addr:street": "M\u00fcnsterhof", "building": "yes", "building:levels": "6", "source": "Stadt Z\u00fcrich Open Government Data; Geomatik + Vermessung; Tiefbau- und Entsorgungsdepartement"}}, {"type": "way", "id": 289141921, "nodes": [2926962979, 2926962977, 2926962975, 2926962976, 2926962978, 1041996438, 2926962981, 2926962982, 1041996422, 2926962983, 1041996508, 2926962984, 2926962980, 2926962979], "tags": {"addr:city": "Z\u00fcrich", "addr:country": "CH", "addr:housenumber": "6", "addr:postcode": "8001", "addr:street": "In Gassen", "building": "yes", "source": "Stadt Z\u00fcrich Open Government Data; Geomatik + Vermessung; Tiefbau- und Entsorgungsdepartement"}}, {"type": "way", "id": 289180411, "nodes": [2927334095, 2927334099, 6549508257, 1042858347, 1042858338, 2927334095], "tags": {"addr:city": "Z\u00fcrich", "addr:country": "CH", "addr:housenumber": "16", "addr:postcode": "8001", "addr:street": "M\u00fcnsterhof", "building": "yes", "building:levels": "6", "source": "Stadt Z\u00fcrich Open Government Data; Geomatik + Vermessung; Tiefbau- und Entsorgungsdepartement"}}, {"type": "way", "id": 289180414, "nodes": [2927334710, 6549508259, 2927334711, 1042858384, 2927334706, 1042858432, 2927334707, 6549508258, 1042858379, 1042858320, 2927334710], "tags": {"addr:city": "Z\u00fcrich", "addr:country": "CH", "addr:housenumber": "5", "addr:postcode": "8001", "addr:street": "Storchengasse", "building": "yes", "name": "Zur Tanne", "source": "Stadt Z\u00fcrich Open Government Data; Geomatik + Vermessung; Tiefbau- und Entsorgungsdepartement"}}, {"type": "way", "id": 289187685, "nodes": [2927395004, 2927394988, 2927394984, 2927394995, 2927395006, 2927395009, 2927395004], "tags": {"addr:city": "Z\u00fcrich", "addr:country": "CH", "addr:housenumber": "10", "addr:postcode": "8001", "addr:street": "Schl\u00fcsselgasse", "building": "apartments", "source": "Stadt Z\u00fcrich Open Government Data; Geomatik + Vermessung; Tiefbau- und Entsorgungsdepartement"}}, {"type": "way", "id": 289187686, "nodes": [2927395017, 2927395004, 2927395009, 2927395006, 2927395008, 2927395018, 2927395017], "tags": {"addr:city": "Z\u00fcrich", "addr:country": "CH", "addr:housenumber": "12", "addr:postcode": "8001", "addr:street": "Schl\u00fcsselgasse", "building": "yes", "source": "Stadt Z\u00fcrich Open Government Data; Geomatik + Vermessung; Tiefbau- und Entsorgungsdepartement"}}, {"type": "way", "id": 289187701, "nodes": [2927394988, 2927394975, 2927394974, 2927394970, 2927394979, 2927394980, 2927394986, 2927394987, 2927394993, 2927394995, 2927394984, 2927394988], "tags": {"addr:city": "Z\u00fcrich", "addr:country": "CH", "addr:housenumber": "8", "addr:postcode": "8001", "addr:street": "Schl\u00fcsselgasse", "building": "yes", "source": "Stadt Z\u00fcrich Open Government Data; Geomatik + Vermessung; Tiefbau- und Entsorgungsdepartement"}}, {"type": "way", "id": 384827865, "nodes": [2926967211, 3881828014, 1013992340, 1013992320, 3881835225, 1013992325, 1041996274, 2926967211], "tags": {"building": "roof", "height": "5"}}, {"type": "way", "id": 384827866, "nodes": [3881823379, 3881835223, 3881835226, 3881835224, 3881823382, 3881835222, 3881823379], "tags": {"building": "roof", "height": "5"}}]}