{"version": 0.6, "generator": "Overpass API 0.7.60.6 e2dc3e5b", "osm3s": {"timestamp_osm_base": "2023-06-29T15:19:02Z", "copyright": "The data included in this document is from www.openstreetmap.org. The data is made available under ODbL."}, "elements": [{"type": "node", "id": 387219695, "lat": 47.3696427, "lon": 8.5441879}, {"type": "node", "id": 633678237, "lat": 47.3693583, "lon": 8.5439341, "tags": {"addr:city": "Z\u00fcrich", "addr:country": "CH", "addr:housenumber": "1", "addr:postcode": "8001", "addr:street": "Kirchgasse"}}, {"type": "node", "id": 633678238, "lat": 47.3693492, "lon": 8.5437944, "tags": {"addr:city": "Z\u00fcrich", "addr:country": "CH", "addr:housenumber": "20", "addr:postcode": "8001", "addr:street": "Limmatquai"}}, {"type": "node", "id": 1031582158, "lat": 47.3696019, "lon": 8.5437693}, {"type": "node", "id": 1031582191, "lat": 47.3695023, "lon": 8.544211}, {"type": "node", "id": 1031582230, "lat": 47.3691577, "lon": 8.5438979}, {"type": "node", "id": 1031582243, "lat": 47.3694545, "lon": 8.5438833}, {"type": "node", "id": 1031582453, "lat": 47.3695146, "lon": 8.5438353}, {"type": "node", "id": 1031582459, "lat": 47.3691741, "lon": 8.5442344}, {"type": "node", "id": 1031582510, "lat": 47.3692233, "lon": 8.5437903}, {"type": "node", "id": 1031582567, "lat": 47.3696444, "lon": 8.543864}, {"type": "node", "id": 1031582598, "lat": 47.3691477, "lon": 8.543879}, {"type": "node", "id": 1031582660, "lat": 47.3696206, "lon": 8.5437544}, {"type": "node", "id": 1031582697, "lat": 47.3694643, "lon": 8.5437106}, {"type": "node", "id": 1031582717, "lat": 47.3691793, "lon": 8.5439397}, {"type": "node", "id": 1031582753, "lat": 47.3690952, "lon": 8.544092}, {"type": "node", "id": 1031582767, "lat": 47.3695184, "lon": 8.5436767}, {"type": "node", "id": 1031582842, "lat": 47.3689321, "lon": 8.5438395}, {"type": "node", "id": 1031583000, "lat": 47.3693959, "lon": 8.5441187}, {"type": "node", "id": 1031583119, "lat": 47.3696372, "lon": 8.5436053}, {"type": "node", "id": 1031583153, "lat": 47.3695348, "lon": 8.5439845}, {"type": "node", "id": 1031583221, "lat": 47.3690533, "lon": 8.5437047}, {"type": "node", "id": 1031583227, "lat": 47.3692689, "lon": 8.5441309}, {"type": "node", "id": 1031583245, "lat": 47.3696404, "lon": 8.5438142}, {"type": "node", "id": 1031583279, "lat": 47.3691369, "lon": 8.5436111}, {"type": "node", "id": 1031583300, "lat": 47.3693038, "lon": 8.5438362}, {"type": "node", "id": 1031583326, "lat": 47.3695583, "lon": 8.543801}, {"type": "node", "id": 1031583354, "lat": 47.3695754, "lon": 8.5441206}, {"type": "node", "id": 1031583389, "lat": 47.3690417, "lon": 8.5440361}, {"type": "node", "id": 1031583403, "lat": 47.3693745, "lon": 8.5439643}, {"type": "node", "id": 1031583440, "lat": 47.3691938, "lon": 8.5439675}, {"type": "node", "id": 1031583531, "lat": 47.3693253, "lon": 8.5441993}, {"type": "node", "id": 1031583586, "lat": 47.3694474, "lon": 8.5438208}, {"type": "node", "id": 1031583622, "lat": 47.3692531, "lon": 8.5438464}, {"type": "node", "id": 1031583638, "lat": 47.3696822, "lon": 8.5437823}, {"type": "node", "id": 1031583726, "lat": 47.3693928, "lon": 8.5437542}, {"type": "node", "id": 1970612911, "lat": 47.3691906, "lon": 8.5439808}, {"type": "node", "id": 1970612927, "lat": 47.3692641, "lon": 8.5440912}, {"type": "node", "id": 1970612933, "lat": 47.3694759, "lon": 8.5437906}, {"type": "node", "id": 1970612935, "lat": 47.3695024, "lon": 8.5438473}, {"type": "node", "id": 1970612940, "lat": 47.3695868, "lon": 8.5441351}, {"type": "node", "id": 2862727032, "lat": 47.369462, "lon": 8.5438049, "tags": {"addr:city": "Z\u00fcrich", "addr:country": "CH", "addr:housenumber": "22", "addr:postcode": "8001", "addr:street": "Limmatquai"}}, {"type": "node", "id": 2862727036, "lat": 47.3696297, "lon": 8.5439621, "tags": {"addr:city": "Z\u00fcrich", "addr:country": "CH", "addr:housenumber": "5", "addr:postcode": "8001", "addr:street": "Laternengasse"}}, {"type": "node", "id": 2862727038, "lat": 47.3696992, "lon": 8.5441064, "tags": {"addr:city": "Z\u00fcrich", "addr:country": "CH", "addr:housenumber": "7", "addr:postcode": "8001", "addr:street": "Grossm\u00fcnsterplatz"}}, {"type": "node", "id": 2862727094, "lat": 47.3693381, "lon": 8.5440062}, {"type": "node", "id": 2862728731, "lat": 47.3695819, "lon": 8.5440225}, {"type": "node", "id": 2862728732, "lat": 47.3695994, "lon": 8.5441553}, {"type": "node", "id": 2862728736, "lat": 47.3696114, "lon": 8.5441392}, {"type": "node", "id": 2862728737, "lat": 47.3696117, "lon": 8.5440734}, {"type": "node", "id": 2862728745, "lat": 47.3696748, "lon": 8.5439043}, {"type": "node", "id": 2862728761, "lat": 47.3697558, "lon": 8.5440262}, {"type": "node", "id": 5892954691, "lat": 47.3694728, "lon": 8.5437316, "tags": {"entrance": "yes"}}, {"type": "way", "id": 88876976, "nodes": [1031583221, 1031582842, 1031583389, 1031582230, 1031582598, 1031583221], "tags": {"addr:city": "Z\u00fcrich", "addr:country": "CH", "addr:housenumber": "16", "addr:postcode": "8001", "addr:street": "Limmatquai", "building": "retail", "source": "Stadt Z\u00fcrich Open Government Data;Geomatik + Vermessung;Tiefbau- und Entsorgungsdepartement"}}, {"type": "way", "id": 88876988, "nodes": [2862727094, 1970612927, 1031583440, 1031582717, 1031582230, 1031582598, 1031582510, 1031583622, 2862727094], "tags": {"addr:city": "Z\u00fcrich", "addr:country": "CH", "addr:housenumber": "32", "addr:postcode": "8001", "addr:street": "Schiffl\u00e4nde", "building": "yes", "source": "Stadt Z\u00fcrich Open Government Data; Geomatik + Vermessung; Tiefbau- und Entsorgungsdepartement"}}, {"type": "way", "id": 88877001, "nodes": [1031582767, 1031582697, 5892954691, 1031582453, 1031583326, 1031582767], "tags": {"addr:city": "Z\u00fcrich", "addr:country": "CH", "addr:housenumber": "24", "addr:postcode": "8001", "addr:street": "Limmatquai", "building": "apartments", "source": "Stadt Z\u00fcrich Open Government Data; Geomatik + Vermessung; Tiefbau- und Entsorgungsdepartement"}}, {"type": "way", "id": 88877009, "nodes": [1031582191, 1031583403, 1031582243, 1031583354, 1031582191], "tags": {"addr:city": "Z\u00fcrich", "addr:country": "CH", "addr:housenumber": "3", "addr:postcode": "8001", "addr:street": "Kirchgasse", "building": "yes", "source": "Stadt Z\u00fcrich Open Government Data; Geomatik + Vermessung; Tiefbau- und Entsorgungsdepartement"}}, {"type": "way", "id": 88877031, "nodes": [1970612911, 1031582753, 1031582459, 1031583227, 1970612911], "tags": {"addr:city": "Z\u00fcrich", "addr:country": "CH", "addr:housenumber": "30", "addr:postcode": "8001", "addr:street": "Schiffl\u00e4nde", "building": "yes", "source": "Stadt Z\u00fcrich Open Government Data; Geomatik + Vermessung; Tiefbau- und Entsorgungsdepartement"}}, {"type": "way", "id": 88877034, "nodes": [1031583119, 1031582767, 1031583326, 1031582158, 1031582660, 1031583245, 1031583638, 1031583119], "tags": {"addr:city": "Z\u00fcrich", "addr:country": "CH", "addr:housenumber": "26", "addr:postcode": "8001", "addr:street": "Limmatquai", "building": "apartments", "source": "Stadt Z\u00fcrich Open Government Data; Geomatik + Vermessung; Tiefbau- und Entsorgungsdepartement"}}, {"type": "way", "id": 88877041, "nodes": [1031583221, 1031583279, 1031582510, 1031582598, 1031583221], "tags": {"addr:city": "Z\u00fcrich", "addr:country": "CH", "addr:housenumber": "18", "addr:postcode": "8001", "addr:street": "Limmatquai", "building": "retail", "source": "Stadt Z\u00fcrich Open Government Data; Geomatik + Vermessung; Tiefbau- und Entsorgungsdepartement"}}, {"type": "way", "id": 88877167, "nodes": [1031582158, 1031582567, 1031583153, 1031583586, 2862727032, 1970612933, 1970612935, 1031582453, 1031583326, 1031582158], "tags": {"addr:city": "Z\u00fcrich", "addr:country": "CH", "addr:postcode": "8001", "building": "yes", "source": "Stadt Z\u00fcrich Open Government Data; Geomatik + Vermessung; Tiefbau- und Entsorgungsdepartement"}}, {"type": "way", "id": 88877178, "nodes": [1031583403, 633678237, 1031583300, 633678238, 1031583726, 1031582243, 1031583403], "tags": {"addr:city": "Z\u00fcrich", "addr:country": "CH", "addr:postcode": "8001", "building": "yes", "source": "Stadt Z\u00fcrich Open Government Data; Geomatik + Vermessung; Tiefbau- und Entsorgungsdepartement"}}, {"type": "way", "id": 282345881, "nodes": [2862728745, 2862727036, 2862728731, 2862728737, 1970612940, 2862728732, 2862728736, 387219695, 2862727038, 2862728761, 2862728745], "tags": {"addr:city": "Z\u00fcrich", "addr:country": "CH", "addr:postcode": "8001", "building": "yes", "source": "Stadt Z\u00fcrich Open Government Data; Geomatik + Vermessung; Tiefbau- und Entsorgungsdepartement"}}, {"type": "way", "id": 282345894, "nodes": [2862727094, 1031583000, 1031583531, 1970612927, 2862727094], "tags": {"addr:city": "Z\u00fcrich", "addr:country": "CH", "addr:housenumber": "4", "addr:postcode": "8001", "addr:street": "Kirchgasse", "building": "yes", "source": "Stadt Z\u00fcrich Open Government Data; Geomatik + Vermessung; Tiefbau- und Entsorgungsdepartement"}}]}