{"version": 0.6, "generator": "Overpass API 0.7.60.6 e2dc3e5b", "osm3s": {"timestamp_osm_base": "2023-06-29T15:26:06Z", "copyright": "The data included in this document is from www.openstreetmap.org. The data is made available under ODbL."}, "elements": [{"type": "node", "id": 28137444, "lat": 47.3764183, "lon": 8.5265679}, {"type": "node", "id": 28137445, "lat": 47.3760988, "lon": 8.5274175}, {"type": "node", "id": 312531630, "lat": 47.3751475, "lon": 8.5274644}, {"type": "node", "id": 312531632, "lat": 47.3758132, "lon": 8.5273848}, {"type": "node", "id": 312531634, "lat": 47.3755733, "lon": 8.52701}, {"type": "node", "id": 318206585, "lat": 47.376215, "lon": 8.5271634}, {"type": "node", "id": 318207327, "lat": 47.3763382, "lon": 8.527276}, {"type": "node", "id": 318207333, "lat": 47.3762188, "lon": 8.5275371}, {"type": "node", "id": 480426244, "lat": 47.376888, "lon": 8.5277837}, {"type": "node", "id": 480426247, "lat": 47.3767001, "lon": 8.5283585}, {"type": "node", "id": 480426249, "lat": 47.3771194, "lon": 8.5263117}, {"type": "node", "id": 480426250, "lat": 47.3770744, "lon": 8.5265848}, {"type": "node", "id": 480426252, "lat": 47.3763431, "lon": 8.5263876}, {"type": "node", "id": 480426254, "lat": 47.3765089, "lon": 8.5258712}, {"type": "node", "id": 702999086, "lat": 47.3753516, "lon": 8.5264622}, {"type": "node", "id": 702999087, "lat": 47.375404, "lon": 8.5262997}, {"type": "node", "id": 702999090, "lat": 47.3755879, "lon": 8.5266286}, {"type": "node", "id": 702999091, "lat": 47.3756404, "lon": 8.5264661}, {"type": "node", "id": 768439915, "lat": 47.3760403, "lon": 8.5281086}, {"type": "node", "id": 768439918, "lat": 47.3758848, "lon": 8.5283805}, {"type": "node", "id": 768439921, "lat": 47.3757832, "lon": 8.5282538}, {"type": "node", "id": 768439923, "lat": 47.3759388, "lon": 8.5279819}, {"type": "node", "id": 768440303, "lat": 47.3782122, "lon": 8.5282232}, {"type": "node", "id": 768440308, "lat": 47.3780415, "lon": 8.5280402}, {"type": "node", "id": 768440314, "lat": 47.3781038, "lon": 8.5278595}, {"type": "node", "id": 768440320, "lat": 47.3781573, "lon": 8.5279169}, {"type": "node", "id": 768440348, "lat": 47.377413, "lon": 8.528104}, {"type": "node", "id": 768440353, "lat": 47.3772509, "lon": 8.5284121}, {"type": "node", "id": 768440357, "lat": 47.3771848, "lon": 8.5283374}, {"type": "node", "id": 768440364, "lat": 47.3773458, "lon": 8.5280279}, {"type": "node", "id": 850608016, "lat": 47.37593, "lon": 8.5275496}, {"type": "node", "id": 850608081, "lat": 47.3755314, "lon": 8.5284297}, {"type": "node", "id": 850608085, "lat": 47.3758739, "lon": 8.5287826}, {"type": "node", "id": 850608104, "lat": 47.375413, "lon": 8.5284017}, {"type": "node", "id": 850608174, "lat": 47.3762192, "lon": 8.5279858}, {"type": "node", "id": 850608176, "lat": 47.3759128, "lon": 8.5277469}, {"type": "node", "id": 850608183, "lat": 47.3760897, "lon": 8.5280202}, {"type": "node", "id": 850608202, "lat": 47.3757534, "lon": 8.5289349}, {"type": "node", "id": 850608263, "lat": 47.3758033, "lon": 8.5286609}, {"type": "node", "id": 850608271, "lat": 47.3761677, "lon": 8.5279051}, {"type": "node", "id": 850608293, "lat": 47.37581, "lon": 8.5288611}, {"type": "node", "id": 869460727, "lat": 47.3779597, "lon": 8.5283852}, {"type": "node", "id": 869460738, "lat": 47.3776243, "lon": 8.5280213}, {"type": "node", "id": 869460742, "lat": 47.3777447, "lon": 8.5270333}, {"type": "node", "id": 869460796, "lat": 47.3779244, "lon": 8.5264693}, {"type": "node", "id": 869460804, "lat": 47.3782657, "lon": 8.5262952}, {"type": "node", "id": 869460816, "lat": 47.3774952, "lon": 8.5281013}, {"type": "node", "id": 869460818, "lat": 47.3783239, "lon": 8.5259233, "tags": {"addr:city": "Z\u00fcrich", "addr:country": "CH", "addr:housenumber": "51", "addr:postcode": "8004", "addr:street": "Brauerstrasse"}}, {"type": "node", "id": 869460827, "lat": 47.3776524, "lon": 8.5258685}, {"type": "node", "id": 869460846, "lat": 47.3773476, "lon": 8.5277582}, {"type": "node", "id": 869460857, "lat": 47.3775583, "lon": 8.5265589}, {"type": "node", "id": 869460863, "lat": 47.377877, "lon": 8.5267441}, {"type": "node", "id": 869460879, "lat": 47.3779007, "lon": 8.5272614}, {"type": "node", "id": 869460890, "lat": 47.377713, "lon": 8.5257205}, {"type": "node", "id": 869460896, "lat": 47.3784071, "lon": 8.5267193}, {"type": "node", "id": 869460913, "lat": 47.3784822, "lon": 8.5265313}, {"type": "node", "id": 869460915, "lat": 47.3774608, "lon": 8.5278384}, {"type": "node", "id": 869460929, "lat": 47.3779015, "lon": 8.5253101}, {"type": "node", "id": 869460931, "lat": 47.3778368, "lon": 8.5260231}, {"type": "node", "id": 869460950, "lat": 47.3769342, "lon": 8.5281862}, {"type": "node", "id": 869460959, "lat": 47.3776264, "lon": 8.5268981}, {"type": "node", "id": 869460962, "lat": 47.3773928, "lon": 8.5268204}, {"type": "node", "id": 869460975, "lat": 47.3780031, "lon": 8.5270558}, {"type": "node", "id": 869461003, "lat": 47.3775894, "lon": 8.5275924}, {"type": "node", "id": 869461022, "lat": 47.3779732, "lon": 8.5263666}, {"type": "node", "id": 869461044, "lat": 47.3775495, "lon": 8.5281635}, {"type": "node", "id": 869461048, "lat": 47.3772991, "lon": 8.5268682}, {"type": "node", "id": 869461052, "lat": 47.377518, "lon": 8.5267164}, {"type": "node", "id": 869461066, "lat": 47.3775321, "lon": 8.5279213}, {"type": "node", "id": 869461087, "lat": 47.3775306, "lon": 8.5266731}, {"type": "node", "id": 869461107, "lat": 47.3770637, "lon": 8.5283314}, {"type": "node", "id": 869461109, "lat": 47.3782056, "lon": 8.5261491}, {"type": "node", "id": 869461122, "lat": 47.3785906, "lon": 8.5266515}, {"type": "node", "id": 869461124, "lat": 47.3773964, "lon": 8.5279593}, {"type": "node", "id": 869461142, "lat": 47.3778248, "lon": 8.5254333}, {"type": "node", "id": 869461147, "lat": 47.3776729, "lon": 8.5268093}, {"type": "node", "id": 869461154, "lat": 47.3781406, "lon": 8.5262851}, {"type": "node", "id": 869461157, "lat": 47.3780075, "lon": 8.5268143}, {"type": "node", "id": 869461161, "lat": 47.3776589, "lon": 8.5276716}, {"type": "node", "id": 869461167, "lat": 47.3768836, "lon": 8.5285082}, {"type": "node", "id": 869461173, "lat": 47.3773952, "lon": 8.5273443}, {"type": "node", "id": 869461179, "lat": 47.377308, "lon": 8.5267313}, {"type": "node", "id": 869461234, "lat": 47.3775162, "lon": 8.5277325}, {"type": "node", "id": 869461242, "lat": 47.3770482, "lon": 8.5274663}, {"type": "node", "id": 869461259, "lat": 47.3779442, "lon": 8.5263364}, {"type": "node", "id": 869461272, "lat": 47.3778102, "lon": 8.5271539}, {"type": "node", "id": 869461288, "lat": 47.3771076, "lon": 8.5273507}, {"type": "node", "id": 869461294, "lat": 47.3774403, "lon": 8.5268743}, {"type": "node", "id": 869461296, "lat": 47.378346, "lon": 8.5263839}, {"type": "node", "id": 869461311, "lat": 47.3779571, "lon": 8.5281425}, {"type": "node", "id": 869461312, "lat": 47.3776917, "lon": 8.5267728}, {"type": "node", "id": 869461321, "lat": 47.3781847, "lon": 8.5269185}, {"type": "node", "id": 869461338, "lat": 47.3779203, "lon": 8.5269544}, {"type": "node", "id": 869461341, "lat": 47.3784445, "lon": 8.5269027}, {"type": "node", "id": 869461342, "lat": 47.3774676, "lon": 8.5280421}, {"type": "node", "id": 869461345, "lat": 47.3778333, "lon": 8.527126}, {"type": "node", "id": 869461352, "lat": 47.3783673, "lon": 8.5258389, "tags": {"addr:city": "Z\u00fcrich", "addr:country": "CH", "addr:housenumber": "55", "addr:postcode": "8004", "addr:street": "Brauerstrasse"}}, {"type": "node", "id": 869461358, "lat": 47.3779439, "lon": 8.5266118}, {"type": "node", "id": 869461366, "lat": 47.3772928, "lon": 8.5272311}, {"type": "node", "id": 869461367, "lat": 47.377444, "lon": 8.5264894}, {"type": "node", "id": 869461394, "lat": 47.3775871, "lon": 8.5278133}, {"type": "node", "id": 869461401, "lat": 47.3780371, "lon": 8.528229}, {"type": "node", "id": 869461402, "lat": 47.3777238, "lon": 8.5266557}, {"type": "node", "id": 869461422, "lat": 47.3777452, "lon": 8.5272883}, {"type": "node", "id": 869461429, "lat": 47.377385, "lon": 8.5276571}, {"type": "node", "id": 869461430, "lat": 47.3772883, "lon": 8.5259994}, {"type": "node", "id": 869461431, "lat": 47.3774992, "lon": 8.5269374}, {"type": "node", "id": 869461450, "lat": 47.3778797, "lon": 8.5282987}, {"type": "node", "id": 869461454, "lat": 47.3783975, "lon": 8.5257474}, {"type": "node", "id": 869461482, "lat": 47.3775255, "lon": 8.5265367}, {"type": "node", "id": 869461496, "lat": 47.3776141, "lon": 8.5262435}, {"type": "node", "id": 869461507, "lat": 47.3780796, "lon": 8.5266491}, {"type": "node", "id": 869461513, "lat": 47.3779192, "lon": 8.5272227}, {"type": "node", "id": 869461521, "lat": 47.3775701, "lon": 8.5279591}, {"type": "node", "id": 869461534, "lat": 47.3774818, "lon": 8.5262923}, {"type": "node", "id": 869461543, "lat": 47.3781374, "lon": 8.5270429}, {"type": "node", "id": 869461599, "lat": 47.3777968, "lon": 8.5255104}, {"type": "node", "id": 869461601, "lat": 47.377415, "lon": 8.5269992}, {"type": "node", "id": 869461606, "lat": 47.3775768, "lon": 8.5267796}, {"type": "node", "id": 869461610, "lat": 47.3782546, "lon": 8.5266288}, {"type": "node", "id": 869461631, "lat": 47.3771052, "lon": 8.5282635}, {"type": "node", "id": 869461652, "lat": 47.3777519, "lon": 8.5262097}, {"type": "node", "id": 869461661, "lat": 47.3778171, "lon": 8.5273656}, {"type": "node", "id": 869461673, "lat": 47.3777243, "lon": 8.5270099}, {"type": "node", "id": 869461674, "lat": 47.3771016, "lon": 8.5258821}, {"type": "node", "id": 869461685, "lat": 47.3777686, "lon": 8.525971}, {"type": "node", "id": 871794825, "lat": 47.3775058, "lon": 8.525921, "tags": {"addr:city": "Z\u00fcrich", "addr:country": "CH", "addr:housenumber": "47", "addr:postcode": "8004", "addr:street": "Hohlstrasse"}}, {"type": "node", "id": 871794828, "lat": 47.3781158, "lon": 8.5254984, "tags": {"addr:city": "Z\u00fcrich", "addr:country": "CH", "addr:housenumber": "7", "addr:postcode": "8004", "addr:street": "Herbartstrasse"}}, {"type": "node", "id": 871794830, "lat": 47.3769647, "lon": 8.5262004, "tags": {"addr:city": "Z\u00fcrich", "addr:country": "CH", "addr:housenumber": "64", "addr:postcode": "8004", "addr:street": "Langstrasse"}}, {"type": "node", "id": 871794831, "lat": 47.3777542, "lon": 8.5256172, "tags": {"addr:city": "Z\u00fcrich", "addr:country": "CH", "addr:housenumber": "52", "addr:postcode": "8004", "addr:street": "Hohlstrasse"}}, {"type": "node", "id": 871794833, "lat": 47.3783556, "lon": 8.525709, "tags": {"addr:city": "Z\u00fcrich", "addr:country": "CH", "addr:housenumber": "1", "addr:postcode": "8004", "addr:street": "Herbartstrasse"}}, {"type": "node", "id": 871794837, "lat": 47.3773466, "lon": 8.5260505}, {"type": "node", "id": 871794839, "lat": 47.3781664, "lon": 8.5259512}, {"type": "node", "id": 871794840, "lat": 47.3780014, "lon": 8.5261636, "tags": {"addr:city": "Z\u00fcrich", "addr:country": "CH", "addr:housenumber": "60", "addr:postcode": "8004", "addr:street": "Kernstrasse"}}, {"type": "node", "id": 871794841, "lat": 47.3779693, "lon": 8.5253697, "tags": {"addr:city": "Z\u00fcrich", "addr:country": "CH", "addr:housenumber": "11", "addr:postcode": "8004", "addr:street": "Herbartstrasse"}}, {"type": "node", "id": 871794842, "lat": 47.3780343, "lon": 8.5260006, "tags": {"addr:city": "Z\u00fcrich", "addr:country": "CH", "addr:housenumber": "57", "addr:postcode": "8004", "addr:street": "Kernstrasse"}}, {"type": "node", "id": 871794843, "lat": 47.3782006, "lon": 8.5255728, "tags": {"addr:city": "Z\u00fcrich", "addr:country": "CH", "addr:housenumber": "5", "addr:postcode": "8004", "addr:street": "Herbartstrasse"}}, {"type": "node", "id": 871794845, "lat": 47.3774042, "lon": 8.5261115, "tags": {"addr:city": "Z\u00fcrich", "addr:country": "CH", "addr:housenumber": "43", "addr:postcode": "8004", "addr:street": "Hohlstrasse"}}, {"type": "node", "id": 871794849, "lat": 47.3768196, "lon": 8.5260968, "tags": {"addr:city": "Z\u00fcrich", "addr:country": "CH", "addr:housenumber": "62", "addr:postcode": "8004", "addr:street": "Langstrasse"}}, {"type": "node", "id": 871794852, "lat": 47.3774424, "lon": 8.5260702}, {"type": "node", "id": 871794853, "lat": 47.3772198, "lon": 8.5261165, "tags": {"addr:city": "Z\u00fcrich", "addr:country": "CH", "addr:housenumber": "69", "addr:postcode": "8004", "addr:street": "Langstrasse"}}, {"type": "node", "id": 871794854, "lat": 47.3775089, "lon": 8.5262157, "tags": {"addr:city": "Z\u00fcrich", "addr:country": "CH", "addr:housenumber": "44", "addr:postcode": "8004", "addr:street": "Hohlstrasse"}}, {"type": "node", "id": 871794856, "lat": 47.3774251, "lon": 8.5261234}, {"type": "node", "id": 871794857, "lat": 47.3783107, "lon": 8.5258212}, {"type": "node", "id": 871794860, "lat": 47.3780428, "lon": 8.5254343, "tags": {"addr:city": "Z\u00fcrich", "addr:country": "CH", "addr:housenumber": "9", "addr:postcode": "8004", "addr:street": "Herbartstrasse"}}, {"type": "node", "id": 871794864, "lat": 47.3783013, "lon": 8.5256613, "tags": {"addr:city": "Z\u00fcrich", "addr:country": "CH", "addr:housenumber": "3", "addr:postcode": "8004", "addr:street": "Herbartstrasse"}}, {"type": "node", "id": 871794867, "lat": 47.3773615, "lon": 8.5259952}, {"type": "node", "id": 871794868, "lat": 47.3770974, "lon": 8.5260337, "tags": {"addr:city": "Z\u00fcrich", "addr:country": "CH", "addr:housenumber": "67", "addr:postcode": "8004", "addr:street": "Langstrasse"}}, {"type": "node", "id": 914702935, "lat": 47.3755813, "lon": 8.5283563}, {"type": "node", "id": 914702943, "lat": 47.3756073, "lon": 8.528758, "tags": {"addr:city": "Z\u00fcrich", "addr:country": "CH", "addr:housenumber": "53", "addr:postcode": "8004", "addr:street": "Rotwandstrasse"}}, {"type": "node", "id": 914702977, "lat": 47.3758181, "lon": 8.5276932}, {"type": "node", "id": 914702989, "lat": 47.3756192, "lon": 8.5282957, "tags": {"addr:city": "Z\u00fcrich", "addr:country": "CH", "addr:housenumber": "54", "addr:postcode": "8004", "addr:street": "B\u00e4ckerstrasse"}}, {"type": "node", "id": 914702993, "lat": 47.3755273, "lon": 8.5286393, "tags": {"addr:city": "Z\u00fcrich", "addr:country": "CH", "addr:housenumber": "51", "addr:postcode": "8004", "addr:street": "Rotwandstrasse"}}, {"type": "node", "id": 914702996, "lat": 47.3760102, "lon": 8.5286087, "tags": {"addr:city": "Z\u00fcrich", "addr:country": "CH", "addr:housenumber": "67", "addr:postcode": "8004", "addr:street": "M\u00fcllerstrasse"}}, {"type": "node", "id": 914703004, "lat": 47.3757132, "lon": 8.5281282, "tags": {"addr:city": "Z\u00fcrich", "addr:country": "CH", "addr:housenumber": "56", "addr:postcode": "8004", "addr:street": "B\u00e4ckerstrasse"}}, {"type": "node", "id": 914703007, "lat": 47.3754662, "lon": 8.5285448, "tags": {"addr:city": "Z\u00fcrich", "addr:country": "CH", "addr:housenumber": "49", "addr:postcode": "8004", "addr:street": "Rotwandstrasse"}}, {"type": "node", "id": 914703025, "lat": 47.3758775, "lon": 8.5277712}, {"type": "node", "id": 914703028, "lat": 47.3760376, "lon": 8.528575}, {"type": "node", "id": 914703038, "lat": 47.3758602, "lon": 8.5278729, "tags": {"addr:city": "Z\u00fcrich", "addr:country": "CH", "addr:housenumber": "60", "addr:postcode": "8004", "addr:street": "B\u00e4ckerstrasse"}}, {"type": "node", "id": 914703070, "lat": 47.3762872, "lon": 8.5280887, "tags": {"addr:city": "Z\u00fcrich", "addr:country": "CH", "addr:housenumber": "114", "addr:postcode": "8004", "addr:street": "Ankerstrasse"}}, {"type": "node", "id": 914703116, "lat": 47.3762374, "lon": 8.5282645}, {"type": "node", "id": 914703118, "lat": 47.3759364, "lon": 8.5277491, "tags": {"addr:city": "Z\u00fcrich", "addr:country": "CH", "addr:housenumber": "62", "addr:postcode": "8004", "addr:street": "B\u00e4ckerstrasse"}}, {"type": "node", "id": 914703166, "lat": 47.3755763, "lon": 8.5278027, "tags": {"addr:city": "Z\u00fcrich", "addr:country": "CH", "addr:housenumber": "57", "addr:postcode": "8004", "addr:street": "B\u00e4ckerstrasse"}}, {"type": "node", "id": 914703191, "lat": 47.3759816, "lon": 8.5280354, "tags": {"addr:city": "Z\u00fcrich", "addr:country": "CH", "addr:housenumber": "112", "addr:postcode": "8004", "addr:street": "Ankerstrasse"}}, {"type": "node", "id": 914703192, "lat": 47.3757513, "lon": 8.5287762, "tags": {"addr:city": "Z\u00fcrich", "addr:country": "CH", "addr:housenumber": "63", "addr:postcode": "8004", "addr:street": "M\u00fcllerstrasse"}}, {"type": "node", "id": 914703195, "lat": 47.3762625, "lon": 8.5282968}, {"type": "node", "id": 914703205, "lat": 47.3755033, "lon": 8.5282426}, {"type": "node", "id": 914703236, "lat": 47.3760192, "lon": 8.5285411}, {"type": "node", "id": 914703239, "lat": 47.3756939, "lon": 8.5279081, "tags": {"addr:city": "Z\u00fcrich", "addr:country": "CH", "addr:housenumber": "58", "addr:postcode": "8004", "addr:street": "B\u00e4ckerstrasse"}}, {"type": "node", "id": 920508285, "lat": 47.3762932, "lon": 8.5278804}, {"type": "node", "id": 920508304, "lat": 47.3766291, "lon": 8.526574, "tags": {"addr:city": "Z\u00fcrich", "addr:country": "CH", "addr:housenumber": "17", "addr:postcode": "8004", "addr:street": "Molkenstrasse"}}, {"type": "node", "id": 920508305, "lat": 47.3770976, "lon": 8.5280585}, {"type": "node", "id": 920508306, "lat": 47.3763596, "lon": 8.5279813}, {"type": "node", "id": 920508310, "lat": 47.3774349, "lon": 8.528004, "tags": {"addr:city": "Z\u00fcrich", "addr:country": "CH", "addr:housenumber": "26", "addr:postcode": "8004", "addr:street": "Brauerstrasse"}}, {"type": "node", "id": 920508324, "lat": 47.3763665, "lon": 8.5277394}, {"type": "node", "id": 920508326, "lat": 47.3771666, "lon": 8.5263923}, {"type": "node", "id": 920508327, "lat": 47.3767882, "lon": 8.5279612}, {"type": "node", "id": 920508328, "lat": 47.3772646, "lon": 8.5278415}, {"type": "node", "id": 920508348, "lat": 47.3764425, "lon": 8.5278617}, {"type": "node", "id": 920508351, "lat": 47.3772637, "lon": 8.5281892, "tags": {"addr:city": "Z\u00fcrich", "addr:country": "CH", "addr:housenumber": "16", "addr:postcode": "8004", "addr:street": "Brauerstrasse"}}, {"type": "node", "id": 920508356, "lat": 47.3771421, "lon": 8.5265446, "tags": {"entrance": "yes"}}, {"type": "node", "id": 920508366, "lat": 47.3771261, "lon": 8.5276624}, {"type": "node", "id": 920508369, "lat": 47.3776135, "lon": 8.5275464}, {"type": "node", "id": 920508385, "lat": 47.3773344, "lon": 8.5271522, "tags": {"addr:city": "Z\u00fcrich", "addr:country": "CH", "addr:housenumber": "32", "addr:postcode": "8004", "addr:street": "Hohlstrasse"}}, {"type": "node", "id": 920508388, "lat": 47.3773155, "lon": 8.5278628, "tags": {"addr:city": "Z\u00fcrich", "addr:country": "CH", "addr:housenumber": "15", "addr:postcode": "8004", "addr:street": "Brauerstrasse"}}, {"type": "node", "id": 920508396, "lat": 47.3770193, "lon": 8.5276502, "tags": {"addr:city": "Z\u00fcrich", "addr:country": "CH", "addr:housenumber": "18", "addr:postcode": "8004", "addr:street": "Hohlstrasse"}}, {"type": "node", "id": 920508399, "lat": 47.3767192, "lon": 8.527916, "tags": {"addr:city": "Z\u00fcrich", "addr:country": "CH", "addr:housenumber": "92", "addr:postcode": "8004", "addr:street": "M\u00fcllerstrasse"}}, {"type": "node", "id": 920508410, "lat": 47.3776759, "lon": 8.5270955, "tags": {"addr:city": "Z\u00fcrich", "addr:country": "CH", "addr:housenumber": "31", "addr:postcode": "8004", "addr:street": "Brauerstrasse"}}, {"type": "node", "id": 920508413, "lat": 47.3764971, "lon": 8.5265695, "tags": {"addr:city": "Z\u00fcrich", "addr:country": "CH", "addr:housenumber": "15", "addr:postcode": "8004", "addr:street": "Molkenstrasse"}}, {"type": "node", "id": 920508417, "lat": 47.377074, "lon": 8.5281035}, {"type": "node", "id": 920508420, "lat": 47.3763319, "lon": 8.5279388, "tags": {"addr:city": "Z\u00fcrich", "addr:country": "CH", "addr:housenumber": "113", "addr:postcode": "8004", "addr:street": "Ankerstrasse"}}, {"type": "node", "id": 920508423, "lat": 47.3775263, "lon": 8.5281369, "tags": {"addr:city": "Z\u00fcrich", "addr:country": "CH", "addr:housenumber": "24", "addr:postcode": "8004", "addr:street": "Brauerstrasse"}}, {"type": "node", "id": 920508433, "lat": 47.3767324, "lon": 8.5280078}, {"type": "node", "id": 920508438, "lat": 47.3771167, "lon": 8.5280173}, {"type": "node", "id": 920508440, "lat": 47.3761252, "lon": 8.5279726, "tags": {"addr:city": "Z\u00fcrich", "addr:country": "CH", "addr:housenumber": "110", "addr:postcode": "8004", "addr:street": "Ankerstrasse"}}, {"type": "node", "id": 920508454, "lat": 47.3769613, "lon": 8.5280193, "tags": {"addr:city": "Z\u00fcrich", "addr:country": "CH", "addr:housenumber": "4", "addr:postcode": "8004", "addr:street": "Hohlstrasse"}}, {"type": "node", "id": 920508460, "lat": 47.3771086, "lon": 8.5265749}, {"type": "node", "id": 920508463, "lat": 47.3768877, "lon": 8.5265817, "tags": {"addr:city": "Z\u00fcrich", "addr:country": "CH", "addr:housenumber": "21", "addr:postcode": "8004", "addr:street": "Molkenstrasse"}}, {"type": "node", "id": 920508466, "lat": 47.3771366, "lon": 8.5279793, "tags": {"addr:city": "Z\u00fcrich", "addr:country": "CH", "addr:housenumber": "13", "addr:postcode": "8004", "addr:street": "Brauerstrasse"}}, {"type": "node", "id": 920508471, "lat": 47.3771696, "lon": 8.5281408}, {"type": "node", "id": 920508477, "lat": 47.3766936, "lon": 8.5279481}, {"type": "node", "id": 920508480, "lat": 47.3776123, "lon": 8.527765, "tags": {"addr:city": "Z\u00fcrich", "addr:country": "CH", "addr:housenumber": "30", "addr:postcode": "8004", "addr:street": "Brauerstrasse"}}, {"type": "node", "id": 920508485, "lat": 47.3766547, "lon": 8.5284235}, {"type": "node", "id": 920508494, "lat": 47.3775754, "lon": 8.5272939, "tags": {"addr:city": "Z\u00fcrich", "addr:country": "CH", "addr:housenumber": "29", "addr:postcode": "8004", "addr:street": "Brauerstrasse"}}, {"type": "node", "id": 920508501, "lat": 47.3770488, "lon": 8.5280751}, {"type": "node", "id": 920508521, "lat": 47.3771714, "lon": 8.5264745, "tags": {"addr:city": "Z\u00fcrich", "addr:country": "CH", "addr:housenumber": "35", "addr:postcode": "8004", "addr:street": "Hohlstrasse"}}, {"type": "node", "id": 920508526, "lat": 47.3771486, "lon": 8.5281168, "tags": {"addr:city": "Z\u00fcrich", "addr:country": "CH", "addr:housenumber": "9", "addr:postcode": "8004", "addr:street": "Brauerstrasse"}}, {"type": "node", "id": 920508528, "lat": 47.3771902, "lon": 8.5281015}, {"type": "node", "id": 920508547, "lat": 47.3768471, "lon": 8.5277471}, {"type": "node", "id": 920552760, "lat": 47.3774119, "lon": 8.5267819, "tags": {"addr:city": "Z\u00fcrich", "addr:country": "CH", "addr:housenumber": "36", "addr:postcode": "8004", "addr:street": "Hohlstrasse"}}, {"type": "node", "id": 936942693, "lat": 47.3771876, "lon": 8.5271552}, {"type": "node", "id": 936942707, "lat": 47.3774812, "lon": 8.5274708}, {"type": "node", "id": 936942835, "lat": 47.3768168, "lon": 8.5282316, "tags": {"addr:city": "Z\u00fcrich", "addr:country": "CH", "addr:housenumber": "7", "addr:postcode": "8004", "addr:street": "Hohlstrasse", "entrance": "yes"}}, {"type": "node", "id": 936942900, "lat": 47.3768381, "lon": 8.5280996, "tags": {"addr:city": "Z\u00fcrich", "addr:country": "CH", "addr:housenumber": "9", "addr:postcode": "8004", "addr:street": "Hohlstrasse", "entrance": "yes"}}, {"type": "node", "id": 1241219563, "lat": 47.3780932, "lon": 8.5273602}, {"type": "node", "id": 1241219576, "lat": 47.3784654, "lon": 8.5268936}, {"type": "node", "id": 1241219586, "lat": 47.3777802, "lon": 8.5263277}, {"type": "node", "id": 1241219593, "lat": 47.3781317, "lon": 8.5279688}, {"type": "node", "id": 1241219595, "lat": 47.3780661, "lon": 8.5274164}, {"type": "node", "id": 1241219601, "lat": 47.3778976, "lon": 8.5277843, "tags": {"addr:city": "Z\u00fcrich", "addr:country": "CH", "addr:housenumber": "25", "addr:postcode": "8004", "addr:street": "Dienerstrasse"}}, {"type": "node", "id": 1241219605, "lat": 47.3776955, "lon": 8.5283992, "tags": {"addr:city": "Z\u00fcrich", "addr:country": "CH", "addr:housenumber": "15", "addr:postcode": "8004", "addr:street": "Dienerstrasse"}}, {"type": "node", "id": 1241219612, "lat": 47.377734, "lon": 8.5260555}, {"type": "node", "id": 1241219621, "lat": 47.3781447, "lon": 8.5270637}, {"type": "node", "id": 1241219623, "lat": 47.3782328, "lon": 8.5278822, "tags": {"addr:city": "Z\u00fcrich", "addr:country": "CH", "addr:housenumber": "28", "addr:postcode": "8004", "addr:street": "Dienerstrasse"}}, {"type": "node", "id": 1241219627, "lat": 47.3780054, "lon": 8.5265364, "tags": {"addr:city": "Z\u00fcrich", "addr:country": "CH", "addr:housenumber": "45", "addr:postcode": "8004", "addr:street": "Brauerstrasse"}}, {"type": "node", "id": 1241219631, "lat": 47.3778315, "lon": 8.5279065, "tags": {"addr:city": "Z\u00fcrich", "addr:country": "CH", "addr:housenumber": "21", "addr:postcode": "8004", "addr:street": "Dienerstrasse"}}, {"type": "node", "id": 1241219633, "lat": 47.3783596, "lon": 8.5278547}, {"type": "node", "id": 1241219639, "lat": 47.3780388, "lon": 8.5277201}, {"type": "node", "id": 1241219643, "lat": 47.3777058, "lon": 8.5263172}, {"type": "node", "id": 1241219645, "lat": 47.3780665, "lon": 8.5276754}, {"type": "node", "id": 1241219646, "lat": 47.377673, "lon": 8.5281201}, {"type": "node", "id": 1241219657, "lat": 47.378141, "lon": 8.5274107, "tags": {"addr:city": "Z\u00fcrich", "addr:country": "CH", "addr:housenumber": "33", "addr:postcode": "8004", "addr:street": "Dienerstrasse"}}, {"type": "node", "id": 1241219658, "lat": 47.3781561, "lon": 8.5267277, "tags": {"addr:city": "Z\u00fcrich", "addr:country": "CH", "addr:housenumber": "93", "addr:postcode": "8004", "addr:street": "Langstrasse"}}, {"type": "node", "id": 1241219660, "lat": 47.3778779, "lon": 8.5278238}, {"type": "node", "id": 1241219661, "lat": 47.3783387, "lon": 8.5276559}, {"type": "node", "id": 1241219668, "lat": 47.3778525, "lon": 8.5278646}, {"type": "node", "id": 1241219673, "lat": 47.3781459, "lon": 8.5272577}, {"type": "node", "id": 1241219674, "lat": 47.37831, "lon": 8.5264494, "tags": {"addr:city": "Z\u00fcrich", "addr:country": "CH", "addr:housenumber": "48", "addr:postcode": "8004", "addr:street": "Brauerstrasse"}}, {"type": "node", "id": 1241219679, "lat": 47.3776089, "lon": 8.5285683}, {"type": "node", "id": 1241219697, "lat": 47.3784531, "lon": 8.5265914, "tags": {"addr:city": "Z\u00fcrich", "addr:country": "CH", "addr:housenumber": "45", "addr:postcode": "8004", "addr:street": "Dienerstrasse"}}, {"type": "node", "id": 1241219701, "lat": 47.3779715, "lon": 8.5266018}, {"type": "node", "id": 1241219710, "lat": 47.3781427, "lon": 8.5281487, "tags": {"addr:city": "Z\u00fcrich", "addr:country": "CH", "addr:housenumber": "3", "addr:postcode": "8004", "addr:street": "Tellstrasse"}}, {"type": "node", "id": 1241219717, "lat": 47.3781796, "lon": 8.5274487}, {"type": "node", "id": 1241219719, "lat": 47.3779508, "lon": 8.5276781, "tags": {"addr:city": "Z\u00fcrich", "addr:country": "CH", "addr:housenumber": "27", "addr:postcode": "8004", "addr:street": "Dienerstrasse"}}, {"type": "node", "id": 1241219732, "lat": 47.3778488, "lon": 8.5280995}, {"type": "node", "id": 1241219735, "lat": 47.3776681, "lon": 8.5263035}, {"type": "node", "id": 1241219742, "lat": 47.3780383, "lon": 8.5275035}, {"type": "node", "id": 1241219744, "lat": 47.3775298, "lon": 8.5283051}, {"type": "node", "id": 1241219746, "lat": 47.3782324, "lon": 8.5276064, "tags": {"addr:city": "Z\u00fcrich", "addr:country": "CH", "addr:housenumber": "30", "addr:postcode": "8004", "addr:street": "Dienerstrasse"}}, {"type": "node", "id": 1241219750, "lat": 47.377808, "lon": 8.5262706}, {"type": "node", "id": 1241219752, "lat": 47.377784, "lon": 8.5282266}, {"type": "node", "id": 1241219761, "lat": 47.3782663, "lon": 8.5281131}, {"type": "node", "id": 1241219762, "lat": 47.3780836, "lon": 8.5274399}, {"type": "node", "id": 1241219765, "lat": 47.3782611, "lon": 8.5272904}, {"type": "node", "id": 1241219783, "lat": 47.3777375, "lon": 8.5281007, "tags": {"addr:city": "Z\u00fcrich", "addr:country": "CH", "addr:housenumber": "19", "addr:postcode": "8004", "addr:street": "Dienerstrasse"}}, {"type": "node", "id": 1241219788, "lat": 47.378468, "lon": 8.5266513}, {"type": "node", "id": 1241219795, "lat": 47.3780043, "lon": 8.5275722, "tags": {"addr:city": "Z\u00fcrich", "addr:country": "CH", "addr:housenumber": "29", "addr:postcode": "8004", "addr:street": "Dienerstrasse"}}, {"type": "node", "id": 1241219803, "lat": 47.3783065, "lon": 8.5279619}, {"type": "node", "id": 1241219829, "lat": 47.3780139, "lon": 8.5282757, "tags": {"addr:city": "Z\u00fcrich", "addr:country": "CH", "addr:housenumber": "2", "addr:postcode": "8004", "addr:street": "Tellstrasse"}}, {"type": "node", "id": 1241219832, "lat": 47.3777782, "lon": 8.5282374}, {"type": "node", "id": 1241219833, "lat": 47.3778316, "lon": 8.5281349}, {"type": "node", "id": 1241219846, "lat": 47.3781965, "lon": 8.5276774}, {"type": "node", "id": 1241219851, "lat": 47.3779486, "lon": 8.5279009}, {"type": "node", "id": 1241219866, "lat": 47.3779233, "lon": 8.5277331}, {"type": "node", "id": 1241219887, "lat": 47.3780384, "lon": 8.5279925}, {"type": "node", "id": 1241219893, "lat": 47.3779682, "lon": 8.5276432}, {"type": "node", "id": 1241219911, "lat": 47.3780846, "lon": 8.5266844}, {"type": "node", "id": 1241219918, "lat": 47.3781498, "lon": 8.5279882, "tags": {"addr:city": "Z\u00fcrich", "addr:country": "CH", "addr:housenumber": "26", "addr:postcode": "8004", "addr:street": "Dienerstrasse"}}, {"type": "node", "id": 1241219927, "lat": 47.3777752, "lon": 8.528019}, {"type": "node", "id": 1241219928, "lat": 47.3776766, "lon": 8.5262881}, {"type": "node", "id": 1241219934, "lat": 47.3779927, "lon": 8.5275957}, {"type": "node", "id": 1241219936, "lat": 47.3775607, "lon": 8.5283396}, {"type": "node", "id": 1241219947, "lat": 47.3777124, "lon": 8.5260363}, {"type": "node", "id": 1241219949, "lat": 47.3782978, "lon": 8.527156}, {"type": "node", "id": 1241219950, "lat": 47.3777135, "lon": 8.5281468}, {"type": "node", "id": 1241219952, "lat": 47.3781426, "lon": 8.5277886}, {"type": "node", "id": 1241219953, "lat": 47.3780452, "lon": 8.5275122}, {"type": "node", "id": 1241219955, "lat": 47.3781016, "lon": 8.5272078}, {"type": "node", "id": 1241219967, "lat": 47.3782543, "lon": 8.527563}, {"type": "node", "id": 1241219970, "lat": 47.3784428, "lon": 8.5266126}, {"type": "node", "id": 1241219973, "lat": 47.3777612, "lon": 8.5280551}, {"type": "node", "id": 1241219977, "lat": 47.3774728, "lon": 8.5284165}, {"type": "node", "id": 1241219983, "lat": 47.377994, "lon": 8.5278102}, {"type": "node", "id": 1241219997, "lat": 47.3785174, "lon": 8.5267946, "tags": {"addr:city": "Z\u00fcrich", "addr:country": "CH", "addr:housenumber": "43", "addr:postcode": "8004", "addr:street": "Dienerstrasse"}}, {"type": "node", "id": 1241220013, "lat": 47.3779262, "lon": 8.5279451}, {"type": "node", "id": 1320113402, "lat": 47.3759618, "lon": 8.5284417}, {"type": "node", "id": 1320113404, "lat": 47.3759681, "lon": 8.5284567}, {"type": "node", "id": 1486118351, "lat": 47.3765627, "lon": 8.5263963}, {"type": "node", "id": 1486118355, "lat": 47.3765627, "lon": 8.5261075}, {"type": "node", "id": 1486118357, "lat": 47.3766007, "lon": 8.526283}, {"type": "node", "id": 1486118366, "lat": 47.3769732, "lon": 8.5263613}, {"type": "node", "id": 2015772161, "lat": 47.3766187, "lon": 8.5261475}, {"type": "node", "id": 2015772164, "lat": 47.3766249, "lon": 8.5261287}, {"type": "node", "id": 2015772171, "lat": 47.3769388, "lon": 8.5263527}, {"type": "node", "id": 2015772175, "lat": 47.376943, "lon": 8.5263398}, {"type": "node", "id": 2015772178, "lat": 47.3769595, "lon": 8.5264434}, {"type": "node", "id": 2015772181, "lat": 47.377148, "lon": 8.5263436, "tags": {"entrance": "main"}}, {"type": "node", "id": 2261078767, "lat": 47.3755195, "lon": 8.5279112}, {"type": "node", "id": 2395154651, "lat": 47.377721, "lon": 8.5273311}, {"type": "node", "id": 2395154653, "lat": 47.3776548, "lon": 8.5274624}, {"type": "node", "id": 2395154656, "lat": 47.3778426, "lon": 8.5276699}, {"type": "node", "id": 2395154658, "lat": 47.3779929, "lon": 8.5274472}, {"type": "node", "id": 2395154660, "lat": 47.377968, "lon": 8.5273488}, {"type": "node", "id": 2395154662, "lat": 47.3778176, "lon": 8.5274778}, {"type": "node", "id": 2583985878, "lat": 47.3779922, "lon": 8.5273098}, {"type": "node", "id": 2583985880, "lat": 47.3779429, "lon": 8.5272591}, {"type": "node", "id": 2583985882, "lat": 47.3780198, "lon": 8.5271116}, {"type": "node", "id": 2583985884, "lat": 47.3780655, "lon": 8.5271645}, {"type": "node", "id": 2583985885, "lat": 47.3780726, "lon": 8.5270156}, {"type": "node", "id": 2583985886, "lat": 47.3780354, "lon": 8.5270675}, {"type": "node", "id": 2583985887, "lat": 47.3780881, "lon": 8.5271231}, {"type": "node", "id": 2583985891, "lat": 47.3781303, "lon": 8.5270402}, {"type": "node", "id": 2956815183, "lat": 47.3756082, "lon": 8.5265658}, {"type": "node", "id": 3461322033, "lat": 47.3754145, "lon": 8.5284691}, {"type": "node", "id": 3477874402, "lat": 47.3769288, "lon": 8.52856}, {"type": "node", "id": 3477874405, "lat": 47.3769496, "lon": 8.5280937}, {"type": "node", "id": 3477874407, "lat": 47.3769818, "lon": 8.5281117}, {"type": "node", "id": 3477874408, "lat": 47.3770333, "lon": 8.5281813}, {"type": "node", "id": 3477874409, "lat": 47.3770412, "lon": 8.5281662}, {"type": "node", "id": 3477874410, "lat": 47.3770835, "lon": 8.5274478}, {"type": "node", "id": 3477874415, "lat": 47.377209, "lon": 8.5270711}, {"type": "node", "id": 3477874416, "lat": 47.3772045, "lon": 8.5259603}, {"type": "node", "id": 3477874417, "lat": 47.3772167, "lon": 8.5270843}, {"type": "node", "id": 3477874418, "lat": 47.3772089, "lon": 8.5259429}, {"type": "node", "id": 3477874421, "lat": 47.37736, "lon": 8.52623}, {"type": "node", "id": 3477874422, "lat": 47.3773498, "lon": 8.5277976}, {"type": "node", "id": 3477874424, "lat": 47.3773881, "lon": 8.5265222}, {"type": "node", "id": 3477874425, "lat": 47.3773863, "lon": 8.526221}, {"type": "node", "id": 3477874426, "lat": 47.3774119, "lon": 8.5264916}, {"type": "node", "id": 3477874431, "lat": 47.3774685, "lon": 8.5266708}, {"type": "node", "id": 3477874432, "lat": 47.3774896, "lon": 8.5263427}, {"type": "node", "id": 3477874433, "lat": 47.3774855, "lon": 8.5266756}, {"type": "node", "id": 3477874435, "lat": 47.3776438, "lon": 8.5262044}, {"type": "node", "id": 3477874436, "lat": 47.377728, "lon": 8.526272}, {"type": "node", "id": 3477874439, "lat": 47.3778836, "lon": 8.5267733}, {"type": "node", "id": 3477874440, "lat": 47.3779908, "lon": 8.5268198}, {"type": "node", "id": 3578338484, "lat": 47.3776206, "lon": 8.5277745}, {"type": "node", "id": 3578338485, "lat": 47.3776367, "lon": 8.5277142}, {"type": "node", "id": 3578338486, "lat": 47.3776464, "lon": 8.5277252}, {"type": "node", "id": 3578338487, "lat": 47.3776707, "lon": 8.5276116}, {"type": "node", "id": 3578338488, "lat": 47.3776781, "lon": 8.527635}, {"type": "node", "id": 3578338489, "lat": 47.3779508, "lon": 8.5271615}, {"type": "node", "id": 3578338490, "lat": 47.3779628, "lon": 8.527175}, {"type": "node", "id": 3578338491, "lat": 47.3779733, "lon": 8.527118}, {"type": "node", "id": 3578338492, "lat": 47.3779853, "lon": 8.5271314}, {"type": "node", "id": 3926182142, "lat": 47.3757236, "lon": 8.5289339}, {"type": "node", "id": 4005581156, "lat": 47.3765627, "lon": 8.5264179}, {"type": "node", "id": 4005581157, "lat": 47.3769264, "lon": 8.5264287}, {"type": "node", "id": 4005581158, "lat": 47.3769263, "lon": 8.5264424}, {"type": "node", "id": 4245900585, "lat": 47.3757549, "lon": 8.5261743}, {"type": "node", "id": 4245900587, "lat": 47.3757624, "lon": 8.5261494}, {"type": "node", "id": 4245900589, "lat": 47.3758023, "lon": 8.5262052}, {"type": "node", "id": 4245900590, "lat": 47.3758097, "lon": 8.5261803}, {"type": "node", "id": 4246049690, "lat": 47.3770586, "lon": 8.5260066}, {"type": "node", "id": 4246049691, "lat": 47.3771257, "lon": 8.5260545}, {"type": "node", "id": 4246049692, "lat": 47.3771865, "lon": 8.5259486}, {"type": "node", "id": 4246049698, "lat": 47.3772528, "lon": 8.5261491}, {"type": "node", "id": 4246049702, "lat": 47.3772828, "lon": 8.526017}, {"type": "node", "id": 4246049704, "lat": 47.3773059, "lon": 8.5260371}, {"type": "node", "id": 4246049706, "lat": 47.3773413, "lon": 8.5260626}, {"type": "node", "id": 4246049707, "lat": 47.3773822, "lon": 8.5260968}, {"type": "node", "id": 4246049708, "lat": 47.3773881, "lon": 8.5260787}, {"type": "node", "id": 4246049710, "lat": 47.3774625, "lon": 8.5257576}, {"type": "node", "id": 4246049711, "lat": 47.3775434, "lon": 8.5258326}, {"type": "node", "id": 4246061191, "lat": 47.3763513, "lon": 8.5264363}, {"type": "node", "id": 4246061192, "lat": 47.3763601, "lon": 8.5264282}, {"type": "node", "id": 4246061193, "lat": 47.3763919, "lon": 8.5265345}, {"type": "node", "id": 4246061194, "lat": 47.376401, "lon": 8.5265266}, {"type": "node", "id": 4246061196, "lat": 47.3765461, "lon": 8.5261581}, {"type": "node", "id": 4246061197, "lat": 47.3765606, "lon": 8.526572}, {"type": "node", "id": 4246061198, "lat": 47.3766702, "lon": 8.5259902}, {"type": "node", "id": 4246061199, "lat": 47.3766925, "lon": 8.5265759, "tags": {"barrier": "gate"}}, {"type": "node", "id": 4246061200, "lat": 47.3766946, "lon": 8.5264219}, {"type": "node", "id": 4246061201, "lat": 47.3768087, "lon": 8.5262599}, {"type": "node", "id": 4246061202, "lat": 47.376854, "lon": 8.5261214}, {"type": "node", "id": 4246061203, "lat": 47.3769575, "lon": 8.5265838}, {"type": "node", "id": 4246061204, "lat": 47.3770143, "lon": 8.5262358}, {"type": "node", "id": 4246061205, "lat": 47.3771733, "lon": 8.5264505}, {"type": "node", "id": 4246086900, "lat": 47.3771459, "lon": 8.5272548}, {"type": "node", "id": 4246086901, "lat": 47.377147, "lon": 8.5272134}, {"type": "node", "id": 4246086902, "lat": 47.3771525, "lon": 8.527262}, {"type": "node", "id": 4246086903, "lat": 47.3771597, "lon": 8.5272275}, {"type": "node", "id": 4246086904, "lat": 47.3771628, "lon": 8.5271822}, {"type": "node", "id": 4246086905, "lat": 47.37717, "lon": 8.5271901}, {"type": "node", "id": 4246086906, "lat": 47.3771952, "lon": 8.5271268}, {"type": "node", "id": 4246086907, "lat": 47.3771996, "lon": 8.5271316}, {"type": "node", "id": 4246086908, "lat": 47.3772408, "lon": 8.5269896}, {"type": "node", "id": 4246086909, "lat": 47.3772451, "lon": 8.5269498}, {"type": "node", "id": 4246086910, "lat": 47.3772484, "lon": 8.5269987}, {"type": "node", "id": 4246086911, "lat": 47.3772557, "lon": 8.5269623}, {"type": "node", "id": 4246086912, "lat": 47.3772613, "lon": 8.52692}, {"type": "node", "id": 4246086913, "lat": 47.3772671, "lon": 8.5269269}, {"type": "node", "id": 4246086914, "lat": 47.3773081, "lon": 8.5268789}, {"type": "node", "id": 4246086915, "lat": 47.3773131, "lon": 8.5271908}, {"type": "node", "id": 4246086916, "lat": 47.3773267, "lon": 8.5268678}, {"type": "node", "id": 4246086917, "lat": 47.3773556, "lon": 8.5271134}, {"type": "node", "id": 4246086918, "lat": 47.3773615, "lon": 8.5271204}, {"type": "node", "id": 4246086919, "lat": 47.3773816, "lon": 8.5270604}, {"type": "node", "id": 4246086920, "lat": 47.3773893, "lon": 8.5270694}, {"type": "node", "id": 4246086921, "lat": 47.3773949, "lon": 8.5276376}, {"type": "node", "id": 4246086922, "lat": 47.3774016, "lon": 8.527645}, {"type": "node", "id": 4246086923, "lat": 47.377402, "lon": 8.5269838}, {"type": "node", "id": 4246086924, "lat": 47.3774071, "lon": 8.5269533}, {"type": "node", "id": 4246086925, "lat": 47.3774081, "lon": 8.5276114}, {"type": "node", "id": 4246086926, "lat": 47.3774148, "lon": 8.5276189}, {"type": "node", "id": 4246086927, "lat": 47.3774254, "lon": 8.5275772}, {"type": "node", "id": 4246086928, "lat": 47.3774327, "lon": 8.5275853}, {"type": "node", "id": 4246086929, "lat": 47.3774395, "lon": 8.5275505}, {"type": "node", "id": 4246086930, "lat": 47.377443, "lon": 8.52725}, {"type": "node", "id": 4246086931, "lat": 47.3774464, "lon": 8.5275581}, {"type": "node", "id": 4246086932, "lat": 47.3774553, "lon": 8.5275194}, {"type": "node", "id": 4246086933, "lat": 47.3774618, "lon": 8.5275265}, {"type": "node", "id": 4246086934, "lat": 47.3774696, "lon": 8.5274937}, {"type": "node", "id": 4246086935, "lat": 47.3774752, "lon": 8.5274999}, {"type": "node", "id": 4246086936, "lat": 47.3774859, "lon": 8.5274615}, {"type": "node", "id": 4246086937, "lat": 47.3774941, "lon": 8.5274706}, {"type": "node", "id": 4246086938, "lat": 47.3775015, "lon": 8.5274342}, {"type": "node", "id": 4246086939, "lat": 47.3775086, "lon": 8.527442}, {"type": "node", "id": 4246086940, "lat": 47.3775186, "lon": 8.5274005}, {"type": "node", "id": 4246086941, "lat": 47.3775256, "lon": 8.5274083}, {"type": "node", "id": 4246086942, "lat": 47.3775263, "lon": 8.5261757}, {"type": "node", "id": 4246086943, "lat": 47.3775341, "lon": 8.5273754}, {"type": "node", "id": 4246086944, "lat": 47.3775393, "lon": 8.5273811}, {"type": "node", "id": 4246086945, "lat": 47.3775422, "lon": 8.5273596}, {"type": "node", "id": 4246086946, "lat": 47.3775503, "lon": 8.5261211}, {"type": "node", "id": 4246086947, "lat": 47.377556, "lon": 8.5270269}, {"type": "node", "id": 4246086948, "lat": 47.3775714, "lon": 8.5260693}, {"type": "node", "id": 4246086949, "lat": 47.3776048, "lon": 8.5259874}, {"type": "node", "id": 4246086950, "lat": 47.377616, "lon": 8.526414}, {"type": "node", "id": 4246086951, "lat": 47.3776275, "lon": 8.5267315}, {"type": "node", "id": 4246086952, "lat": 47.3776343, "lon": 8.526196}, {"type": "node", "id": 4246086953, "lat": 47.3776331, "lon": 8.5267088}, {"type": "node", "id": 4246086954, "lat": 47.3776552, "lon": 8.5271365}, {"type": "node", "id": 4246086955, "lat": 47.3776984, "lon": 8.5260707}, {"type": "node", "id": 4246086956, "lat": 47.3777114, "lon": 8.5264703}, {"type": "node", "id": 4246086957, "lat": 47.3777786, "lon": 8.5261243}, {"type": "node", "id": 4246086958, "lat": 47.3777859, "lon": 8.5261324}, {"type": "node", "id": 4246086959, "lat": 47.3777895, "lon": 8.5261022}, {"type": "node", "id": 4246086960, "lat": 47.377795, "lon": 8.5261062}, {"type": "node", "id": 4246086961, "lat": 47.3778712, "lon": 8.5265689}, {"type": "node", "id": 4246086962, "lat": 47.3778944, "lon": 8.5264401}, {"type": "node", "id": 4246086963, "lat": 47.3780529, "lon": 8.5264475}, {"type": "node", "id": 4518003918, "lat": 47.3779175, "lon": 8.5272885}, {"type": "node", "id": 4518003919, "lat": 47.3778976, "lon": 8.5272717}, {"type": "node", "id": 4518003920, "lat": 47.3778366, "lon": 8.5273225}, {"type": "node", "id": 4518003921, "lat": 47.3778502, "lon": 8.5273373}, {"type": "node", "id": 4518003922, "lat": 47.3778661, "lon": 8.5272991}, {"type": "node", "id": 4518003923, "lat": 47.3778958, "lon": 8.5273313}, {"type": "node", "id": 4518003924, "lat": 47.3777935, "lon": 8.5274211}, {"type": "node", "id": 4518003925, "lat": 47.3777848, "lon": 8.5274432}, {"type": "node", "id": 4518003926, "lat": 47.3779478, "lon": 8.5273976}, {"type": "node", "id": 4518003927, "lat": 47.3779032, "lon": 8.5274813}, {"type": "node", "id": 4518003928, "lat": 47.3779536, "lon": 8.5275313}, {"type": "node", "id": 4518003929, "lat": 47.3778521, "lon": 8.5275846}, {"type": "node", "id": 4518003930, "lat": 47.3778728, "lon": 8.5276023}, {"type": "node", "id": 4518003931, "lat": 47.378163, "lon": 8.5269964}, {"type": "node", "id": 4518003932, "lat": 47.3781528, "lon": 8.5269834}, {"type": "node", "id": 4518003933, "lat": 47.3780642, "lon": 8.5270115}, {"type": "node", "id": 4518003934, "lat": 47.3779842, "lon": 8.5270327}, {"type": "node", "id": 4518003935, "lat": 47.3780264, "lon": 8.526948}, {"type": "node", "id": 4518003936, "lat": 47.3780864, "lon": 8.5269835}, {"type": "node", "id": 4851815760, "lat": 47.3760112, "lon": 8.5273212}, {"type": "node", "id": 4851815761, "lat": 47.3760269, "lon": 8.527289}, {"type": "node", "id": 4851815762, "lat": 47.3760244, "lon": 8.5273352}, {"type": "node", "id": 4851815763, "lat": 47.3760401, "lon": 8.527303}, {"type": "node", "id": 5081845597, "lat": 47.3778646, "lon": 8.5253245}, {"type": "node", "id": 5081845598, "lat": 47.3781346, "lon": 8.5258062}, {"type": "node", "id": 5081845599, "lat": 47.3781008, "lon": 8.5258908}, {"type": "node", "id": 5081845600, "lat": 47.3782107, "lon": 8.5258365}, {"type": "node", "id": 5081845601, "lat": 47.3782751, "lon": 8.525892}, {"type": "node", "id": 5081848125, "lat": 47.3781121, "lon": 8.5275832}, {"type": "node", "id": 5081848128, "lat": 47.3770869, "lon": 8.5277343}, {"type": "node", "id": 5081848129, "lat": 47.3770558, "lon": 8.5279391}, {"type": "node", "id": 5081848130, "lat": 47.3770443, "lon": 8.5280118}, {"type": "node", "id": 5081848131, "lat": 47.37707, "lon": 8.527944}, {"type": "node", "id": 5081848132, "lat": 47.3771013, "lon": 8.5277392}, {"type": "node", "id": 5081848133, "lat": 47.3772416, "lon": 8.5278851}, {"type": "node", "id": 5081848134, "lat": 47.377207, "lon": 8.5278455}, {"type": "node", "id": 5081848139, "lat": 47.3772009, "lon": 8.5283064}, {"type": "node", "id": 5081848140, "lat": 47.377209, "lon": 8.5283155}, {"type": "node", "id": 5081848141, "lat": 47.3773311, "lon": 8.5280562}, {"type": "node", "id": 5081848142, "lat": 47.3773389, "lon": 8.5280651}, {"type": "node", "id": 5081848143, "lat": 47.377254, "lon": 8.5282086}, {"type": "node", "id": 5081848144, "lat": 47.37728, "lon": 8.5281579}, {"type": "node", "id": 5081848145, "lat": 47.3772868, "lon": 8.5281657}, {"type": "node", "id": 5081848146, "lat": 47.3772606, "lon": 8.528216}, {"type": "node", "id": 5081848147, "lat": 47.3773376, "lon": 8.5284542}, {"type": "node", "id": 5081848148, "lat": 47.3774635, "lon": 8.5282114}, {"type": "node", "id": 5081848149, "lat": 47.37742, "lon": 8.5281623}, {"type": "node", "id": 5081848150, "lat": 47.3772941, "lon": 8.528405}, {"type": "node", "id": 5081848151, "lat": 47.37729, "lon": 8.5284129}, {"type": "node", "id": 5081848152, "lat": 47.3774245, "lon": 8.5281535}, {"type": "node", "id": 5081848153, "lat": 47.3772651, "lon": 8.5283848}, {"type": "node", "id": 5081848154, "lat": 47.3774011, "lon": 8.528127}, {"type": "node", "id": 5081848155, "lat": 47.3782392, "lon": 8.5266598}, {"type": "node", "id": 5081848156, "lat": 47.3781989, "lon": 8.5266372}, {"type": "node", "id": 5081848157, "lat": 47.378246, "lon": 8.5265479}, {"type": "node", "id": 5081848158, "lat": 47.3782536, "lon": 8.5265567}, {"type": "node", "id": 5081848159, "lat": 47.3784571, "lon": 8.5266729}, {"type": "node", "id": 5081848160, "lat": 47.3784422, "lon": 8.5266499}, {"type": "node", "id": 5081848201, "lat": 47.3782813, "lon": 8.5277695}, {"type": "node", "id": 5081848202, "lat": 47.3776391, "lon": 8.5280815}, {"type": "node", "id": 5081848203, "lat": 47.3776348, "lon": 8.5280392}, {"type": "node", "id": 5081848204, "lat": 47.3776906, "lon": 8.5280702}, {"type": "node", "id": 5081848205, "lat": 47.3776863, "lon": 8.5280278}, {"type": "node", "id": 5083782842, "lat": 47.3758998, "lon": 8.5275516}, {"type": "node", "id": 5083782843, "lat": 47.3759222, "lon": 8.5277281}, {"type": "node", "id": 5083782844, "lat": 47.3759005, "lon": 8.5277315}, {"type": "node", "id": 5083782845, "lat": 47.3758722, "lon": 8.5277825}, {"type": "node", "id": 5083782846, "lat": 47.3758923, "lon": 8.5278131}, {"type": "node", "id": 5083782847, "lat": 47.3759693, "lon": 8.5278015}, {"type": "node", "id": 5083782848, "lat": 47.3759591, "lon": 8.527817}, {"type": "node", "id": 5083782872, "lat": 47.3756368, "lon": 8.5285805}, {"type": "node", "id": 5083782873, "lat": 47.3755572, "lon": 8.528455}, {"type": "node", "id": 5083782874, "lat": 47.3756828, "lon": 8.528653}, {"type": "node", "id": 5083782875, "lat": 47.375552, "lon": 8.5284621}, {"type": "node", "id": 5083782876, "lat": 47.3756776, "lon": 8.5286601}, {"type": "node", "id": 5083782879, "lat": 47.3763379, "lon": 8.5282059}, {"type": "node", "id": 5083782880, "lat": 47.3763388, "lon": 8.5281583}, {"type": "node", "id": 5297597985, "lat": 47.3761309, "lon": 8.5281421}, {"type": "node", "id": 5297597986, "lat": 47.3761641, "lon": 8.5280835}, {"type": "node", "id": 5297597997, "lat": 47.3769781, "lon": 8.5279125}, {"type": "node", "id": 5297597999, "lat": 47.3770905, "lon": 8.5278137}, {"type": "node", "id": 5389444407, "lat": 47.3767805, "lon": 8.5280103}, {"type": "node", "id": 5389444408, "lat": 47.3767644, "lon": 8.5280048}, {"type": "node", "id": 5389444409, "lat": 47.37677, "lon": 8.527957}, {"type": "node", "id": 5389444410, "lat": 47.3768558, "lon": 8.5279844}, {"type": "node", "id": 5389444411, "lat": 47.3767247, "lon": 8.5283488}, {"type": "node", "id": 5389444412, "lat": 47.3767297, "lon": 8.5283172}, {"type": "node", "id": 5389444413, "lat": 47.3767171, "lon": 8.5283128}, {"type": "node", "id": 5389444414, "lat": 47.3768207, "lon": 8.5282071}, {"type": "node", "id": 5389444415, "lat": 47.3767382, "lon": 8.5281788}, {"type": "node", "id": 5389444416, "lat": 47.3767946, "lon": 8.5283729}, {"type": "node", "id": 5682255970, "lat": 47.3763768, "lon": 8.5265083}, {"type": "node", "id": 5682255971, "lat": 47.37636, "lon": 8.5264677}, {"type": "node", "id": 5682255972, "lat": 47.3763799, "lon": 8.5265055}, {"type": "node", "id": 5682255973, "lat": 47.3763631, "lon": 8.5264649}, {"type": "node", "id": 5682255974, "lat": 47.3765215, "lon": 8.526228}, {"type": "node", "id": 5682255975, "lat": 47.3764423, "lon": 8.526084}, {"type": "node", "id": 5682255976, "lat": 47.376544, "lon": 8.5261566}, {"type": "node", "id": 5682255977, "lat": 47.3765586, "lon": 8.5259066}, {"type": "node", "id": 5682255978, "lat": 47.3765575, "lon": 8.5259098}, {"type": "node", "id": 5682255979, "lat": 47.3764845, "lon": 8.5259458}, {"type": "node", "id": 5682255980, "lat": 47.3764869, "lon": 8.5259475}, {"type": "node", "id": 5682255981, "lat": 47.3771657, "lon": 8.5264979}, {"type": "node", "id": 6027033726, "lat": 47.3763769, "lon": 8.5268094}, {"type": "node", "id": 6027033727, "lat": 47.3764968, "lon": 8.526929}, {"type": "node", "id": 6027033728, "lat": 47.3764565, "lon": 8.5270173}, {"type": "node", "id": 6027033729, "lat": 47.3764433, "lon": 8.5270041}, {"type": "node", "id": 6027033730, "lat": 47.3764217, "lon": 8.5270512}, {"type": "node", "id": 6027033731, "lat": 47.376435, "lon": 8.5270644}, {"type": "node", "id": 6027033732, "lat": 47.3762592, "lon": 8.5274486}, {"type": "node", "id": 6027033733, "lat": 47.3762459, "lon": 8.5274353}, {"type": "node", "id": 6027033734, "lat": 47.3762673, "lon": 8.5273885}, {"type": "node", "id": 6027033735, "lat": 47.3762807, "lon": 8.5274019}, {"type": "node", "id": 6027033736, "lat": 47.3766969, "lon": 8.5280186}, {"type": "node", "id": 6027033737, "lat": 47.3766721, "lon": 8.5279783}, {"type": "node", "id": 6027033738, "lat": 47.3765984, "lon": 8.528207}, {"type": "node", "id": 6027033739, "lat": 47.3766213, "lon": 8.5281756}, {"type": "node", "id": 6027033740, "lat": 47.3766629, "lon": 8.5281582}, {"type": "node", "id": 6027033741, "lat": 47.3766416, "lon": 8.528123}, {"type": "node", "id": 6027033742, "lat": 47.3766398, "lon": 8.5281254}, {"type": "node", "id": 6027033743, "lat": 47.3766046, "lon": 8.5280674}, {"type": "node", "id": 6027033744, "lat": 47.3765191, "lon": 8.5281797}, {"type": "node", "id": 6027033745, "lat": 47.3765189, "lon": 8.5282173}, {"type": "node", "id": 6027033746, "lat": 47.3766867, "lon": 8.5283378}, {"type": "node", "id": 6027033747, "lat": 47.376692, "lon": 8.5283303}, {"type": "node", "id": 6027033748, "lat": 47.3766964, "lon": 8.528277}, {"type": "node", "id": 6027033749, "lat": 47.3766536, "lon": 8.5282142}, {"type": "node", "id": 6027033750, "lat": 47.3766636, "lon": 8.5281958}, {"type": "node", "id": 6027033751, "lat": 47.3766513, "lon": 8.5281777}, {"type": "node", "id": 6027033752, "lat": 47.3766379, "lon": 8.5282033}, {"type": "node", "id": 6027033753, "lat": 47.3766187, "lon": 8.5282395}, {"type": "node", "id": 6027033754, "lat": 47.3765804, "lon": 8.5283115}, {"type": "node", "id": 6027033756, "lat": 47.3766846, "lon": 8.5279984, "tags": {"addr:city": "Z\u00fcrich", "addr:country": "CH", "addr:housenumber": "88", "addr:postcode": "8004", "addr:street": "M\u00fcllerstrasse"}}, {"type": "node", "id": 6027033757, "lat": 47.3766174, "lon": 8.5283675, "tags": {"addr:city": "Z\u00fcrich", "addr:country": "CH", "addr:housenumber": "121", "addr:postcode": "8004", "addr:street": "Ankerstrasse"}}, {"type": "node", "id": 6027033759, "lat": 47.3764796, "lon": 8.5279199}, {"type": "node", "id": 6027033760, "lat": 47.3764826, "lon": 8.5279155}, {"type": "node", "id": 6027033761, "lat": 47.3765168, "lon": 8.5279684}, {"type": "node", "id": 6027033762, "lat": 47.3764444, "lon": 8.5280653}, {"type": "node", "id": 6027033763, "lat": 47.3764162, "lon": 8.528064}, {"type": "node", "id": 6027033764, "lat": 47.3763991, "lon": 8.5277977}, {"type": "node", "id": 6027033765, "lat": 47.3764014, "lon": 8.5277933}, {"type": "node", "id": 6027033766, "lat": 47.3763899, "lon": 8.5280247, "tags": {"addr:city": "Z\u00fcrich", "addr:country": "CH", "addr:housenumber": "115", "addr:postcode": "8004", "addr:street": "Ankerstrasse"}}, {"type": "node", "id": 6027033767, "lat": 47.3767681, "lon": 8.5268263}, {"type": "node", "id": 6027033768, "lat": 47.3769394, "lon": 8.526831}, {"type": "node", "id": 6027033769, "lat": 47.3769394, "lon": 8.5268392}, {"type": "node", "id": 6027033770, "lat": 47.3768927, "lon": 8.5269874}, {"type": "node", "id": 6027033771, "lat": 47.3768344, "lon": 8.526986}, {"type": "node", "id": 6027033772, "lat": 47.3768252, "lon": 8.5269901}, {"type": "node", "id": 6027033773, "lat": 47.3768263, "lon": 8.5270219}, {"type": "node", "id": 6027033774, "lat": 47.3768171, "lon": 8.5270147}, {"type": "node", "id": 6027033775, "lat": 47.3767262, "lon": 8.5269314}, {"type": "node", "id": 6027033776, "lat": 47.3765193, "lon": 8.5274181}, {"type": "node", "id": 6027033777, "lat": 47.3765942, "lon": 8.5272306}, {"type": "node", "id": 6027033778, "lat": 47.3766035, "lon": 8.5272368}, {"type": "node", "id": 6027033779, "lat": 47.3766788, "lon": 8.5270477}, {"type": "node", "id": 6027033780, "lat": 47.3767796, "lon": 8.5271378}, {"type": "node", "id": 6027033781, "lat": 47.3766506, "lon": 8.5274594}, {"type": "node", "id": 6027033782, "lat": 47.376628, "lon": 8.5274396}, {"type": "node", "id": 6027033783, "lat": 47.3766012, "lon": 8.5275079}, {"type": "node", "id": 6027033784, "lat": 47.3765485, "lon": 8.5276287}, {"type": "node", "id": 6027035585, "lat": 47.3765374, "lon": 8.527615}, {"type": "node", "id": 6027035586, "lat": 47.376597, "lon": 8.5275038}, {"type": "node", "id": 6027035587, "lat": 47.3765216, "lon": 8.5274211}, {"type": "node", "id": 6027035588, "lat": 47.3764098, "lon": 8.5276547}, {"type": "node", "id": 6027035589, "lat": 47.3766137, "lon": 8.5276471}, {"type": "node", "id": 6027035590, "lat": 47.3766308, "lon": 8.5276738}, {"type": "node", "id": 6027035591, "lat": 47.3766141, "lon": 8.5276956}, {"type": "node", "id": 6027035592, "lat": 47.3765993, "lon": 8.5276731}, {"type": "node", "id": 6027035593, "lat": 47.3765642, "lon": 8.5277202}, {"type": "node", "id": 6027035594, "lat": 47.3765563, "lon": 8.5277093}, {"type": "node", "id": 6027035595, "lat": 47.3765753, "lon": 8.527684}, {"type": "node", "id": 6027035596, "lat": 47.3765434, "lon": 8.5276362}, {"type": "node", "id": 6027035597, "lat": 47.3764717, "lon": 8.5277475}, {"type": "node", "id": 6027035598, "lat": 47.3765716, "lon": 8.5278964}, {"type": "node", "id": 6027035599, "lat": 47.3767639, "lon": 8.5274553}, {"type": "node", "id": 6027035600, "lat": 47.3767348, "lon": 8.5274949}, {"type": "node", "id": 6027035601, "lat": 47.3767255, "lon": 8.5274785}, {"type": "node", "id": 6027035602, "lat": 47.3766738, "lon": 8.5275468}, {"type": "node", "id": 6027035603, "lat": 47.3766807, "lon": 8.5275584}, {"type": "node", "id": 6027035604, "lat": 47.3766437, "lon": 8.5276082}, {"type": "node", "id": 6027035605, "lat": 47.3767084, "lon": 8.5277154}, {"type": "node", "id": 6027035606, "lat": 47.3767757, "lon": 8.5274713}, {"type": "node", "id": 6027035607, "lat": 47.3768317, "lon": 8.5275522}, {"type": "node", "id": 6027035608, "lat": 47.3769304, "lon": 8.5270593}, {"type": "node", "id": 6027035609, "lat": 47.3768693, "lon": 8.5272204}, {"type": "node", "id": 6027035610, "lat": 47.3768421, "lon": 8.5271979}, {"type": "node", "id": 6027035611, "lat": 47.3768148, "lon": 8.5272709}, {"type": "node", "id": 6027035612, "lat": 47.3768388, "lon": 8.5272976}, {"type": "node", "id": 6027035613, "lat": 47.3768846, "lon": 8.5273488}, {"type": "node", "id": 6027035614, "lat": 47.3769349, "lon": 8.5274152}, {"type": "node", "id": 6027035615, "lat": 47.3769373, "lon": 8.5274116}, {"type": "node", "id": 6027035616, "lat": 47.3769165, "lon": 8.5273829}, {"type": "node", "id": 6027035617, "lat": 47.3769331, "lon": 8.5269644}, {"type": "node", "id": 6027035618, "lat": 47.3769623, "lon": 8.5269842}, {"type": "node", "id": 6027035619, "lat": 47.3769359, "lon": 8.527064}, {"type": "node", "id": 6027035620, "lat": 47.3770117, "lon": 8.5271255}, {"type": "node", "id": 6027035621, "lat": 47.3770492, "lon": 8.5270238}, {"type": "node", "id": 6027035622, "lat": 47.3770598, "lon": 8.5270238}, {"type": "node", "id": 6027035623, "lat": 47.3770603, "lon": 8.5269924}, {"type": "node", "id": 6027035624, "lat": 47.3770737, "lon": 8.5269555}, {"type": "node", "id": 6027035625, "lat": 47.3770853, "lon": 8.5269562}, {"type": "node", "id": 6027035626, "lat": 47.3770848, "lon": 8.5269248}, {"type": "node", "id": 6027035627, "lat": 47.3771047, "lon": 8.5268722}, {"type": "node", "id": 6027035628, "lat": 47.3770871, "lon": 8.5268619}, {"type": "node", "id": 6027035629, "lat": 47.3770871, "lon": 8.5268428}, {"type": "node", "id": 6027035630, "lat": 47.3770409, "lon": 8.5268421}, {"type": "node", "id": 6027035631, "lat": 47.3770409, "lon": 8.5268339}, {"type": "node", "id": 6027035632, "lat": 47.3769743, "lon": 8.5268319}, {"type": "node", "id": 7658430209, "lat": 47.3769038, "lon": 8.5283796}, {"type": "node", "id": 7658430210, "lat": 47.3769058, "lon": 8.528313}, {"type": "node", "id": 7658430211, "lat": 47.3769117, "lon": 8.5282751}, {"type": "node", "id": 7658430212, "lat": 47.3769139, "lon": 8.5283157}, {"type": "node", "id": 7658430213, "lat": 47.3769198, "lon": 8.5282779}, {"type": "node", "id": 7658430214, "lat": 47.3769943, "lon": 8.5284702}, {"type": "node", "id": 7658430215, "lat": 47.376977, "lon": 8.5284995}, {"type": "node", "id": 7658430216, "lat": 47.3769699, "lon": 8.5284904}, {"type": "node", "id": 7658430217, "lat": 47.3769872, "lon": 8.528461}, {"type": "node", "id": 7658430218, "lat": 47.3770408, "lon": 8.5283915}, {"type": "node", "id": 7658430219, "lat": 47.3770236, "lon": 8.5284205}, {"type": "node", "id": 7658430220, "lat": 47.3770165, "lon": 8.5284113}, {"type": "node", "id": 7658430221, "lat": 47.3770337, "lon": 8.5283823}, {"type": "node", "id": 7658430222, "lat": 47.376991, "lon": 8.5282331}, {"type": "node", "id": 7658430223, "lat": 47.3770185, "lon": 8.528264}, {"type": "node", "id": 7658430224, "lat": 47.3770131, "lon": 8.5282746}, {"type": "node", "id": 7658430225, "lat": 47.3769855, "lon": 8.5282437}, {"type": "node", "id": 7658430226, "lat": 47.3767371, "lon": 8.5281784}, {"type": "node", "id": 7658430227, "lat": 47.3771213, "lon": 8.5278262}, {"type": "node", "id": 7658430228, "lat": 47.3770875, "lon": 8.5278901}, {"type": "node", "id": 7658430229, "lat": 47.3771516, "lon": 8.5276928}, {"type": "node", "id": 7658430230, "lat": 47.3772804, "lon": 8.5279296}, {"type": "node", "id": 7658430231, "lat": 47.3772563, "lon": 8.5276466}, {"type": "node", "id": 7658430232, "lat": 47.3772535, "lon": 8.5276516}, {"type": "node", "id": 7658430233, "lat": 47.3772067, "lon": 8.5275944}, {"type": "node", "id": 7658430234, "lat": 47.377079, "lon": 8.5278872}, {"type": "node", "id": 7658430235, "lat": 47.3771475, "lon": 8.5276951}, {"type": "node", "id": 7658430236, "lat": 47.3771499, "lon": 8.5276908}, {"type": "node", "id": 7658430237, "lat": 47.377196, "lon": 8.5277543}, {"type": "node", "id": 7658430238, "lat": 47.3771948, "lon": 8.5277563}, {"type": "node", "id": 7658430239, "lat": 47.3769829, "lon": 8.5281051}, {"type": "node", "id": 7658439198, "lat": 47.3769061, "lon": 8.5285541}, {"type": "node", "id": 7658439199, "lat": 47.376894, "lon": 8.5285402}, {"type": "node", "id": 7658439200, "lat": 47.3768997, "lon": 8.5285292}, {"type": "node", "id": 7658439201, "lat": 47.3769118, "lon": 8.5285431}, {"type": "node", "id": 7658439202, "lat": 47.3769262, "lon": 8.5285596}, {"type": "node", "id": 7658439203, "lat": 47.3768855, "lon": 8.5285129}, {"type": "node", "id": 7658439204, "lat": 47.3768863, "lon": 8.5285114}, {"type": "node", "id": 7658439205, "lat": 47.3769271, "lon": 8.528558}, {"type": "node", "id": 7658439206, "lat": 47.3768894, "lon": 8.5284154}, {"type": "node", "id": 7658439207, "lat": 47.3768955, "lon": 8.5283767}, {"type": "node", "id": 7658439208, "lat": 47.3768977, "lon": 8.5284182}, {"type": "node", "id": 9657931964, "lat": 47.3778417, "lon": 8.5268495}, {"type": "node", "id": 9833316631, "lat": 47.3784002, "lon": 8.5257828}, {"type": "node", "id": 10874404744, "lat": 47.3777537, "lon": 8.5259573, "tags": {"entrance": "main"}}, {"type": "node", "id": 10874404745, "lat": 47.3778344, "lon": 8.5258264, "tags": {"entrance": "main"}}, {"type": "node", "id": 10900421289, "lat": 47.3765274, "lon": 8.5274275}, {"type": "node", "id": 10900421291, "lat": 47.3766949, "lon": 8.5270081, "tags": {"barrier": "gate"}}, {"type": "node", "id": 10900421292, "lat": 47.3767961, "lon": 8.527097}, {"type": "node", "id": 10900421295, "lat": 47.3768125, "lon": 8.5270561}, {"type": "node", "id": 10900421296, "lat": 47.3767155, "lon": 8.5269578}, {"type": "node", "id": 10900421420, "lat": 47.3770015, "lon": 8.5271531}, {"type": "node", "id": 10900421421, "lat": 47.3769199, "lon": 8.527087}, {"type": "node", "id": 10900421422, "lat": 47.3769094, "lon": 8.5271147}, {"type": "node", "id": 10900421423, "lat": 47.3769907, "lon": 8.5271823}, {"type": "way", "id": 28446822, "nodes": [312531630, 2261078767, 914703166, 312531632, 312531634, 312531630], "tags": {"building": "yes", "name": "Volkshaus", "wikidata": "Q689762", "wikimedia_commons": "File:Volkshaus-zuerich.jpg", "wikipedia": "de:Volkshaus (Z\u00fcrich)"}}, {"type": "way", "id": 28943346, "nodes": [318206585, 28137445, 318207333, 6027033732, 6027033733, 6027033734, 6027033735, 318207327, 6027033731, 6027033730, 6027033729, 6027033728, 6027033727, 6027033726, 318206585], "tags": {"building": "public", "building:levels": "6", "building:material": "concrete", "building:roof": "flat", "name": "Amtshaus Helvetiaplatz", "owner": "Immobilien Stadt Z\u00fcrich (IMMO)", "roof:levels": "0", "start_date": "1963"}}, {"type": "way", "id": 39985864, "nodes": [4246061204, 480426249, 2015772181, 920508326, 4246061205, 920508521, 5682255981, 920508356, 920508460, 480426250, 4246061203, 2015772178, 1486118366, 4246061204], "tags": {"building": "public", "name": "Kollerhof", "owner": "Immobilien Stadt Z\u00fcrich (IMMO)"}}, {"type": "way", "id": 56004913, "nodes": [702999091, 702999087, 702999086, 702999090, 2956815183, 702999091], "tags": {"addr:housenumber": "54", "addr:street": "Kanzleistrasse", "amenity": "nightclub", "building": "yes", "name": "Kanzlei Turnhalle", "roof:shape": "hipped", "wheelchair": "limited"}}, {"type": "way", "id": 61637182, "nodes": [768439915, 768439918, 768439921, 768439923, 914703191, 768439915], "tags": {"building": "yes"}}, {"type": "way", "id": 61637193, "nodes": [768440303, 1241219710, 768440308, 1241219887, 768440314, 768440320, 1241219593, 1241219918, 1241219761, 768440303], "tags": {"building": "apartments", "building:levels": "5", "roof:levels": "1"}}, {"type": "way", "id": 61637195, "nodes": [768440348, 5081848154, 5081848152, 5081848149, 5081848148, 5081848147, 5081848150, 5081848151, 5081848153, 768440353, 768440357, 5081848139, 5081848140, 5081848146, 5081848143, 920508351, 5081848144, 5081848145, 5081848142, 5081848141, 768440364, 768440348], "tags": {"building": "apartments"}}, {"type": "way", "id": 71504794, "nodes": [850608271, 850608016, 5083782842, 914702977, 914703239, 914703205, 850608104, 3461322033, 914703007, 914702993, 914702943, 3926182142, 850608202, 850608293, 914703192, 5083782876, 5083782874, 5083782872, 5083782873, 5083782875, 850608081, 914702935, 914702989, 914703004, 914703038, 5083782846, 5083782845, 914703025, 5083782844, 850608176, 5083782843, 914703118, 5083782847, 5083782848, 850608183, 920508440, 850608271], "tags": {"building": "yes"}}, {"type": "way", "id": 71504809, "nodes": [5297597985, 1320113402, 1320113404, 850608263, 850608085, 914702996, 914703028, 914703236, 914703116, 5297597985], "tags": {"building": "apartments"}}, {"type": "way", "id": 73305969, "nodes": [869460738, 869461521, 869460816, 920508423, 869461044, 869460738], "tags": {"building": "yes"}}, {"type": "way", "id": 73305973, "nodes": [869461482, 3477874433, 3477874431, 920552760, 869460962, 869461179, 3477874424, 3477874426, 869461367, 869461482], "tags": {"building": "yes", "building:colour": "#d14836", "building:levels": "4", "building:material": "plaster", "roof:levels": "1", "roof:shape": "gabled"}}, {"type": "way", "id": 73305981, "nodes": [869460879, 869461272, 869461422, 869461661, 4518003920, 4518003921, 4518003922, 4518003923, 4518003918, 4518003919, 869460879], "tags": {"addr:city": "Z\u00fcrich", "addr:country": "CH", "addr:housenumber": "36", "addr:postcode": "8004", "addr:street": "Brauerstrasse", "building": "yes", "roof:shape": "gabled"}}, {"type": "way", "id": 73305982, "nodes": [869461402, 869460857, 869461087, 4246086951, 4246086953, 869461312, 869461402], "tags": {"addr:city": "Z\u00fcrich", "addr:country": "CH", "addr:housenumber": "80", "addr:postcode": "8004", "addr:street": "Langstrasse", "building": "yes", "building:colour": "#d14836", "building:levels": "3", "building:material": "plaster", "roof:levels": "1", "roof:shape": "gabled"}}, {"type": "way", "id": 73305987, "nodes": [871794839, 5081845599, 5081845598, 869461599, 871794831, 869460890, 10874404745, 871794842, 869461109, 869460818, 869461352, 9833316631, 869461454, 871794833, 871794864, 871794843, 871794828, 871794860, 871794841, 869460929, 5081845597, 869461142, 871794857, 5081845601, 5081845600, 871794839], "tags": {"building": "yes"}}, {"type": "way", "id": 73305992, "nodes": [869461161, 869461003, 869461234, 869461394, 920508480, 3578338484, 3578338486, 3578338485, 869461161], "tags": {"building": "yes"}}, {"type": "way", "id": 73306003, "nodes": [869461242, 920508396, 5297597997, 5081848129, 5081848131, 7658430234, 7658430228, 7658430227, 5297597999, 5081848132, 5081848128, 920508366, 7658430236, 7658430229, 7658430233, 3477874410, 869461242], "tags": {"building": "yes"}}, {"type": "way", "id": 73306004, "nodes": [869461066, 869460915, 869461124, 920508310, 869461342, 869461066], "tags": {"building": "yes"}}, {"type": "way", "id": 73306006, "nodes": [869461606, 869461052, 869461294, 869461431, 869461606], "tags": {"addr:city": "Z\u00fcrich", "addr:country": "CH", "addr:housenumber": "78", "addr:postcode": "8004", "addr:street": "Langstrasse", "building": "yes", "building:colour": "#d14836", "building:levels": "1", "building:material": "plaster", "roof:levels": "0", "roof:shape": "gabled"}}, {"type": "way", "id": 73306007, "nodes": [869461296, 1241219674, 5081848158, 5081848157, 5081848156, 5081848155, 869461610, 869460896, 5081848160, 5081848159, 1241219788, 1241219970, 1241219697, 869460913, 869461122, 1241219997, 1241219576, 869461341, 1241219658, 1241219911, 869461507, 869460804, 869461296], "tags": {"building": "yes"}}, {"type": "way", "id": 73306011, "nodes": [869461321, 869461157, 3477874440, 869461338, 4518003934, 4518003935, 4518003936, 2583985885, 2583985891, 869461543, 4518003931, 4518003932, 869461321], "tags": {"building": "yes"}}, {"type": "way", "id": 73306031, "nodes": [4246086915, 920508385, 4246086917, 4246086918, 4246086920, 4246086919, 869461601, 4246086923, 4246086924, 4246086916, 4246086914, 869461048, 4246086913, 4246086912, 4246086909, 4246086911, 4246086908, 4246086910, 3477874415, 3477874417, 4246086915], "tags": {"building": "yes", "building:colour": "grey", "building:levels": "6", "building:material": "concrete", "roof:levels": "1", "roof:shape": "flat"}}, {"type": "way", "id": 73306043, "nodes": [869461107, 7658430224, 7658430223, 7658430222, 7658430225, 869460950, 7658430213, 7658430211, 7658430210, 7658430212, 7658430209, 7658439207, 7658439206, 7658439208, 869461167, 7658439204, 7658439203, 7658439200, 7658439199, 7658439198, 7658439201, 7658439202, 7658439205, 3477874402, 7658430216, 7658430215, 7658430214, 7658430217, 7658430220, 7658430219, 7658430218, 7658430221, 869461107], "tags": {"building": "yes"}}, {"type": "way", "id": 73306044, "nodes": [869460796, 869461022, 4246086963, 1241219627, 1241219701, 869461358, 4246086961, 869460796], "tags": {"building": "yes"}}, {"type": "way", "id": 73306053, "nodes": [869461401, 869461311, 869461450, 869460727, 1241219829, 869461401], "tags": {"building": "apartments", "building:levels": "3", "building:roof": "tile", "roof:levels": "1"}}, {"type": "way", "id": 73306064, "nodes": [869461312, 869461147, 869460959, 869461673, 869460742, 9657931964, 869461312], "tags": {"addr:city": "Z\u00fcrich", "addr:country": "CH", "addr:housenumber": "37", "addr:postcode": "8004", "addr:street": "Brauerstrasse", "building": "yes", "start_date": "2017-09"}}, {"type": "way", "id": 73306066, "nodes": [869460975, 4518003934, 869461338, 869461345, 869461513, 3578338489, 3578338490, 3578338492, 3578338491, 869460975], "tags": {"addr:city": "Z\u00fcrich", "addr:country": "CH", "addr:housenumber": "42", "addr:postcode": "8004", "addr:street": "Brauerstrasse", "building": "yes"}}, {"type": "way", "id": 78440688, "nodes": [920508324, 920508285, 920508420, 920508306, 920508348, 6027033764, 6027033765, 920508324], "tags": {"building": "yes"}}, {"type": "way", "id": 108149418, "nodes": [1241219983, 1241219639, 1241219893, 1241219719, 1241219866, 1241219983], "tags": {"building": "yes", "building:roof": "tile"}}, {"type": "way", "id": 108149423, "nodes": [1241219717, 5081848125, 1241219953, 1241219762, 1241219595, 1241219563, 1241219657, 1241219717], "tags": {"building": "yes"}}, {"type": "way", "id": 108149428, "nodes": [1241219833, 1241219973, 1241219783, 1241219950, 1241219752, 1241219833], "tags": {"building": "yes", "building:roof": "tile"}}, {"type": "way", "id": 108149437, "nodes": [1241219949, 1241219621, 1241219955, 1241219673, 1241219765, 1241219949], "tags": {"building": "yes"}}, {"type": "way", "id": 108149441, "nodes": [1241219851, 1241219983, 1241219866, 1241219601, 1241219660, 1241219851], "tags": {"building": "yes", "building:roof": "tile"}}, {"type": "way", "id": 108149446, "nodes": [5081848125, 1241219645, 1241219934, 1241219795, 1241219742, 1241219953, 5081848125], "tags": {"building": "yes"}}, {"type": "way", "id": 108149449, "nodes": [1241219661, 5081848201, 1241219846, 1241219746, 1241219967, 1241219661], "tags": {"building": "yes", "building:roof": "tile"}}, {"type": "way", "id": 108149452, "nodes": [1241219765, 1241219717, 1241219657, 1241219563, 1241219673, 1241219765], "tags": {"building": "yes"}}, {"type": "way", "id": 108149457, "nodes": [1241219679, 1241219605, 1241219832, 1241219646, 1241219936, 1241219744, 1241219977, 1241219679], "tags": {"building": "apartments", "building:roof": "flat"}}, {"type": "way", "id": 108149461, "nodes": [1241219846, 1241219952, 1241219623, 1241219803, 1241219633, 5081848201, 1241219846], "tags": {"building": "yes", "building:roof": "tile"}}, {"type": "way", "id": 108149475, "nodes": [1241220013, 1241219668, 1241219631, 1241219927, 1241219732, 1241220013], "tags": {"building": "apartments", "building:roof": "tile"}}, {"type": "way", "id": 135309642, "nodes": [4005581156, 1486118351, 1486118357, 5682255974, 5682255976, 5682255975, 480426252, 4246061192, 4246061191, 5682255973, 5682255971, 5682255970, 5682255972, 4246061193, 4246061194, 28137444, 920508413, 4246061197, 4005581156], "tags": {"building": "yes"}}, {"type": "way", "id": 231109489, "nodes": [2395154651, 2395154653, 2395154656, 4518003930, 4518003929, 4518003927, 4518003928, 2395154658, 4518003926, 2395154660, 4518003918, 4518003923, 2395154662, 4518003925, 4518003924, 2395154651], "tags": {"building": "yes"}}, {"type": "way", "id": 252342117, "nodes": [2583985878, 2583985880, 2583985882, 2583985884, 2583985878], "tags": {"addr:city": "Z\u00fcrich", "addr:country": "CH", "addr:housenumber": "40", "addr:postcode": "8004", "addr:street": "Brauerstrasse", "building": "residential"}}, {"type": "way", "id": 252342118, "nodes": [2583985885, 4518003933, 2583985886, 2583985887, 2583985891, 2583985885], "tags": {"building": "residential"}}, {"type": "way", "id": 352058498, "nodes": [920508369, 869461003, 869461161, 3578338488, 3578338487, 920508369], "tags": {"addr:city": "Z\u00fcrich", "addr:country": "CH", "addr:housenumber": "30a", "addr:postcode": "8004", "addr:street": "Brauerstrasse", "building": "yes"}}, {"type": "way", "id": 425261695, "nodes": [4245900590, 4245900589, 4245900585, 4245900587, 4245900590], "tags": {"addr:housenumber": "79", "addr:street": "Stauffacherstrasse", "building": "yes"}}, {"type": "way", "id": 425286714, "nodes": [4246049698, 3477874421, 3477874425, 871794856, 871794845, 4246049707, 4246049708, 871794837, 4246049706, 4246049704, 4246049698], "tags": {"building": "yes"}}, {"type": "way", "id": 425286716, "nodes": [4246049710, 871794867, 871794852, 871794825, 4246049711, 4246049710], "tags": {"building": "yes"}}, {"type": "way", "id": 425286717, "nodes": [4246049690, 871794868, 4246049691, 4246049692, 869461674, 4246049690], "tags": {"building": "yes"}}, {"type": "way", "id": 425286720, "nodes": [4246049691, 871794853, 4246049698, 4246049704, 4246049702, 869461430, 3477874418, 3477874416, 4246049692, 4246049691], "tags": {"building": "yes"}}, {"type": "way", "id": 425288501, "nodes": [4246061197, 920508304, 4246061199, 4246061200, 4005581156, 4246061197], "tags": {"building": "yes"}}, {"type": "way", "id": 425288503, "nodes": [2015772164, 4246061201, 4246061202, 871794849, 4246061198, 2015772164], "tags": {"building": "yes"}}, {"type": "way", "id": 425288504, "nodes": [4246061199, 920508463, 4246061203, 2015772178, 4005581158, 4005581157, 4246061200, 4246061199], "tags": {"building": "yes"}}, {"type": "way", "id": 425288505, "nodes": [4246061201, 2015772171, 2015772175, 1486118366, 4246061204, 871794830, 4246061202, 4246061201], "tags": {"building": "office"}}, {"type": "way", "id": 425288506, "nodes": [4246061196, 1486118355, 2015772161, 2015772164, 4246061198, 5682255978, 5682255977, 480426254, 5682255979, 5682255980, 5682255975, 5682255976, 4246061196], "tags": {"building": "yes"}}, {"type": "way", "id": 425291462, "nodes": [4246086956, 4246086950, 1241219735, 1241219928, 1241219643, 3477874436, 1241219586, 4246086956], "tags": {"addr:city": "Z\u00fcrich", "addr:country": "CH", "addr:housenumber": "81", "addr:postcode": "8004", "addr:street": "Langstrasse", "building": "yes"}}, {"type": "way", "id": 425291465, "nodes": [4246086961, 4246086956, 1241219586, 1241219750, 869461652, 4246086958, 4246086957, 4246086959, 4246086960, 869460931, 871794840, 869461154, 4246086963, 869461022, 869461259, 4246086962, 869460796, 4246086961], "tags": {"building": "yes"}}, {"type": "way", "id": 425291466, "nodes": [4246086930, 869461173, 869461366, 4246086915, 3477874417, 4246086906, 4246086907, 936942693, 4246086905, 4246086904, 4246086901, 4246086903, 4246086900, 4246086902, 869461288, 869461429, 4246086921, 4246086922, 4246086926, 4246086925, 4246086927, 4246086928, 4246086931, 4246086929, 4246086932, 4246086933, 4246086935, 4246086934, 936942707, 4246086936, 4246086937, 4246086939, 4246086938, 4246086940, 4246086941, 4246086944, 4246086943, 4246086945, 4246086930], "tags": {"building": "yes", "building:colour": "grey", "building:levels": "6", "building:material": "concrete", "roof:levels": "1", "roof:shape": "flat"}}, {"type": "way", "id": 425291467, "nodes": [4246086947, 4246086930, 4246086945, 920508494, 4246086954, 4246086947], "tags": {"building": "yes", "building:colour": "grey", "building:levels": "6", "building:material": "concrete", "roof:levels": "1", "roof:shape": "flat"}}, {"type": "way", "id": 425291468, "nodes": [4246086954, 920508410, 869461673, 869460959, 4246086947, 4246086954], "tags": {"building": "yes", "building:colour": "grey", "building:levels": "6", "building:material": "concrete", "roof:levels": "1", "roof:shape": "flat"}}, {"type": "way", "id": 425291469, "nodes": [4246086955, 3477874435, 4246086952, 4246086946, 4246086948, 4246086949, 4246086955], "tags": {"building": "yes"}}, {"type": "way", "id": 425291470, "nodes": [4246086949, 869460827, 10874404744, 869461685, 1241219612, 1241219947, 4246086955, 4246086949], "tags": {"building": "yes"}}, {"type": "way", "id": 425291471, "nodes": [4246086952, 869461496, 1241219735, 4246086950, 3477874432, 869461534, 871794854, 4246086942, 4246086946, 4246086952], "tags": {"building": "residential", "owner": "Stiftung PWG", "start_date": "1892"}}, {"type": "way", "id": 493253457, "nodes": [4851815763, 4851815761, 4851815760, 4851815762, 4851815763], "tags": {"addr:housenumber": "101", "addr:street": "Ankerstrasse", "building": "service", "building:levels": "1"}}, {"type": "way", "id": 521576312, "nodes": [5081848205, 5081848203, 5081848202, 5081848204, 5081848205], "tags": {"addr:city": "Z\u00fcrich", "addr:country": "CH", "addr:housenumber": "19a", "addr:postcode": "8004", "addr:street": "Dienerstrasse", "building": "yes"}}, {"type": "way", "id": 548362722, "nodes": [914703116, 914703195, 5083782879, 5083782880, 914703070, 850608174, 5297597986, 5297597985, 914703116], "tags": {"building": "apartments"}}, {"type": "way", "id": 558764358, "nodes": [920508327, 5389444407, 5389444408, 7658430226, 5389444415, 5389444414, 936942900, 5389444410, 920508327], "tags": {"building": "residential", "owner": "Stiftung PWG", "start_date": "1893"}}, {"type": "way", "id": 558764361, "nodes": [5389444416, 936942835, 5389444414, 5389444415, 5389444413, 5389444412, 5389444411, 5389444416], "tags": {"building": "residential", "owner": "Stiftung PWG", "start_date": "1890"}}, {"type": "way", "id": 558764364, "nodes": [5389444410, 480426244, 920508547, 920508399, 920508477, 920508433, 5389444409, 920508327, 5389444410], "tags": {"building": "yes"}}, {"type": "way", "id": 639659586, "nodes": [6027033743, 6027033737, 6027033756, 6027033736, 6027033741, 6027033742, 6027033743], "tags": {"building": "apartments"}}, {"type": "way", "id": 639659587, "nodes": [6027033754, 6027033745, 6027033744, 6027033743, 6027033742, 6027033741, 6027033740, 6027033751, 6027033752, 6027033739, 6027033738, 6027033753, 6027033754], "tags": {"building": "yes"}}, {"type": "way", "id": 639659589, "nodes": [920508485, 6027033757, 6027033754, 6027033753, 6027033752, 6027033751, 6027033750, 6027033749, 6027033748, 6027033747, 6027033746, 480426247, 920508485], "tags": {"building": "apartments"}}, {"type": "way", "id": 639659591, "nodes": [920508306, 6027033766, 6027033763, 6027033762, 6027033761, 6027033760, 6027033759, 920508348, 920508306], "tags": {"building": "yes"}}, {"type": "way", "id": 639659592, "nodes": [6027033774, 6027033772, 6027033771, 6027033770, 6027033769, 6027033768, 6027033767, 6027033775, 6027033774], "tags": {"building": "yes"}}, {"type": "way", "id": 639659594, "nodes": [6027033779, 10900421291, 10900421296, 6027033775, 6027033774, 6027033773, 10900421295, 10900421292, 6027033780, 6027033781, 6027033782, 6027033783, 6027035586, 10900421289, 6027035587, 6027033776, 6027033777, 6027033778, 6027033779], "tags": {"building": "commercial"}}, {"type": "way", "id": 639659597, "nodes": [6027035597, 6027035588, 6027035587, 10900421289, 6027035586, 6027035585, 6027033784, 6027035596, 6027035597], "tags": {"building": "yes"}}, {"type": "way", "id": 639659599, "nodes": [6027035605, 6027035598, 6027035597, 6027035596, 6027035595, 6027035594, 6027035593, 6027035592, 6027035591, 6027035590, 6027035589, 6027035604, 6027035605], "tags": {"building": "apartments"}}, {"type": "way", "id": 639659600, "nodes": [6027035607, 6027035605, 6027035604, 6027035603, 6027035602, 6027035601, 6027035600, 6027035599, 6027035606, 6027035607], "tags": {"building": "yes"}}, {"type": "way", "id": 639659602, "nodes": [6027035614, 6027035607, 6027035606, 6027035612, 6027035613, 6027035614], "tags": {"building": "yes"}}, {"type": "way", "id": 639659604, "nodes": [6027035620, 10900421420, 10900421423, 6027035616, 6027035615, 6027035614, 6027035613, 6027035612, 6027035611, 6027035610, 6027035609, 10900421422, 10900421421, 6027035608, 6027035619, 6027035620], "tags": {"building": "yes"}}, {"type": "way", "id": 639659605, "nodes": [6027035632, 6027035631, 6027035630, 6027035629, 6027035628, 6027035627, 6027035626, 6027035625, 6027035624, 6027035623, 6027035622, 6027035621, 6027035620, 6027035619, 6027035618, 6027035617, 6027035632], "tags": {"building": "yes"}}, {"type": "way", "id": 820159542, "nodes": [869460846, 7658430231, 7658430232, 7658430237, 7658430238, 920508328, 5081848133, 7658430230, 920508388, 3477874422, 869460846], "tags": {"building": "yes"}}, {"type": "way", "id": 820159543, "nodes": [5081848133, 5081848134, 920508466, 920508438, 920508528, 7658430230, 5081848133], "tags": {"building": "yes"}}, {"type": "way", "id": 820159544, "nodes": [7658430237, 7658430232, 7658430233, 7658430229, 7658430236, 7658430235, 7658430237], "tags": {"building": "yes"}}, {"type": "way", "id": 820159545, "nodes": [3477874407, 3477874409, 920508417, 920508501, 5081848130, 5081848129, 5297597997, 920508454, 3477874405, 7658430239, 3477874407], "tags": {"building": "yes"}}, {"type": "way", "id": 820159546, "nodes": [920508417, 3477874409, 3477874408, 869461631, 920508471, 920508526, 920508305, 920508417], "tags": {"building": "yes"}}, {"type": "way", "id": 1050971853, "nodes": [9657931964, 3477874439, 869460863, 869461402, 869461312, 9657931964], "tags": {"addr:city": "Z\u00fcrich", "addr:housenumber": "84", "addr:postcode": "8004", "addr:street": "Langstrasse", "building": "yes", "start_date": "2017-09"}}]}