{"version": 0.6, "generator": "Overpass API 0.7.60.6 e2dc3e5b", "osm3s": {"timestamp_osm_base": "2023-06-29T12:42:28Z", "copyright": "The data included in this document is from www.openstreetmap.org. The data is made available under ODbL."}, "elements": [{"type": "node", "id": 480426166, "lat": 47.3751874, "lon": 8.5287207}, {"type": "node", "id": 480426167, "lat": 47.3747719, "lon": 8.5292673}, {"type": "node", "id": 480426168, "lat": 47.3748536, "lon": 8.5294455, "tags": {"addr:city": "Z\u00fcrich", "addr:country": "CH", "addr:housenumber": "39", "addr:postcode": "8004", "addr:street": "St. Jakobstrasse"}}, {"type": "node", "id": 480426169, "lat": 47.375235, "lon": 8.5288737}, {"type": "node", "id": 480426171, "lat": 47.3752611, "lon": 8.5288406}, {"type": "node", "id": 480426180, "lat": 47.3749268, "lon": 8.5293265}, {"type": "node", "id": 480426188, "lat": 47.3753634, "lon": 8.5294129}, {"type": "node", "id": 480426189, "lat": 47.3752577, "lon": 8.52955}, {"type": "node", "id": 480426194, "lat": 47.3751069, "lon": 8.5292719}, {"type": "node", "id": 914703122, "lat": 47.3751225, "lon": 8.5296586, "tags": {"addr:city": "Z\u00fcrich", "addr:country": "CH", "addr:housenumber": "43", "addr:postcode": "8004", "addr:street": "M\u00fcllerstrasse"}}, {"type": "node", "id": 914703169, "lat": 47.3753018, "lon": 8.5294976, "tags": {"addr:city": "Z\u00fcrich", "addr:country": "CH", "addr:housenumber": "45", "addr:postcode": "8004", "addr:street": "M\u00fcllerstrasse"}}, {"type": "node", "id": 914703183, "lat": 47.3749382, "lon": 8.5295638, "tags": {"addr:city": "Z\u00fcrich", "addr:country": "CH", "addr:housenumber": "41", "addr:postcode": "8004", "addr:street": "St. Jakobstrasse"}}, {"type": "node", "id": 1567061717, "lat": 47.3750663, "lon": 8.5297318}, {"type": "node", "id": 1567061722, "lat": 47.3750564, "lon": 8.5295027}, {"type": "node", "id": 1567061723, "lat": 47.3751097, "lon": 8.5294391}, {"type": "node", "id": 1567061724, "lat": 47.3751366, "lon": 8.529324}, {"type": "node", "id": 1567061725, "lat": 47.375189, "lon": 8.5295773}, {"type": "node", "id": 1567061726, "lat": 47.3751773, "lon": 8.5294467}, {"type": "node", "id": 1567061728, "lat": 47.3752248, "lon": 8.529129}, {"type": "node", "id": 1567061729, "lat": 47.3751811, "lon": 8.5292647}, {"type": "node", "id": 1567061730, "lat": 47.3752396, "lon": 8.5293641}, {"type": "node", "id": 1567061733, "lat": 47.3753108, "lon": 8.5292752}, {"type": "node", "id": 3461321960, "lat": 47.374769, "lon": 8.5293117}, {"type": "node", "id": 3461321974, "lat": 47.374915, "lon": 8.5295284}, {"type": "node", "id": 3461321981, "lat": 47.3749847, "lon": 8.5289881}, {"type": "node", "id": 3461321983, "lat": 47.3749978, "lon": 8.5294284}, {"type": "node", "id": 3461321993, "lat": 47.3750424, "lon": 8.5290945}, {"type": "node", "id": 3461321994, "lat": 47.3750488, "lon": 8.5290874}, {"type": "node", "id": 3461321998, "lat": 47.3750755, "lon": 8.5291344}, {"type": "node", "id": 3461321999, "lat": 47.3750763, "lon": 8.5293083}, {"type": "node", "id": 3461322004, "lat": 47.3750863, "lon": 8.5291508}, {"type": "node", "id": 3461322009, "lat": 47.3751063, "lon": 8.5292709}, {"type": "node", "id": 3461322010, "lat": 47.3751136, "lon": 8.5293738}, {"type": "node", "id": 3461322013, "lat": 47.3751437, "lon": 8.5293364}, {"type": "node", "id": 3461322017, "lat": 47.3751752, "lon": 8.5290407}, {"type": "node", "id": 3461322018, "lat": 47.3751982, "lon": 8.5294877}, {"type": "node", "id": 3461322020, "lat": 47.3752118, "lon": 8.5294709}, {"type": "node", "id": 3461322023, "lat": 47.3752629, "lon": 8.5289203}, {"type": "node", "id": 3461322025, "lat": 47.3752947, "lon": 8.5292945}, {"type": "node", "id": 5083782881, "lat": 47.3753393, "lon": 8.5294771}, {"type": "node", "id": 5083782882, "lat": 47.3753739, "lon": 8.5294295}, {"type": "node", "id": 5083782883, "lat": 47.3753288, "lon": 8.5294605}, {"type": "way", "id": 39985850, "nodes": [3461321998, 3461322004, 3461322017, 3461322023, 480426169, 480426171, 480426166, 3461321981, 3461321993, 3461321994, 3461321998], "tags": {"addr:city": "Z\u00fcrich", "addr:country": "CH", "addr:housenumber": "40", "addr:postcode": "8004", "addr:street": "B\u00e4ckerstrasse", "building": "yes"}}, {"type": "way", "id": 39985853, "nodes": [3461322025, 480426188, 5083782882, 5083782881, 5083782883, 914703169, 480426189, 3461322020, 3461322018, 1567061726, 1567061730, 3461322025], "tags": {"building": "apartments", "note": "under construction"}}, {"type": "way", "id": 143211501, "nodes": [480426180, 3461321983, 3461321974, 480426168, 3461321960, 480426167, 3461321981, 3461321993, 3461321994, 3461321998, 480426180], "tags": {"building": "apartments"}}, {"type": "way", "id": 338944141, "nodes": [1567061724, 3461322013, 3461322010, 3461321999, 3461322009, 480426194, 1567061724], "tags": {"addr:city": "Z\u00fcrich", "addr:country": "CH", "addr:housenumber": "45a", "addr:postcode": "8004", "addr:street": "M\u00fcllerstrasse", "building": "garage"}}, {"type": "way", "id": 338944228, "nodes": [1567061730, 1567061729, 1567061724, 480426194, 1567061728, 1567061733, 3461322025, 1567061730], "tags": {"building": "roof", "note": "under construction"}}, {"type": "way", "id": 338944238, "nodes": [3461321983, 1567061722, 1567061723, 1567061725, 914703122, 1567061717, 914703183, 3461321974, 3461321983], "tags": {"building": "apartments"}}]}