{"version": 0.6, "generator": "Overpass API 0.7.60.6 e2dc3e5b", "osm3s": {"timestamp_osm_base": "2023-06-29T13:48:35Z", "copyright": "The data included in this document is from www.openstreetmap.org. The data is made available under ODbL."}, "elements": [{"type": "node", "id": 367060769, "lat": 47.3721203, "lon": 8.5303458}, {"type": "node", "id": 367060771, "lat": 47.3716908, "lon": 8.5300875}, {"type": "node", "id": 367060774, "lat": 47.3715847, "lon": 8.5304723}, {"type": "node", "id": 367060781, "lat": 47.3721133, "lon": 8.5297462}, {"type": "node", "id": 367060783, "lat": 47.3721463, "lon": 8.5298488}, {"type": "node", "id": 367060790, "lat": 47.3720854, "lon": 8.5304721}, {"type": "node", "id": 367060901, "lat": 47.3718195, "lon": 8.5299945}, {"type": "node", "id": 367060902, "lat": 47.3719052, "lon": 8.5301051}, {"type": "node", "id": 568790573, "lat": 47.371939, "lon": 8.5300688}, {"type": "node", "id": 936942698, "lat": 47.3721331, "lon": 8.5299731}, {"type": "node", "id": 936942746, "lat": 47.3721786, "lon": 8.5300891}, {"type": "node", "id": 936942801, "lat": 47.3720577, "lon": 8.5302194}, {"type": "node", "id": 936942861, "lat": 47.3719996, "lon": 8.5298015, "tags": {"addr:city": "Z\u00fcrich", "addr:housenumber": "10", "addr:postcode": "8004", "addr:street": "Stauffacherstrasse", "entrance": "yes"}}, {"type": "node", "id": 2261078331, "lat": 47.3718408, "lon": 8.5300696}, {"type": "node", "id": 2261078333, "lat": 47.371851, "lon": 8.5300586}, {"type": "node", "id": 2261078354, "lat": 47.3719747, "lon": 8.530141}, {"type": "node", "id": 2261078357, "lat": 47.3719955, "lon": 8.5301185}, {"type": "node", "id": 2261078360, "lat": 47.3720207, "lon": 8.5301693}, {"type": "node", "id": 2261078362, "lat": 47.3720287, "lon": 8.5301607}, {"type": "node", "id": 2261078367, "lat": 47.3720603, "lon": 8.5297364}, {"type": "node", "id": 2261078371, "lat": 47.3720817, "lon": 8.52978}, {"type": "node", "id": 2261078375, "lat": 47.3721136, "lon": 8.529884}, {"type": "node", "id": 2261078376, "lat": 47.3721157, "lon": 8.529913}, {"type": "node", "id": 2261078378, "lat": 47.3721237, "lon": 8.5299044}, {"type": "node", "id": 2261078381, "lat": 47.3721411, "lon": 8.5299645}, {"type": "node", "id": 2261078385, "lat": 47.3721502, "lon": 8.5300318}, {"type": "node", "id": 2261078386, "lat": 47.372158, "lon": 8.5300234}, {"type": "node", "id": 2943778138, "lat": 47.3718001, "lon": 8.5306018, "tags": {"addr:city": "Z\u00fcrich", "addr:housenumber": "10", "addr:postcode": "8004", "addr:street": "Stauffacherquai", "entrance": "yes"}}, {"type": "node", "id": 2943778140, "lat": 47.3716406, "lon": 8.5302699, "tags": {"addr:city": "Z\u00fcrich", "addr:housenumber": "7", "addr:postcode": "8004", "addr:street": "Ernst-Nobs-Platz", "entrance": "yes"}}, {"type": "node", "id": 2943778142, "lat": 47.3718725, "lon": 8.5299378, "tags": {"addr:city": "Z\u00fcrich", "addr:housenumber": "8", "addr:postcode": "8004", "addr:street": "Stauffacherstrasse", "entrance": "yes"}}, {"type": "node", "id": 3461326716, "lat": 47.3720142, "lon": 8.5307305}, {"type": "node", "id": 7638279064, "lat": 47.3718967, "lon": 8.5300871}, {"type": "node", "id": 7638279065, "lat": 47.371889, "lon": 8.5300962}, {"type": "node", "id": 7638279069, "lat": 47.3721475, "lon": 8.5304007}, {"type": "node", "id": 7638279070, "lat": 47.3722056, "lon": 8.5301897}, {"type": "node", "id": 7638279071, "lat": 47.3721688, "lon": 8.5304135}, {"type": "node", "id": 7638279072, "lat": 47.3722269, "lon": 8.5302024}, {"type": "node", "id": 10692113151, "lat": 47.3721176, "lon": 8.5303554}, {"type": "way", "id": 32650159, "nodes": [367060781, 2261078371, 2261078367, 936942861, 2943778142, 367060901, 2261078333, 2261078331, 7638279065, 7638279064, 367060902, 568790573, 2261078354, 2261078357, 2261078360, 2261078362, 936942801, 936942746, 2261078385, 2261078386, 936942698, 2261078381, 2261078376, 2261078378, 2261078375, 367060783, 367060781], "tags": {"addr:city": "Z\u00fcrich", "addr:housenumber": "8;10", "addr:postcode": "8004", "addr:street": "Stauffacherstrasse", "building": "commercial", "building:levels": "4", "name": "Kirchgemeindehaus St. Jakob", "website": "https://www.citykirche.ch/", "wikidata": "Q110518190"}}, {"type": "way", "id": 338944841, "nodes": [367060790, 10692113151, 367060769, 367060771, 2943778140, 367060774, 2943778138, 3461326716, 367060790], "tags": {"building": "commercial", "building:levels": "7"}}, {"type": "way", "id": 817876673, "nodes": [7638279072, 7638279070, 7638279069, 7638279071, 7638279072], "tags": {"addr:housenumber": "23a", "addr:street": "Werdstrasse", "building": "roof", "layer": "1"}}]}