{"version": 0.6, "generator": "Overpass API 0.7.60.6 e2dc3e5b", "osm3s": {"timestamp_osm_base": "2023-06-29T12:42:28Z", "copyright": "The data included in this document is from www.openstreetmap.org. The data is made available under ODbL."}, "elements": [{"type": "node", "id": 358143680, "lat": 47.3717343, "lon": 8.5365604}, {"type": "node", "id": 358143682, "lat": 47.3715861, "lon": 8.5363243}, {"type": "node", "id": 358143684, "lat": 47.3715841, "lon": 8.5358207}, {"type": "node", "id": 358143685, "lat": 47.3718058, "lon": 8.5355193}, {"type": "node", "id": 358143688, "lat": 47.3721029, "lon": 8.536068}, {"type": "node", "id": 937612857, "lat": 47.3720252, "lon": 8.5359269}, {"type": "node", "id": 937612886, "lat": 47.372444, "lon": 8.5356287}, {"type": "node", "id": 937612905, "lat": 47.3724594, "lon": 8.5353631}, {"type": "node", "id": 937612912, "lat": 47.3718912, "lon": 8.5356757}, {"type": "node", "id": 937615536, "lat": 47.3719782, "lon": 8.5365503}, {"type": "node", "id": 937615540, "lat": 47.3720689, "lon": 8.536693}, {"type": "node", "id": 3344237840, "lat": 47.3720352, "lon": 8.5364714, "tags": {"addr:city": "Z\u00fcrich", "addr:country": "CH", "addr:housenumber": "24", "addr:postcode": "8001", "addr:street": "N\u00fcschelerstrasse"}}, {"type": "node", "id": 3344237841, "lat": 47.3721567, "lon": 8.536303, "tags": {"addr:city": "Z\u00fcrich", "addr:country": "CH", "addr:housenumber": "26", "addr:postcode": "8001", "addr:street": "N\u00fcschelerstrasse"}}, {"type": "node", "id": 3344237861, "lat": 47.3722142, "lon": 8.5362234}, {"type": "node", "id": 3344237863, "lat": 47.3723049, "lon": 8.5363662}, {"type": "node", "id": 3344346794, "lat": 47.3719527, "lon": 8.5363125, "tags": {"addr:city": "Z\u00fcrich", "addr:country": "CH", "addr:housenumber": "15", "addr:postcode": "8001", "addr:street": "N\u00fcschelerstrasse"}}, {"type": "node", "id": 3344346796, "lat": 47.3716931, "lon": 8.535668, "tags": {"addr:city": "Z\u00fcrich", "addr:country": "CH", "addr:housenumber": "34", "addr:postcode": "8001", "addr:street": "Talacker"}}, {"type": "node", "id": 3344346801, "lat": 47.3717645, "lon": 8.535844}, {"type": "node", "id": 3344346802, "lat": 47.3717693, "lon": 8.5365604}, {"type": "node", "id": 3344346803, "lat": 47.3718043, "lon": 8.5359013}, {"type": "node", "id": 3344346805, "lat": 47.3718393, "lon": 8.5358521}, {"type": "node", "id": 3344346807, "lat": 47.371873, "lon": 8.5359055}, {"type": "node", "id": 3344346810, "lat": 47.371988, "lon": 8.5358601}, {"type": "node", "id": 3344346819, "lat": 47.3723563, "lon": 8.5354667}, {"type": "node", "id": 3344346822, "lat": 47.372514, "lon": 8.5355557}, {"type": "node", "id": 5777113793, "lat": 47.3719352, "lon": 8.5357552}, {"type": "node", "id": 5777113794, "lat": 47.3719477, "lon": 8.5358021}, {"type": "node", "id": 5777113795, "lat": 47.371786, "lon": 8.5358122}, {"type": "node", "id": 5777113796, "lat": 47.3717919, "lon": 8.5358186}, {"type": "node", "id": 5777113799, "lat": 47.3718017, "lon": 8.5355125}, {"type": "node", "id": 5777113802, "lat": 47.3721134, "lon": 8.5360866}, {"type": "node", "id": 5777113803, "lat": 47.3721072, "lon": 8.5360636}, {"type": "node", "id": 5777113804, "lat": 47.3721188, "lon": 8.5360799}, {"type": "node", "id": 5777113805, "lat": 47.3724785, "lon": 8.5355883}, {"type": "node", "id": 5777113806, "lat": 47.3724118, "lon": 8.5354056}, {"type": "node", "id": 9702329022, "lat": 47.3716666, "lon": 8.5364483, "tags": {"addr:city": "Z\u00fcrich", "addr:country": "CH", "addr:housenumber": "18", "addr:postcode": "8001", "addr:street": "Pelikanstrasse"}}, {"type": "node", "id": 9702329023, "lat": 47.3719307, "lon": 8.5357608}, {"type": "node", "id": 9702329024, "lat": 47.3719421, "lon": 8.5357825}, {"type": "node", "id": 9706166194, "lat": 47.3718736, "lon": 8.535701}, {"type": "node", "id": 9706166195, "lat": 47.3717808, "lon": 8.5355425}, {"type": "node", "id": 9706185961, "lat": 47.3724346, "lon": 8.5353852}, {"type": "node", "id": 9706185964, "lat": 47.3724881, "lon": 8.5355795}, {"type": "node", "id": 9706185966, "lat": 47.372462, "lon": 8.5353613}, {"type": "node", "id": 9706185967, "lat": 47.3724974, "lon": 8.5355121}, {"type": "node", "id": 9706185968, "lat": 47.3723779, "lon": 8.5354405}, {"type": "node", "id": 9706185972, "lat": 47.3721374, "lon": 8.5360536}, {"type": "node", "id": 9706185973, "lat": 47.3720477, "lon": 8.5358951}, {"type": "way", "id": 31968366, "nodes": [358143680, 9702329022, 358143682, 358143684, 3344346796, 9706166195, 5777113799, 358143685, 937612912, 9706166194, 5777113796, 5777113795, 3344346801, 3344346803, 3344346805, 3344346807, 5777113794, 9702329024, 9702329023, 5777113793, 3344346810, 937612857, 358143688, 5777113802, 3344346794, 3344346802, 358143680], "tags": {"addr:city": "Z\u00fcrich", "addr:country": "CH", "addr:postcode": "8001", "addr:street": "Pelikanplatz", "building": "yes", "building:levels": "6", "name": "Kaufleuten", "source": "Stadt Z\u00fcrich Open Government Data;Geomatik + Vermessung;Tiefbau- und Entsorgungsdepartement", "website": "https://kaufleuten.ch/", "wikidata": "Q60635988"}}, {"type": "way", "id": 80340628, "nodes": [358143688, 5777113803, 5777113804, 9706185972, 937612886, 5777113805, 9706185964, 3344346822, 9706185967, 9706185966, 937612905, 9706185961, 5777113806, 9706185968, 3344346819, 9706185973, 937612857, 358143688], "tags": {"addr:city": "Z\u00fcrich", "addr:country": "CH", "addr:housenumber": "31", "addr:postcode": "8001", "addr:street": "N\u00fcschelerstrasse", "building": "yes", "source": "Stadt Z\u00fcrich Open Government Data; Geomatik + Vermessung; Tiefbau- und Entsorgungsdepartement"}}, {"type": "way", "id": 327613479, "nodes": [3344237863, 937615540, 937615536, 3344237840, 3344237841, 3344237861, 3344237863], "tags": {"addr:city": "Z\u00fcrich", "addr:country": "CH", "addr:postcode": "8001", "building": "yes", "source": "Stadt Z\u00fcrich Open Government Data; Geomatik + Vermessung; Tiefbau- und Entsorgungsdepartement"}}]}