{"version": 0.6, "generator": "Overpass API 0.7.60.6 e2dc3e5b", "osm3s": {"timestamp_osm_base": "2023-06-29T15:25:05Z", "copyright": "The data included in this document is from www.openstreetmap.org. The data is made available under ODbL."}, "elements": [{"type": "node", "id": 252408178, "lat": 47.3798578, "lon": 8.5426895}, {"type": "node", "id": 252408179, "lat": 47.3799168, "lon": 8.5429752}, {"type": "node", "id": 252408180, "lat": 47.378955, "lon": 8.5433772}, {"type": "node", "id": 252408181, "lat": 47.3787043, "lon": 8.5434381}, {"type": "node", "id": 252408182, "lat": 47.3778203, "lon": 8.5435409}, {"type": "node", "id": 252408183, "lat": 47.3777305, "lon": 8.5431639}, {"type": "node", "id": 252408184, "lat": 47.3784692, "lon": 8.5427838}, {"type": "node", "id": 252408185, "lat": 47.3785675, "lon": 8.5432776}, {"type": "node", "id": 252408187, "lat": 47.3786852, "lon": 8.5432123}, {"type": "node", "id": 252408188, "lat": 47.3789176, "lon": 8.5431579}, {"type": "node", "id": 252408189, "lat": 47.3796684, "lon": 8.5428425}, {"type": "node", "id": 252408190, "lat": 47.3796556, "lon": 8.5427808}, {"type": "node", "id": 252408235, "lat": 47.3783775, "lon": 8.5430226}, {"type": "node", "id": 252408236, "lat": 47.3784271, "lon": 8.5432524}, {"type": "node", "id": 252408237, "lat": 47.3782824, "lon": 8.5432805}, {"type": "node", "id": 252408238, "lat": 47.3782405, "lon": 8.5430855}, {"type": "node", "id": 252408240, "lat": 47.3780407, "lon": 8.5432192}, {"type": "node", "id": 252408241, "lat": 47.3780804, "lon": 8.5433888}, {"type": "node", "id": 252408242, "lat": 47.377942, "lon": 8.5434038}, {"type": "node", "id": 252408243, "lat": 47.3779162, "lon": 8.5432794}, {"type": "node", "id": 561385559, "lat": 47.3797695, "lon": 8.5435245}, {"type": "node", "id": 561385560, "lat": 47.3797135, "lon": 8.5433289}, {"type": "node", "id": 683372571, "lat": 47.3778694, "lon": 8.543094, "tags": {"addr:city": "Z\u00fcrich", "addr:country": "CH", "addr:housenumber": "8", "addr:postcode": "8001", "addr:street": "Neum\u00fchlequai", "contact:website": "https://ds.zh.ch/internet/sicherheitsdirektion/de/unsere_direktion/gs/gewerbebewilligungen_beglaubigungen.html", "name": "B\u00fcro f\u00fcr Gewerbebewilligungen und Beglaubigungen", "office": "government", "opening_hours": "Mo-Fr 08:00-12:00,13:15-16:00", "reservation": "no"}}, {"type": "node", "id": 683372572, "lat": 47.3780821, "lon": 8.5429798, "tags": {"addr:city": "Z\u00fcrich", "addr:country": "CH", "addr:housenumber": "10", "addr:postcode": "8001", "addr:street": "Neum\u00fchlequai"}}, {"type": "node", "id": 683372575, "lat": 47.3783524, "lon": 8.5428435, "tags": {"addr:city": "Z\u00fcrich", "addr:country": "CH", "addr:housenumber": "12", "addr:postcode": "8001", "addr:street": "Neum\u00fchlequai"}}, {"type": "node", "id": 683372576, "lat": 47.3774362, "lon": 8.543315, "tags": {"addr:city": "Z\u00fcrich", "addr:country": "CH", "addr:housenumber": "6", "addr:postcode": "8001", "addr:street": "Neum\u00fchlequai"}}, {"type": "node", "id": 683372627, "lat": 47.3794319, "lon": 8.5423149, "tags": {"addr:city": "Z\u00fcrich", "addr:country": "CH", "addr:housenumber": "20", "addr:street": "Neum\u00fchlequai"}}, {"type": "node", "id": 683372632, "lat": 47.3787699, "lon": 8.5431953, "tags": {"addr:city": "Z\u00fcrich", "addr:country": "CH", "addr:housenumber": "2", "addr:postcode": "8001", "addr:street": "Walcheplatz"}}, {"type": "node", "id": 1088058922, "lat": 47.37759, "lon": 8.5432352}, {"type": "node", "id": 1088058942, "lat": 47.3770631, "lon": 8.5435003}, {"type": "node", "id": 1088058948, "lat": 47.3776531, "lon": 8.5434922}, {"type": "node", "id": 1088058967, "lat": 47.3775585, "lon": 8.5436537}, {"type": "node", "id": 1088059011, "lat": 47.3773559, "lon": 8.5435591}, {"type": "node", "id": 1088059017, "lat": 47.377325, "lon": 8.5437519}, {"type": "node", "id": 1088059034, "lat": 47.3770179, "lon": 8.5435576}, {"type": "node", "id": 1088059046, "lat": 47.3772936, "lon": 8.543593}, {"type": "node", "id": 1088059080, "lat": 47.3773192, "lon": 8.5433756}, {"type": "node", "id": 1088059093, "lat": 47.3770408, "lon": 8.5435213}, {"type": "node", "id": 1088059113, "lat": 47.3770587, "lon": 8.5438637}, {"type": "node", "id": 1088059153, "lat": 47.377004, "lon": 8.5436391}, {"type": "node", "id": 1088059158, "lat": 47.3772487, "lon": 8.5434105}, {"type": "node", "id": 1088059173, "lat": 47.3770059, "lon": 8.5435978}, {"type": "node", "id": 1088059238, "lat": 47.3770034, "lon": 8.543664}, {"type": "node", "id": 1137842455, "lat": 47.3787582, "lon": 8.5416544}, {"type": "node", "id": 1137842515, "lat": 47.3789499, "lon": 8.5415834}, {"type": "node", "id": 1137842530, "lat": 47.3787464, "lon": 8.5415848}, {"type": "node", "id": 1137842574, "lat": 47.3789381, "lon": 8.5415139}, {"type": "node", "id": 1243222272, "lat": 47.3786898, "lon": 8.5432551}, {"type": "node", "id": 1243222309, "lat": 47.3787027, "lon": 8.5434208}, {"type": "node", "id": 1243222315, "lat": 47.3797134, "lon": 8.5430598}, {"type": "node", "id": 1243222332, "lat": 47.3790294, "lon": 8.5427708}, {"type": "node", "id": 1243222358, "lat": 47.3786009, "lon": 8.5434596}, {"type": "node", "id": 1243222409, "lat": 47.379597, "lon": 8.5425173}, {"type": "node", "id": 1243222429, "lat": 47.3795452, "lon": 8.5422643}, {"type": "node", "id": 1243222445, "lat": 47.3785992, "lon": 8.5434361}, {"type": "node", "id": 1243222450, "lat": 47.3791485, "lon": 8.5433076}, {"type": "node", "id": 1243222494, "lat": 47.3789776, "lon": 8.5425177}, {"type": "node", "id": 1243380164, "lat": 47.3794077, "lon": 8.5436587}, {"type": "node", "id": 1243380172, "lat": 47.3794901, "lon": 8.5436735}, {"type": "node", "id": 1243380198, "lat": 47.3795117, "lon": 8.5437027}, {"type": "node", "id": 1243380218, "lat": 47.3793814, "lon": 8.5437289}, {"type": "node", "id": 1243380237, "lat": 47.3795982, "lon": 8.543675}, {"type": "node", "id": 1243380239, "lat": 47.3794865, "lon": 8.543646}, {"type": "node", "id": 1243380241, "lat": 47.3791601, "lon": 8.5435597}, {"type": "node", "id": 1243380258, "lat": 47.3794985, "lon": 8.5436912}, {"type": "node", "id": 1243380261, "lat": 47.379373, "lon": 8.543473}, {"type": "node", "id": 1243380266, "lat": 47.3792017, "lon": 8.5438114}, {"type": "node", "id": 1243380291, "lat": 47.3799178, "lon": 8.5434208}, {"type": "node", "id": 1243380296, "lat": 47.3795315, "lon": 8.5437062}, {"type": "node", "id": 1243380305, "lat": 47.3794942, "lon": 8.5434982}, {"type": "node", "id": 1243380317, "lat": 47.3799261, "lon": 8.5433943}, {"type": "node", "id": 1355467087, "lat": 47.3796642, "lon": 8.543404}, {"type": "node", "id": 1355467107, "lat": 47.3798866, "lon": 8.5432331}, {"type": "node", "id": 1654911421, "lat": 47.3790049, "lon": 8.5426512, "tags": {"addr:city": "Z\u00fcrich", "addr:country": "CH", "addr:housenumber": "1", "addr:postcode": "8001", "addr:street": "Walcheplatz"}}, {"type": "node", "id": 2324486322, "lat": 47.3791059, "lon": 8.5435654}, {"type": "node", "id": 2324486323, "lat": 47.3789023, "lon": 8.54364}, {"type": "node", "id": 2324486324, "lat": 47.378946, "lon": 8.5439118}, {"type": "node", "id": 2324486325, "lat": 47.3791478, "lon": 8.5438191}, {"type": "node", "id": 2427316801, "lat": 47.3790163, "lon": 8.5425004, "tags": {"amenity": "clock", "barometer": "no", "check_date": "2022-05-18", "date": "no", "display": "analog", "hygrometer": "no", "support": "wall_mounted", "thermometer": "no", "visibility": "area"}}, {"type": "node", "id": 2977165090, "lat": 47.3790802, "lon": 8.5431015}, {"type": "node", "id": 3210557455, "lat": 47.3782079, "lon": 8.5435038, "tags": {"addr:city": "Z\u00fcrich", "addr:country": "CH", "addr:housenumber": "17", "addr:postcode": "8001", "addr:street": "Stampfenbachstrasse"}}, {"type": "node", "id": 3210557456, "lat": 47.378518, "lon": 8.5434662, "tags": {"addr:city": "Z\u00fcrich", "addr:country": "CH", "addr:housenumber": "19", "addr:postcode": "8001", "addr:street": "Stampfenbachstrasse"}}, {"type": "node", "id": 3210557458, "lat": 47.3774371, "lon": 8.5437045, "tags": {"addr:city": "Z\u00fcrich", "addr:country": "CH", "addr:housenumber": "5", "addr:postcode": "8001", "addr:street": "Stampfenbachstrasse"}}, {"type": "node", "id": 3210558565, "lat": 47.3775343, "lon": 8.5435589}, {"type": "node", "id": 3210558567, "lat": 47.3776909, "lon": 8.5436146}, {"type": "node", "id": 3210582742, "lat": 47.3780151, "lon": 8.5433978}, {"type": "node", "id": 3210582743, "lat": 47.3780156, "lon": 8.5433608}, {"type": "node", "id": 3210582744, "lat": 47.3780415, "lon": 8.54336}, {"type": "node", "id": 3210582745, "lat": 47.3780423, "lon": 8.5433926}, {"type": "node", "id": 3210582749, "lat": 47.3783462, "lon": 8.5430272}, {"type": "node", "id": 3210582750, "lat": 47.3783494, "lon": 8.543039}, {"type": "node", "id": 3210582751, "lat": 47.3783813, "lon": 8.5432489}, {"type": "node", "id": 3210582752, "lat": 47.3783851, "lon": 8.5432721}, {"type": "node", "id": 3210582753, "lat": 47.3784075, "lon": 8.5432363}, {"type": "node", "id": 3210582754, "lat": 47.3784117, "lon": 8.5432595}, {"type": "node", "id": 3210637748, "lat": 47.3788443, "lon": 8.5434063, "tags": {"addr:city": "Z\u00fcrich", "addr:country": "CH", "addr:housenumber": "31", "addr:postcode": "8001", "addr:street": "Stampfenbachstrasse"}}, {"type": "node", "id": 3210637750, "lat": 47.3796195, "lon": 8.543423, "tags": {"addr:city": "Z\u00fcrich", "addr:country": "CH", "addr:housenumber": "34", "addr:postcode": "8006", "addr:street": "Stampfenbachstrasse"}}, {"type": "node", "id": 3210637751, "lat": 47.3795336, "lon": 8.5434585, "tags": {"addr:city": "Z\u00fcrich", "addr:country": "CH", "addr:housenumber": "34a", "addr:postcode": "8006", "addr:street": "Stampfenbachstrasse"}}, {"type": "node", "id": 3210637752, "lat": 47.3797915, "lon": 8.5430345, "tags": {"addr:city": "Z\u00fcrich", "addr:country": "CH", "addr:housenumber": "35", "addr:postcode": "8001", "addr:street": "Stampfenbachstrasse"}}, {"type": "node", "id": 3210637754, "lat": 47.3797272, "lon": 8.5427485, "tags": {"addr:city": "Z\u00fcrich", "addr:country": "CH", "addr:housenumber": "6", "addr:postcode": "8001", "addr:street": "Walchestrasse"}}, {"type": "node", "id": 3210638964, "lat": 47.3792402, "lon": 8.5430343}, {"type": "node", "id": 3210638970, "lat": 47.3795088, "lon": 8.5434702}, {"type": "node", "id": 3210638973, "lat": 47.3795979, "lon": 8.5436682}, {"type": "node", "id": 3210638979, "lat": 47.379711, "lon": 8.5436195}, {"type": "node", "id": 3210638983, "lat": 47.3797426, "lon": 8.5434431}, {"type": "node", "id": 3210638986, "lat": 47.3799126, "lon": 8.5434029}, {"type": "node", "id": 4938694305, "lat": 47.3773289, "lon": 8.5417767}, {"type": "node", "id": 4938694306, "lat": 47.3772524, "lon": 8.5417562}, {"type": "node", "id": 4938694307, "lat": 47.377323, "lon": 8.5418248}, {"type": "node", "id": 4938694308, "lat": 47.3772464, "lon": 8.5418043}, {"type": "node", "id": 5407110337, "lat": 47.3776756, "lon": 8.5436486}, {"type": "node", "id": 5407110338, "lat": 47.3776654, "lon": 8.5436386}, {"type": "node", "id": 5407110339, "lat": 47.3776806, "lon": 8.5436046}, {"type": "node", "id": 5690882410, "lat": 47.3797158, "lon": 8.5430712}, {"type": "node", "id": 5690882411, "lat": 47.3791417, "lon": 8.5430765}, {"type": "node", "id": 5690882412, "lat": 47.3789847, "lon": 8.5431359}, {"type": "node", "id": 5690882413, "lat": 47.3798732, "lon": 8.5432395}, {"type": "node", "id": 7204548984, "lat": 47.3781233, "lon": 8.5432028}, {"type": "node", "id": 7204612385, "lat": 47.3781455, "lon": 8.543296}, {"type": "node", "id": 7204612386, "lat": 47.3781824, "lon": 8.5432767}, {"type": "node", "id": 7204612387, "lat": 47.3781602, "lon": 8.5431836}, {"type": "node", "id": 7441887642, "lat": 47.3785644, "lon": 8.5432612, "tags": {"man_made": "manhole", "name": "ETHZ W\u00e4rmepumpe Walche"}}, {"type": "node", "id": 10269378686, "lat": 47.3798363, "lon": 8.5426992}, {"type": "node", "id": 10269378689, "lat": 47.3798648, "lon": 8.5427236}, {"type": "node", "id": 10269378690, "lat": 47.3796624, "lon": 8.5428135}, {"type": "way", "id": 23313564, "nodes": [252408235, 3210582750, 3210582749, 252408238, 252408237, 3210582752, 3210582751, 3210582753, 3210582754, 252408236, 252408235]}, {"type": "way", "id": 23313565, "nodes": [252408240, 252408243, 252408242, 3210582742, 3210582743, 3210582744, 3210582745, 252408241, 252408240]}, {"type": "way", "id": 93699760, "nodes": [1088059238, 1088059153, 1088059173, 1088059034, 1088059093, 1088058942, 1088059158, 1088059046, 1088059017, 1088059113, 1088059238], "tags": {"addr:city": "Z\u00fcrich", "addr:country": "CH", "addr:housenumber": "1", "addr:postcode": "8001", "addr:street": "Central", "building": "hotel", "building:levels": "6", "source": "Stadt Z\u00fcrich Open Government Data; Geomatik + Vermessung; Tiefbau- und Entsorgungsdepartement"}}, {"type": "way", "id": 93699781, "nodes": [1088059017, 3210557458, 1088058967, 3210558565, 1088058948, 1088058922, 683372576, 1088059080, 1088059011, 1088059046, 1088059017], "tags": {"addr:city": "Z\u00fcrich", "addr:country": "CH", "addr:postcode": "8001", "building": "apartments", "building:levels": "7", "source": "Stadt Z\u00fcrich Open Government Data; Geomatik + Vermessung; Tiefbau- und Entsorgungsdepartement"}}, {"type": "way", "id": 98351554, "nodes": [1137842574, 1137842530, 1137842455, 1137842515, 1137842574], "tags": {"addr:housenumber": "1", "addr:street": "Platzpromenade", "building": "service", "building:levels": "1", "name": "Br\u00fcckenhaus Walche", "roof:shape": "gabled", "start_date": "1912..1913"}}, {"type": "way", "id": 108333124, "nodes": [1243222358, 3210557456, 3210557455, 252408182, 252408183, 683372571, 683372572, 683372575, 252408184, 7441887642, 252408185, 1243222445, 1243222358]}, {"type": "way", "id": 108333127, "nodes": [1243222332, 1654911421, 1243222494, 2427316801, 683372627, 1243222429, 1243222409, 1243222332], "tags": {"addr:city": "Z\u00fcrich", "addr:country": "CH", "addr:postcode": "8001", "building": "public", "building:levels": "5", "name": "Neum\u00fchle", "roof:levels": "0", "source": "Stadt Z\u00fcrich Open Government Data; Geomatik + Vermessung; Tiefbau- und Entsorgungsdepartement"}}, {"type": "way", "id": 108333129, "nodes": [1243222272, 252408185, 1243222445, 1243222309, 1243222272], "tags": {"addr:city": "Z\u00fcrich", "addr:country": "CH", "building": "government", "layer": "1", "name": "Walchetor", "source": "Stadt Z\u00fcrich Open Government Data; Geomatik + Vermessung; Tiefbau- und Entsorgungsdepartement"}}, {"type": "way", "id": 108333137, "nodes": [1243222315, 1243222450, 252408180, 3210637748, 252408181, 1243222309, 1243222272, 252408187, 683372632, 252408188, 5690882412, 2977165090, 5690882411, 3210638964, 252408189, 1243222315], "tags": {"addr:city": "Z\u00fcrich", "addr:country": "CH", "building": "public", "name": "Walche", "source": "Stadt Z\u00fcrich Open Government Data; Geomatik + Vermessung; Tiefbau- und Entsorgungsdepartement"}}, {"type": "way", "id": 108333145, "nodes": [252408189, 10269378690, 252408190, 3210637754, 10269378686, 252408178, 10269378689, 252408179, 3210637752, 5690882410, 1243222315, 252408189], "tags": {"addr:city": "Z\u00fcrich", "addr:country": "CH", "addr:postcode": "8001", "building": "public", "building:levels": "11", "name": "Walcheturm", "source": "Stadt Z\u00fcrich Open Government Data;Geomatik + Vermessung;Tiefbau- und Entsorgungsdepartement", "start_date": "1927..1934"}}, {"type": "way", "id": 108343972, "nodes": [1243380241, 1243380261, 1243380164, 1243380218, 1243380266, 1243380241], "tags": {"addr:city": "Z\u00fcrich", "addr:country": "CH", "addr:housenumber": "32", "addr:postcode": "8006", "addr:street": "Stampfenbachstrasse", "building": "yes", "owner": "BVK Immobilien", "source": "Stadt Z\u00fcrich Open Government Data;Geomatik + Vermessung;Tiefbau- und Entsorgungsdepartement"}}, {"type": "way", "id": 121015447, "nodes": [1243380237, 1243380296, 1243380198, 1243380258, 1243380172, 1243380239, 1243380305, 3210638970, 3210637751, 3210637750, 1355467087, 3210638979, 3210638973, 1243380237], "tags": {"addr:city": "Z\u00fcrich", "addr:country": "CH", "addr:postcode": "8006", "addr:street": "Stampfenbachstrasse", "building": "yes", "source": "Stadt Z\u00fcrich Open Government Data; Geomatik + Vermessung; Tiefbau- und Entsorgungsdepartement"}}, {"type": "way", "id": 121015449, "nodes": [1355467107, 1243380317, 3210638986, 1243380291, 561385559, 3210638983, 561385560, 5690882413, 1355467107], "tags": {"addr:city": "Z\u00fcrich", "addr:country": "CH", "addr:housenumber": "38", "addr:postcode": "8006", "addr:street": "Stampfenbachstrasse", "building": "yes", "source": "Stadt Z\u00fcrich Open Government Data; Geomatik + Vermessung; Tiefbau- und Entsorgungsdepartement"}}, {"type": "way", "id": 223565507, "nodes": [2324486322, 2324486323, 2324486324, 2324486325, 2324486322], "tags": {"addr:city": "Z\u00fcrich", "addr:country": "CH", "addr:housenumber": "30", "addr:postcode": "8006", "addr:street": "Stampfenbachstrasse", "building": "yes", "source": "Stadt Z\u00fcrich Open Government Data; Geomatik + Vermessung; Tiefbau- und Entsorgungsdepartement"}}, {"type": "way", "id": 314973061, "nodes": [1088058967, 5407110338, 5407110337, 3210558567, 5407110339, 1088058948, 3210558565, 1088058967], "tags": {"addr:city": "Z\u00fcrich", "addr:country": "CH", "addr:housenumber": "7", "addr:postcode": "8001", "addr:street": "Stampfenbachstrasse", "building": "apartments", "source": "Stadt Z\u00fcrich Open Government Data; Geomatik + Vermessung; Tiefbau- und Entsorgungsdepartement"}}, {"type": "way", "id": 503589422, "nodes": [4938694308, 4938694306, 4938694305, 4938694307, 4938694308], "tags": {"building": "service", "building:levels": "1"}}, {"type": "way", "id": 771744838, "nodes": [7204612387, 7204612386, 7204612385, 7204548984, 7204612387]}, {"type": "relation", "id": 7565, "members": [{"type": "way", "ref": 108333124, "role": "outer"}, {"type": "way", "ref": 23313564, "role": "inner"}, {"type": "way", "ref": 23313565, "role": "inner"}, {"type": "way", "ref": 771744838, "role": "inner"}], "tags": {"building": "public", "building:levels": "6", "name": "Kaspar Escher-Haus", "roof:levels": "1", "start_date": "1912", "type": "multipolygon", "wikidata": "Q29933614"}}]}