{"version": 0.6, "generator": "Overpass API 0.7.60.6 e2dc3e5b", "osm3s": {"timestamp_osm_base": "2023-06-29T13:35:17Z", "copyright": "The data included in this document is from www.openstreetmap.org. The data is made available under ODbL."}, "elements": [{"type": "node", "id": 1031291782, "lat": 47.3721043, "lon": 8.5414774}, {"type": "node", "id": 1031292498, "lat": 47.3720521, "lon": 8.541252}, {"type": "node", "id": 1031293406, "lat": 47.3721234, "lon": 8.5409783}, {"type": "node", "id": 1031293802, "lat": 47.3722427, "lon": 8.5411716}, {"type": "node", "id": 1031293868, "lat": 47.3720887, "lon": 8.5411189}, {"type": "node", "id": 1031293952, "lat": 47.372169, "lon": 8.541306}, {"type": "node", "id": 1031294234, "lat": 47.3719941, "lon": 8.5414493}, {"type": "node", "id": 1031294880, "lat": 47.372239, "lon": 8.5410477}, {"type": "node", "id": 1031295319, "lat": 47.3721942, "lon": 8.5411633}, {"type": "node", "id": 1031295420, "lat": 47.3721906, "lon": 8.5411821}, {"type": "node", "id": 1037402726, "lat": 47.3716829, "lon": 8.5414643}, {"type": "node", "id": 1037402741, "lat": 47.3718012, "lon": 8.541328}, {"type": "node", "id": 1037402763, "lat": 47.3718384, "lon": 8.5415436}, {"type": "node", "id": 1037402797, "lat": 47.3717309, "lon": 8.5415513}, {"type": "node", "id": 1037402817, "lat": 47.3716732, "lon": 8.5413975}, {"type": "node", "id": 1041912304, "lat": 47.3718673, "lon": 8.5411137}, {"type": "node", "id": 1041912690, "lat": 47.3718296, "lon": 8.5409666}, {"type": "node", "id": 2205041357, "lat": 47.3718179, "lon": 8.5409694, "tags": {"addr:city": "Z\u00fcrich", "addr:country": "CH", "addr:housenumber": "15", "addr:postcode": "8001", "addr:street": "Strehlgasse"}}, {"type": "node", "id": 2205041360, "lat": 47.3721431, "lon": 8.5409905, "tags": {"addr:city": "Z\u00fcrich", "addr:country": "CH", "addr:housenumber": "16", "addr:postcode": "8001", "addr:street": "Strehlgasse"}}, {"type": "node", "id": 2205041408, "lat": 47.3718429, "lon": 8.5412518, "tags": {"addr:city": "Z\u00fcrich", "addr:country": "CH", "addr:housenumber": "6", "addr:postcode": "8001", "addr:street": "Strehlgasse"}}, {"type": "node", "id": 2205041411, "lat": 47.371902, "lon": 8.5413671, "tags": {"addr:city": "Z\u00fcrich", "addr:country": "CH", "addr:housenumber": "7", "addr:postcode": "8001", "addr:street": "Schipfe"}}, {"type": "node", "id": 2205041412, "lat": 47.372057, "lon": 8.5410859, "tags": {"addr:city": "Z\u00fcrich", "addr:country": "CH", "addr:housenumber": "7", "addr:postcode": "8001", "addr:street": "Schwanengasse"}}, {"type": "node", "id": 2917307817, "lat": 47.3719423, "lon": 8.541094, "tags": {"addr:city": "Z\u00fcrich", "addr:country": "CH", "addr:housenumber": "10", "addr:postcode": "8001", "addr:street": "Strehlgasse"}}, {"type": "node", "id": 2917307818, "lat": 47.3719794, "lon": 8.541024, "tags": {"addr:city": "Z\u00fcrich", "addr:country": "CH", "addr:housenumber": "12", "addr:postcode": "8001", "addr:street": "Strehlgasse"}}, {"type": "node", "id": 2917307825, "lat": 47.3720376, "lon": 8.541169, "tags": {"addr:city": "Z\u00fcrich", "addr:country": "CH", "addr:housenumber": "5", "addr:postcode": "8001", "addr:street": "Schwanengasse"}}, {"type": "node", "id": 2917307826, "lat": 47.3721068, "lon": 8.5410474, "tags": {"addr:city": "Z\u00fcrich", "addr:country": "CH", "addr:housenumber": "6", "addr:postcode": "8001", "addr:street": "Schwanengasse"}}, {"type": "node", "id": 2917307829, "lat": 47.3718213, "lon": 8.5412926}, {"type": "node", "id": 2917307830, "lat": 47.3718531, "lon": 8.5413272}, {"type": "node", "id": 2917307831, "lat": 47.3718646, "lon": 8.5412115}, {"type": "node", "id": 2917307832, "lat": 47.3718695, "lon": 8.5412186}, {"type": "node", "id": 2917307833, "lat": 47.3719007, "lon": 8.5412522}, {"type": "node", "id": 2917307834, "lat": 47.3719227, "lon": 8.5411274}, {"type": "node", "id": 2917307837, "lat": 47.3719361, "lon": 8.5412785}, {"type": "node", "id": 2917307838, "lat": 47.3719614, "lon": 8.5410614}, {"type": "node", "id": 2917307839, "lat": 47.3719633, "lon": 8.5411565}, {"type": "node", "id": 2917307840, "lat": 47.3719763, "lon": 8.5411724}, {"type": "node", "id": 2917307842, "lat": 47.3719808, "lon": 8.5414013}, {"type": "node", "id": 2917307845, "lat": 47.3719935, "lon": 8.541329}, {"type": "node", "id": 2917307846, "lat": 47.3719968, "lon": 8.5409883}, {"type": "node", "id": 2917307847, "lat": 47.3719999, "lon": 8.5413313}, {"type": "node", "id": 2917307848, "lat": 47.3720048, "lon": 8.5413065}, {"type": "node", "id": 2917307849, "lat": 47.3720165, "lon": 8.5412071}, {"type": "node", "id": 2917307851, "lat": 47.3720177, "lon": 8.5412153}, {"type": "node", "id": 2917307852, "lat": 47.3720251, "lon": 8.5410064}, {"type": "node", "id": 2917307853, "lat": 47.372027, "lon": 8.5410147}, {"type": "node", "id": 2917307854, "lat": 47.3720279, "lon": 8.5413222}, {"type": "node", "id": 2917307855, "lat": 47.3720281, "lon": 8.5412181}, {"type": "node", "id": 2917307856, "lat": 47.3720335, "lon": 8.541325}, {"type": "node", "id": 2917307857, "lat": 47.3720348, "lon": 8.5410251}, {"type": "node", "id": 2917307858, "lat": 47.3720471, "lon": 8.5411219}, {"type": "node", "id": 2917307859, "lat": 47.3720661, "lon": 8.5410498}, {"type": "node", "id": 2917307863, "lat": 47.3721072, "lon": 8.5412828}, {"type": "node", "id": 2917307865, "lat": 47.3721135, "lon": 8.5412801}, {"type": "node", "id": 2917307867, "lat": 47.3721184, "lon": 8.5413629}, {"type": "node", "id": 2917307873, "lat": 47.3721588, "lon": 8.541377}, {"type": "node", "id": 2917307886, "lat": 47.3722379, "lon": 8.5411052}, {"type": "node", "id": 2925696792, "lat": 47.3718524, "lon": 8.5411338, "tags": {"addr:city": "Z\u00fcrich", "addr:country": "CH", "addr:housenumber": "11", "addr:postcode": "8001", "addr:street": "Strehlgasse"}}, {"type": "node", "id": 2925754132, "lat": 47.3717887, "lon": 8.5409763}, {"type": "node", "id": 2925754143, "lat": 47.3718369, "lon": 8.5411544}, {"type": "node", "id": 2925788356, "lat": 47.3716232, "lon": 8.5411277}, {"type": "node", "id": 2925788358, "lat": 47.3716247, "lon": 8.5411342}, {"type": "node", "id": 2925788359, "lat": 47.3716424, "lon": 8.5411952}, {"type": "node", "id": 2925788365, "lat": 47.3716771, "lon": 8.541175}, {"type": "node", "id": 2925788366, "lat": 47.3716837, "lon": 8.5414695}, {"type": "node", "id": 2925788380, "lat": 47.3717082, "lon": 8.5410782}, {"type": "node", "id": 2925788381, "lat": 47.371715, "lon": 8.5413142}, {"type": "node", "id": 2925788382, "lat": 47.371719, "lon": 8.5410798}, {"type": "node", "id": 2925788386, "lat": 47.3717258, "lon": 8.5414507}, {"type": "node", "id": 2925788388, "lat": 47.3717316, "lon": 8.5411454}, {"type": "node", "id": 2925788393, "lat": 47.3717441, "lon": 8.5415514}, {"type": "node", "id": 2925788394, "lat": 47.3717463, "lon": 8.5411971}, {"type": "node", "id": 2925788395, "lat": 47.3717602, "lon": 8.54155}, {"type": "node", "id": 2925788396, "lat": 47.3717625, "lon": 8.5412511}, {"type": "node", "id": 2925789101, "lat": 47.3717759, "lon": 8.5412754}, {"type": "node", "id": 2925789104, "lat": 47.3717911, "lon": 8.541041}, {"type": "node", "id": 2925789105, "lat": 47.3718239, "lon": 8.5414331}, {"type": "node", "id": 2925789106, "lat": 47.3718293, "lon": 8.5411762}, {"type": "node", "id": 2925789108, "lat": 47.3718277, "lon": 8.5414319}, {"type": "node", "id": 6635191130, "lat": 47.3718263, "lon": 8.5414452}, {"type": "node", "id": 6635191131, "lat": 47.3718296, "lon": 8.5414441}, {"type": "node", "id": 6635191132, "lat": 47.3718048, "lon": 8.5413332}, {"type": "way", "id": 88860198, "nodes": [1031292498, 1031293868, 1031295420, 1031293952, 2917307865, 2917307863, 1031292498], "tags": {"addr:city": "Z\u00fcrich", "addr:country": "CH", "addr:housenumber": "4", "addr:postcode": "8001", "addr:street": "Schwanengasse", "building": "yes", "source": "Stadt Z\u00fcrich Open Government Data; Geomatik + Vermessung; Tiefbau- und Entsorgungsdepartement"}}, {"type": "way", "id": 88860280, "nodes": [1031293868, 2917307826, 1031293406, 2205041360, 1031294880, 2917307886, 1031293802, 1031295319, 1031295420, 1031293868], "tags": {"building": "yes"}}, {"type": "way", "id": 88860322, "nodes": [1031294234, 2917307854, 2917307856, 1031292498, 2917307863, 2917307865, 1031293952, 2917307873, 2917307867, 1031291782, 1031294234], "tags": {"addr:city": "Z\u00fcrich", "addr:country": "CH", "addr:housenumber": "2", "addr:postcode": "8001", "addr:street": "Schwanengasse", "building": "yes", "source": "Stadt Z\u00fcrich Open Government Data; Geomatik + Vermessung; Tiefbau- und Entsorgungsdepartement"}}, {"type": "way", "id": 89450301, "nodes": [1037402817, 1037402741, 6635191132, 2925789105, 2925789108, 6635191131, 6635191130, 1037402763, 2925788395, 2925788393, 1037402797, 2925788386, 2925788366, 1037402726, 1037402817], "tags": {"addr:city": "Z\u00fcrich", "addr:country": "CH", "addr:housenumber": "4", "addr:postcode": "8001", "addr:street": "Strehlgasse", "building": "yes", "source": "Stadt Z\u00fcrich Open Government Data; Geomatik + Vermessung; Tiefbau- und Entsorgungsdepartement"}}, {"type": "way", "id": 288182260, "nodes": [2917307838, 2917307817, 2917307834, 2917307839, 2917307840, 2917307849, 2917307851, 2917307855, 2917307825, 2917307858, 2917307838], "tags": {"addr:city": "Z\u00fcrich", "addr:country": "CH", "addr:postcode": "8001", "building": "yes", "source": "Stadt Z\u00fcrich Open Government Data; Geomatik + Vermessung; Tiefbau- und Entsorgungsdepartement"}}, {"type": "way", "id": 288182262, "nodes": [2917307832, 2917307831, 2205041408, 2917307829, 2917307830, 2205041411, 2917307842, 2917307845, 2917307847, 2917307848, 2917307837, 2917307833, 2917307832], "tags": {"addr:city": "Z\u00fcrich", "addr:country": "CH", "addr:postcode": "8001", "building": "yes", "source": "Stadt Z\u00fcrich Open Government Data; Geomatik + Vermessung; Tiefbau- und Entsorgungsdepartement"}}, {"type": "way", "id": 288182267, "nodes": [2917307846, 2917307818, 2917307838, 2917307858, 2205041412, 2917307859, 2917307857, 2917307853, 2917307852, 2917307846], "tags": {"addr:city": "Z\u00fcrich", "addr:country": "CH", "addr:postcode": "8001", "building": "yes", "source": "Stadt Z\u00fcrich Open Government Data; Geomatik + Vermessung; Tiefbau- und Entsorgungsdepartement"}}, {"type": "way", "id": 288182276, "nodes": [2917307834, 2917307832, 2917307833, 2917307837, 2917307848, 2917307851, 2917307849, 2917307840, 2917307839, 2917307834], "tags": {"addr:city": "Z\u00fcrich", "addr:country": "CH", "addr:housenumber": "8", "addr:postcode": "8001", "addr:street": "Strehlgasse", "building": "yes", "source": "Stadt Z\u00fcrich Open Government Data; Geomatik + Vermessung; Tiefbau- und Entsorgungsdepartement"}}, {"type": "way", "id": 289026056, "nodes": [1041912690, 2205041357, 2925754132, 2925754143, 2925696792, 1041912304, 1041912690], "tags": {"addr:city": "Z\u00fcrich", "addr:country": "CH", "addr:postcode": "8001", "building": "yes", "building:levels": "5", "name": "Zur weissen Taube", "roof:levels": "1", "source": "Stadt Z\u00fcrich Open Government Data; Geomatik + Vermessung; Tiefbau- und Entsorgungsdepartement"}}, {"type": "way", "id": 289029071, "nodes": [2925788381, 2925789101, 2925788396, 2925788394, 2925788388, 2925788365, 2925788381], "tags": {"addr:city": "Z\u00fcrich", "addr:country": "CH", "addr:housenumber": "7", "addr:postcode": "8001", "addr:street": "Strehlgasse", "building": "yes", "source": "Stadt Z\u00fcrich Open Government Data; Geomatik + Vermessung; Tiefbau- und Entsorgungsdepartement"}}, {"type": "way", "id": 289029074, "nodes": [2925789101, 2925789106, 2925789104, 2925788382, 2925788380, 2925788356, 2925788358, 2925788359, 2925788365, 2925788388, 2925788394, 2925788396, 2925789101], "tags": {"addr:city": "Z\u00fcrich", "addr:country": "CH", "addr:housenumber": "9", "addr:postcode": "8001", "addr:street": "Strehlgasse", "building": "yes", "source": "Stadt Z\u00fcrich Open Government Data; Geomatik + Vermessung; Tiefbau- und Entsorgungsdepartement"}}]}