{"version": 0.6, "generator": "Overpass API 0.7.60.6 e2dc3e5b", "osm3s": {"timestamp_osm_base": "2023-06-29T15:19:02Z", "copyright": "The data included in this document is from www.openstreetmap.org. The data is made available under ODbL."}, "elements": [{"type": "node", "id": 635121051, "lat": 47.3761304, "lon": 8.5410619}, {"type": "node", "id": 635121052, "lat": 47.3761358, "lon": 8.5409837}, {"type": "node", "id": 635121073, "lat": 47.3761957, "lon": 8.5416162}, {"type": "node", "id": 635121077, "lat": 47.3767281, "lon": 8.5407026}, {"type": "node", "id": 635121088, "lat": 47.3768742, "lon": 8.5407894}, {"type": "node", "id": 922501863, "lat": 47.3764935, "lon": 8.5409965}, {"type": "node", "id": 922501865, "lat": 47.3766659, "lon": 8.5409223}, {"type": "node", "id": 922501867, "lat": 47.3764395, "lon": 8.5408012}, {"type": "node", "id": 922501869, "lat": 47.3768584, "lon": 8.5411037}, {"type": "node", "id": 922501871, "lat": 47.3767307, "lon": 8.5410913}, {"type": "node", "id": 922501892, "lat": 47.3763378, "lon": 8.5412513}, {"type": "node", "id": 922501923, "lat": 47.3763818, "lon": 8.5415552}, {"type": "node", "id": 922501926, "lat": 47.3763186, "lon": 8.5411289}, {"type": "node", "id": 2951239140, "lat": 47.3761355, "lon": 8.5405353, "tags": {"addr:city": "Z\u00fcrich", "addr:country": "CH", "addr:housenumber": "1", "addr:postcode": "8001", "addr:street": "Sch\u00fctzengasse", "entrance": "yes"}}, {"type": "node", "id": 2951239143, "lat": 47.3759755, "lon": 8.5404256, "tags": {"addr:city": "Z\u00fcrich", "addr:country": "CH", "addr:housenumber": "4", "addr:postcode": "8001", "addr:street": "Beatengasse", "entrance": "yes"}}, {"type": "node", "id": 2951239150, "lat": 47.375931, "lon": 8.5402643}, {"type": "node", "id": 2951239157, "lat": 47.3760144, "lon": 8.540214}, {"type": "node", "id": 2951239160, "lat": 47.3760449, "lon": 8.5406761}, {"type": "node", "id": 2951239164, "lat": 47.3760537, "lon": 8.5403578}, {"type": "node", "id": 2951239167, "lat": 47.376068, "lon": 8.5403512}, {"type": "node", "id": 2951239168, "lat": 47.37607, "lon": 8.5403432}, {"type": "node", "id": 2951239174, "lat": 47.3760989, "lon": 8.5403668}, {"type": "node", "id": 2951239176, "lat": 47.3761033, "lon": 8.5406715}, {"type": "node", "id": 2951239192, "lat": 47.3761671, "lon": 8.5404004}, {"type": "node", "id": 2954616133, "lat": 47.3766465, "lon": 8.5404998, "tags": {"addr:city": "Z\u00fcrich", "addr:country": "CH", "addr:housenumber": "15", "addr:postcode": "8001", "addr:street": "Waisenhausstrasse"}}, {"type": "node", "id": 2954616134, "lat": 47.3767022, "lon": 8.5404472, "tags": {"addr:city": "Z\u00fcrich", "addr:country": "CH", "addr:housenumber": "4", "addr:postcode": "8001", "addr:street": "Bahnhofplatz"}}, {"type": "node", "id": 2954616135, "lat": 47.3762946, "lon": 8.5403474, "tags": {"addr:city": "Z\u00fcrich", "addr:country": "CH", "addr:housenumber": "4", "addr:postcode": "8001", "addr:street": "Sch\u00fctzengasse"}}, {"type": "node", "id": 2954616136, "lat": 47.3765013, "lon": 8.5405896, "tags": {"addr:city": "Z\u00fcrich", "addr:country": "CH", "addr:housenumber": "5", "addr:postcode": "8001", "addr:street": "Waisenhausstrasse"}}, {"type": "node", "id": 2954616138, "lat": 47.376211, "lon": 8.5406965}, {"type": "node", "id": 2954616139, "lat": 47.3762151, "lon": 8.5407147}, {"type": "node", "id": 2954616140, "lat": 47.3762248, "lon": 8.5407322}, {"type": "node", "id": 2954616141, "lat": 47.3762418, "lon": 8.5407428}, {"type": "node", "id": 2954616142, "lat": 47.3762557, "lon": 8.5407398}, {"type": "node", "id": 2954616143, "lat": 47.3763404, "lon": 8.5401424}, {"type": "node", "id": 2954616144, "lat": 47.3764573, "lon": 8.5402591}, {"type": "node", "id": 2954616145, "lat": 47.3764713, "lon": 8.5402061}, {"type": "node", "id": 2954616148, "lat": 47.3765066, "lon": 8.5403692}, {"type": "node", "id": 2954616155, "lat": 47.3765442, "lon": 8.5403457}, {"type": "node", "id": 2954616157, "lat": 47.3765495, "lon": 8.5403649}, {"type": "node", "id": 2954616158, "lat": 47.3765567, "lon": 8.5403453}, {"type": "node", "id": 2954616159, "lat": 47.3765599, "lon": 8.5403592}, {"type": "node", "id": 2954616161, "lat": 47.3765961, "lon": 8.540531}, {"type": "node", "id": 2954616162, "lat": 47.3766016, "lon": 8.5403195}, {"type": "node", "id": 2954616166, "lat": 47.3766185, "lon": 8.5403449}, {"type": "node", "id": 2954616169, "lat": 47.3766374, "lon": 8.5403846}, {"type": "node", "id": 2954616172, "lat": 47.3766436, "lon": 8.5403588}, {"type": "node", "id": 2954616177, "lat": 47.3766966, "lon": 8.5404694}, {"type": "node", "id": 2954616179, "lat": 47.3767079, "lon": 8.5404262}, {"type": "node", "id": 2958698639, "lat": 47.3762176, "lon": 8.5409343, "tags": {"addr:city": "Z\u00fcrich", "addr:country": "CH", "addr:housenumber": "2", "addr:postcode": "8001", "addr:street": "Waisenhausstrasse", "entrance": "yes"}}, {"type": "node", "id": 2958698640, "lat": 47.3761676, "lon": 8.54138, "tags": {"addr:city": "Z\u00fcrich", "addr:country": "CH", "addr:housenumber": "4", "addr:postcode": "8001", "addr:street": "Beatenplatz"}}, {"type": "node", "id": 2958698641, "lat": 47.3763884, "lon": 8.5408317, "tags": {"addr:city": "Z\u00fcrich", "addr:country": "CH", "addr:housenumber": "4", "addr:postcode": "8001", "addr:street": "Waisenhausstrasse"}}, {"type": "node", "id": 2958698642, "lat": 47.3762889, "lon": 8.5415861, "tags": {"addr:city": "Z\u00fcrich", "addr:country": "CH", "addr:housenumber": "7", "addr:postcode": "8001", "addr:street": "Bahnhofquai"}}, {"type": "node", "id": 2958698646, "lat": 47.3761225, "lon": 8.5410329}, {"type": "node", "id": 2958698647, "lat": 47.3761447, "lon": 8.5410192}, {"type": "node", "id": 2958698649, "lat": 47.3764996, "lon": 8.5410184}, {"type": "node", "id": 2958698652, "lat": 47.376527, "lon": 8.5409757}, {"type": "node", "id": 2958698653, "lat": 47.3765337, "lon": 8.5410009}, {"type": "node", "id": 2958698654, "lat": 47.3766611, "lon": 8.5406636}, {"type": "node", "id": 2958698656, "lat": 47.3766978, "lon": 8.5409443}, {"type": "node", "id": 2958698657, "lat": 47.3766992, "lon": 8.5410199}, {"type": "node", "id": 2958698658, "lat": 47.3767137, "lon": 8.5410126}, {"type": "node", "id": 2958698659, "lat": 47.376716, "lon": 8.541089}, {"type": "node", "id": 4860115699, "lat": 47.3762998, "lon": 8.5403241}, {"type": "node", "id": 10717470352, "lat": 47.3766811, "lon": 8.5409328}, {"type": "node", "id": 10717470353, "lat": 47.3767432, "lon": 8.5407116}, {"type": "way", "id": 78630006, "nodes": [922501869, 635121088, 10717470353, 635121077, 922501865, 10717470352, 2958698656, 2958698658, 2958698657, 2958698659, 922501871, 922501869], "tags": {"addr:city": "Z\u00fcrich", "addr:country": "CH", "addr:housename": "Du Nord", "addr:housenumber": "2", "addr:postcode": "8001", "addr:street": "Bahnhofplatz", "building": "commercial", "building:levels": "5", "owner": "PSP Swiss Property", "roof:levels": "1", "source": "Stadt Z\u00fcrich Open Government Data;Geomatik + Vermessung;Tiefbau- und Entsorgungsdepartement"}}, {"type": "way", "id": 78630020, "nodes": [635121077, 2958698654, 922501867, 922501863, 2958698652, 2958698653, 922501865, 635121077], "tags": {"addr:city": "Z\u00fcrich", "addr:country": "CH", "addr:housenumber": "3", "addr:postcode": "8001", "addr:street": "Bahnhofplatz", "building": "commercial", "owner": "BVK Immobilien", "source": "Stadt Z\u00fcrich Open Government Data; Geomatik + Vermessung; Tiefbau- und Entsorgungsdepartement", "start_date": "1956"}}, {"type": "way", "id": 291657078, "nodes": [2951239150, 2951239143, 2951239160, 2951239176, 2951239140, 2951239192, 2951239174, 2951239168, 2951239167, 2951239164, 2951239157, 2951239150], "tags": {"addr:city": "Z\u00fcrich", "addr:country": "CH", "addr:postcode": "8001", "building": "apartments", "source": "Stadt Z\u00fcrich Open Government Data; Geomatik + Vermessung; Tiefbau- und Entsorgungsdepartement"}}, {"type": "way", "id": 291957912, "nodes": [2954616161, 2954616133, 2954616177, 2954616134, 2954616179, 2954616169, 2954616172, 2954616166, 2954616162, 2954616158, 2954616159, 2954616157, 2954616161], "tags": {"addr:city": "Z\u00fcrich", "addr:country": "CH", "addr:postcode": "8001", "building": "apartments", "source": "Stadt Z\u00fcrich Open Government Data; Geomatik + Vermessung; Tiefbau- und Entsorgungsdepartement"}}, {"type": "way", "id": 291957914, "nodes": [2954616143, 4860115699, 2954616135, 2954616138, 2954616139, 2954616140, 2954616141, 2954616142, 2954616136, 2954616161, 2954616157, 2954616155, 2954616148, 2954616144, 2954616145, 2954616143], "tags": {"addr:city": "Z\u00fcrich", "addr:country": "CH", "addr:postcode": "8001", "building": "apartments", "source": "Stadt Z\u00fcrich Open Government Data; Geomatik + Vermessung; Tiefbau- und Entsorgungsdepartement"}}, {"type": "way", "id": 292317449, "nodes": [922501926, 2958698649, 922501863, 922501867, 2958698641, 2958698639, 635121052, 2958698647, 2958698646, 635121051, 2958698640, 635121073, 2958698642, 922501923, 922501892, 922501926], "tags": {"building": "commercial", "building:levels": "7", "name": "Haus Du Pont", "owner": "PSP Swiss Property", "source": "Stadt Z\u00fcrich Open Government Data; Geomatik + Vermessung; Tiefbau- und Entsorgungsdepartement", "start_date": "1913"}}]}