{"version": 0.6, "generator": "Overpass API 0.7.60.6 e2dc3e5b", "osm3s": {"timestamp_osm_base": "2023-06-29T15:22:02Z", "copyright": "The data included in this document is from www.openstreetmap.org. The data is made available under ODbL."}, "elements": [{"type": "node", "id": 693318519, "lat": 47.3743397, "lon": 8.540097, "tags": {"addr:city": "Z\u00fcrich", "addr:country": "CH", "addr:housenumber": "7", "addr:postcode": "8001", "addr:street": "Uraniastrasse"}}, {"type": "node", "id": 693318530, "lat": 47.3747955, "lon": 8.5400627, "tags": {"addr:city": "Z\u00fcrich", "addr:country": "CH", "addr:housenumber": "4", "addr:postcode": "8001", "addr:street": "Werdm\u00fchleplatz", "entrance": "yes"}}, {"type": "node", "id": 921917323, "lat": 47.3740863, "lon": 8.5402504}, {"type": "node", "id": 921917338, "lat": 47.3743357, "lon": 8.5402583}, {"type": "node", "id": 921917340, "lat": 47.3742399, "lon": 8.5395436}, {"type": "node", "id": 921917387, "lat": 47.3740263, "lon": 8.5394953}, {"type": "node", "id": 1031292046, "lat": 47.3743079, "lon": 8.539638}, {"type": "node", "id": 1031292601, "lat": 47.3742244, "lon": 8.5400121}, {"type": "node", "id": 1031292719, "lat": 47.3741878, "lon": 8.5395417}, {"type": "node", "id": 1031292809, "lat": 47.374238, "lon": 8.5396347}, {"type": "node", "id": 1031293287, "lat": 47.3741747, "lon": 8.5396536}, {"type": "node", "id": 1031293523, "lat": 47.3741146, "lon": 8.5396404}, {"type": "node", "id": 1031293638, "lat": 47.3743418, "lon": 8.5400199}, {"type": "node", "id": 1031294040, "lat": 47.3741613, "lon": 8.5396637}, {"type": "node", "id": 1031294974, "lat": 47.3741036, "lon": 8.5394853}, {"type": "node", "id": 1031295130, "lat": 47.374184, "lon": 8.5396342}, {"type": "node", "id": 2919116096, "lat": 47.3735259, "lon": 8.540549}, {"type": "node", "id": 2919116097, "lat": 47.3735259, "lon": 8.5406766}, {"type": "node", "id": 2919116098, "lat": 47.3735275, "lon": 8.5405316}, {"type": "node", "id": 2919116304, "lat": 47.3735369, "lon": 8.5405316}, {"type": "node", "id": 2919116308, "lat": 47.3735428, "lon": 8.5405275}, {"type": "node", "id": 2919116310, "lat": 47.3735562, "lon": 8.5405279}, {"type": "node", "id": 2919116311, "lat": 47.3735565, "lon": 8.5404928}, {"type": "node", "id": 2919116313, "lat": 47.3735573, "lon": 8.5404168}, {"type": "node", "id": 2919116314, "lat": 47.3735574, "lon": 8.5404116}, {"type": "node", "id": 2919116316, "lat": 47.373564, "lon": 8.5405281}, {"type": "node", "id": 2919116318, "lat": 47.3735687, "lon": 8.5405316}, {"type": "node", "id": 2919116323, "lat": 47.3735902, "lon": 8.5399418}, {"type": "node", "id": 2919116326, "lat": 47.3735943, "lon": 8.5401926}, {"type": "node", "id": 2919116327, "lat": 47.3735958, "lon": 8.5404069}, {"type": "node", "id": 2919116328, "lat": 47.3735966, "lon": 8.5403562}, {"type": "node", "id": 2919116329, "lat": 47.3735978, "lon": 8.5402779}, {"type": "node", "id": 2919116330, "lat": 47.373601, "lon": 8.540462}, {"type": "node", "id": 2919116331, "lat": 47.3736033, "lon": 8.5400667}, {"type": "node", "id": 2919116334, "lat": 47.3736096, "lon": 8.5401259}, {"type": "node", "id": 2919116336, "lat": 47.3736118, "lon": 8.5400473}, {"type": "node", "id": 2919116342, "lat": 47.3736294, "lon": 8.5404069}, {"type": "node", "id": 2919116344, "lat": 47.373631, "lon": 8.5403414}, {"type": "node", "id": 2919116345, "lat": 47.3736347, "lon": 8.5404632}, {"type": "node", "id": 2919116346, "lat": 47.3736347, "lon": 8.5406749}, {"type": "node", "id": 2919116347, "lat": 47.3736349, "lon": 8.5404864}, {"type": "node", "id": 2919116348, "lat": 47.3736351, "lon": 8.5405345}, {"type": "node", "id": 2919116350, "lat": 47.3736475, "lon": 8.5399122}, {"type": "node", "id": 2919116352, "lat": 47.3736579, "lon": 8.540054}, {"type": "node", "id": 2919116353, "lat": 47.3736642, "lon": 8.5401132}, {"type": "node", "id": 2919116355, "lat": 47.3736722, "lon": 8.5400357}, {"type": "node", "id": 2919116357, "lat": 47.3736756, "lon": 8.5406499}, {"type": "node", "id": 2919116358, "lat": 47.3736772, "lon": 8.5403988}, {"type": "node", "id": 2919116364, "lat": 47.3736925, "lon": 8.5404655}, {"type": "node", "id": 2919116368, "lat": 47.3736988, "lon": 8.5401833}, {"type": "node", "id": 2919116370, "lat": 47.3737054, "lon": 8.5405339}, {"type": "node", "id": 2919116374, "lat": 47.3737169, "lon": 8.5400314}, {"type": "node", "id": 2919116380, "lat": 47.3737259, "lon": 8.5401565}, {"type": "node", "id": 2919116381, "lat": 47.3737265, "lon": 8.5403299}, {"type": "node", "id": 2919116382, "lat": 47.3737333, "lon": 8.540589}, {"type": "node", "id": 2919116384, "lat": 47.3737341, "lon": 8.5403715}, {"type": "node", "id": 2919116391, "lat": 47.3737506, "lon": 8.5404492}, {"type": "node", "id": 2919116394, "lat": 47.3737565, "lon": 8.5401775}, {"type": "node", "id": 2919116397, "lat": 47.3737694, "lon": 8.5400231}, {"type": "node", "id": 2919116398, "lat": 47.3737759, "lon": 8.53987}, {"type": "node", "id": 2919116399, "lat": 47.3737785, "lon": 8.5401482}, {"type": "node", "id": 2919116400, "lat": 47.3737814, "lon": 8.5399174}, {"type": "node", "id": 2919116404, "lat": 47.3737914, "lon": 8.5403765}, {"type": "node", "id": 2919116405, "lat": 47.3737918, "lon": 8.5405281}, {"type": "node", "id": 2919116406, "lat": 47.3738087, "lon": 8.5404107}, {"type": "node", "id": 2919116408, "lat": 47.3738205, "lon": 8.5403979}, {"type": "node", "id": 2919116409, "lat": 47.3738211, "lon": 8.5399093}, {"type": "node", "id": 2919116410, "lat": 47.3738255, "lon": 8.5399563}, {"type": "node", "id": 2919116411, "lat": 47.3738335, "lon": 8.5399551}, {"type": "node", "id": 2919116412, "lat": 47.3738376, "lon": 8.5400276}, {"type": "node", "id": 2919116414, "lat": 47.3738431, "lon": 8.5401436}, {"type": "node", "id": 2919116417, "lat": 47.3738621, "lon": 8.5402819}, {"type": "node", "id": 2919116418, "lat": 47.3738669, "lon": 8.5404542}, {"type": "node", "id": 2919116420, "lat": 47.3738704, "lon": 8.5401653}, {"type": "node", "id": 2919116424, "lat": 47.3739048, "lon": 8.5401622}, {"type": "node", "id": 2919116427, "lat": 47.3739274, "lon": 8.5400241}, {"type": "node", "id": 2919116428, "lat": 47.3739313, "lon": 8.5398493}, {"type": "node", "id": 2919116430, "lat": 47.373937, "lon": 8.5399447}, {"type": "node", "id": 2919116432, "lat": 47.3739423, "lon": 8.540377}, {"type": "node", "id": 2919116433, "lat": 47.3739489, "lon": 8.5403034}, {"type": "node", "id": 2919116434, "lat": 47.3739617, "lon": 8.5401749}, {"type": "node", "id": 2919116435, "lat": 47.3739668, "lon": 8.5399394}, {"type": "node", "id": 2919116436, "lat": 47.3739688, "lon": 8.5401349}, {"type": "node", "id": 2919116437, "lat": 47.3739731, "lon": 8.5400125}, {"type": "node", "id": 2919116438, "lat": 47.3739774, "lon": 8.5400607}, {"type": "node", "id": 2944054986, "lat": 47.3741611, "lon": 8.5402532, "tags": {"access": "yes", "addr:city": "Z\u00fcrich", "addr:housenumber": "19", "addr:postcode": "8001", "addr:street": "Lindenhofstrasse", "entrance": "main", "wheelchair": "yes"}}, {"type": "node", "id": 2944054987, "lat": 47.3740565, "lon": 8.5398727, "tags": {"access": "private", "addr:city": "Z\u00fcrich", "addr:housenumber": "22", "addr:postcode": "8001", "addr:street": "Oetenbachgasse", "entrance": "service", "wheelchair": "limited"}}, {"type": "node", "id": 2944054998, "lat": 47.3741234, "lon": 8.5396519}, {"type": "node", "id": 2944054999, "lat": 47.3741321, "lon": 8.5396623}, {"type": "node", "id": 2944055003, "lat": 47.374148, "lon": 8.5396671}, {"type": "node", "id": 2944055006, "lat": 47.3742288, "lon": 8.5399255}, {"type": "node", "id": 2944055009, "lat": 47.3743001, "lon": 8.5399284}, {"type": "node", "id": 2946358434, "lat": 47.3751033, "lon": 8.5403554, "tags": {"addr:city": "Z\u00fcrich", "addr:country": "CH", "addr:housenumber": "10", "addr:postcode": "8001", "addr:street": "Werdm\u00fchlestrasse", "entrance": "yes"}}, {"type": "node", "id": 2946358436, "lat": 47.3752246, "lon": 8.5405996, "tags": {"addr:city": "Z\u00fcrich", "addr:country": "CH", "addr:housenumber": "12", "addr:postcode": "8001", "addr:street": "Werdm\u00fchlestrasse", "entrance": "yes"}}, {"type": "node", "id": 2946358438, "lat": 47.3748495, "lon": 8.540304, "tags": {"addr:city": "Z\u00fcrich", "addr:country": "CH", "addr:housenumber": "21", "addr:postcode": "8001", "addr:street": "Lindenhofstrasse", "entrance": "yes"}}, {"type": "node", "id": 2946358439, "lat": 47.3749174, "lon": 8.5403886, "tags": {"addr:city": "Z\u00fcrich", "addr:country": "CH", "addr:housenumber": "23", "addr:postcode": "8001", "addr:street": "Lindenhofstrasse", "entrance": "yes"}}, {"type": "node", "id": 2946358440, "lat": 47.375071, "lon": 8.5407795, "tags": {"addr:city": "Z\u00fcrich", "addr:country": "CH", "addr:housenumber": "25", "addr:postcode": "8001", "addr:street": "Lindenhofstrasse", "entrance": "yes"}}, {"type": "node", "id": 2946358449, "lat": 47.3746191, "lon": 8.5402865}, {"type": "node", "id": 2946358450, "lat": 47.374626, "lon": 8.5401041}, {"type": "node", "id": 2946358451, "lat": 47.3746279, "lon": 8.540051}, {"type": "node", "id": 2946358452, "lat": 47.3746402, "lon": 8.5402946}, {"type": "node", "id": 2946358453, "lat": 47.3748766, "lon": 8.5403065}, {"type": "node", "id": 2946358457, "lat": 47.3749635, "lon": 8.5400734}, {"type": "node", "id": 2946358459, "lat": 47.3750042, "lon": 8.540748}, {"type": "node", "id": 2946358460, "lat": 47.3750076, "lon": 8.5407582}, {"type": "node", "id": 2946358461, "lat": 47.3750106, "lon": 8.5405761}, {"type": "node", "id": 2946358462, "lat": 47.3750143, "lon": 8.5407653}, {"type": "node", "id": 2946358465, "lat": 47.3750239, "lon": 8.5407694}, {"type": "node", "id": 2946358471, "lat": 47.3751546, "lon": 8.5407983}, {"type": "node", "id": 2946358478, "lat": 47.3752569, "lon": 8.540821}, {"type": "node", "id": 2946358487, "lat": 47.3753072, "lon": 8.5407657}, {"type": "node", "id": 4552080122, "lat": 47.3743399, "lon": 8.5400879, "tags": {"entrance": "service"}}, {"type": "node", "id": 4552080123, "lat": 47.3743165, "lon": 8.540258}, {"type": "node", "id": 9882853435, "lat": 47.3743024, "lon": 8.5398418, "tags": {"entrance": "yes"}}, {"type": "way", "id": 78574925, "nodes": [921917338, 693318519, 4552080122, 1031293638, 1031292601, 2944055006, 2944055009, 9882853435, 1031292046, 1031292809, 921917340, 1031292719, 1031295130, 1031293287, 1031294040, 2944055003, 2944054999, 2944054998, 1031293523, 1031294974, 921917387, 2944054987, 921917323, 2944054986, 4552080123, 921917338], "tags": {"amenity": "townhall", "building": "public", "layer": "1", "name": "Amtshaus IV", "owner": "Immobilien Stadt Z\u00fcrich (IMMO)", "source": "Stadt Z\u00fcrich Open Government Data; Geomatik + Vermessung; Tiefbau- und Entsorgungsdepartement"}}, {"type": "way", "id": 288353506, "nodes": [2919116412, 2919116414, 2919116436, 2919116438, 2919116437, 2919116427, 2919116412], "tags": {"addr:city": "Z\u00fcrich", "addr:country": "CH", "addr:housenumber": "1", "addr:postcode": "8001", "addr:street": "Oetenbachgasse", "building": "yes", "source": "Stadt Z\u00fcrich Open Government Data; Geomatik + Vermessung; Tiefbau- und Entsorgungsdepartement"}}, {"type": "way", "id": 288353507, "nodes": [2919116328, 2919116327, 2919116342, 2919116344, 2919116381, 2919116368, 2919116326, 2919116329, 2919116328], "tags": {"addr:city": "Z\u00fcrich", "addr:country": "CH", "addr:housenumber": "11", "addr:postcode": "8001", "addr:street": "Lindenhofstrasse", "building": "yes", "source": "Stadt Z\u00fcrich Open Government Data; Geomatik + Vermessung; Tiefbau- und Entsorgungsdepartement"}}, {"type": "way", "id": 288353511, "nodes": [2919116433, 2919116434, 2919116424, 2919116420, 2919116417, 2919116433], "tags": {"addr:city": "Z\u00fcrich", "addr:country": "CH", "addr:housenumber": "12", "addr:postcode": "8001", "addr:street": "Kaminfegergasse", "building": "yes", "source": "Stadt Z\u00fcrich Open Government Data; Geomatik + Vermessung; Tiefbau- und Entsorgungsdepartement"}}, {"type": "way", "id": 288353514, "nodes": [2919116382, 2919116405, 2919116391, 2919116384, 2919116358, 2919116364, 2919116370, 2919116382], "tags": {"addr:city": "Z\u00fcrich", "addr:country": "CH", "addr:housenumber": "13", "addr:postcode": "8001", "addr:street": "Lindenhofstrasse", "building": "apartments", "source": "Stadt Z\u00fcrich Open Government Data; Geomatik + Vermessung; Tiefbau- und Entsorgungsdepartement"}}, {"type": "way", "id": 288353520, "nodes": [2919116405, 2919116418, 2919116408, 2919116406, 2919116404, 2919116394, 2919116368, 2919116381, 2919116384, 2919116391, 2919116405], "tags": {"addr:city": "Z\u00fcrich", "addr:country": "CH", "addr:housenumber": "15", "addr:postcode": "8001", "addr:street": "Lindenhofstrasse", "building": "apartments", "source": "Stadt Z\u00fcrich Open Government Data; Geomatik + Vermessung; Tiefbau- und Entsorgungsdepartement"}}, {"type": "way", "id": 288353524, "nodes": [2919116418, 2919116432, 2919116433, 2919116417, 2919116420, 2919116394, 2919116404, 2919116406, 2919116408, 2919116418], "tags": {"addr:city": "Z\u00fcrich", "addr:country": "CH", "addr:housenumber": "17", "addr:postcode": "8001", "addr:street": "Lindenhofstrasse", "building": "yes", "source": "Stadt Z\u00fcrich Open Government Data; Geomatik + Vermessung; Tiefbau- und Entsorgungsdepartement"}}, {"type": "way", "id": 288353532, "nodes": [2919116411, 2919116412, 2919116427, 2919116437, 2919116435, 2919116430, 2919116411], "tags": {"addr:city": "Z\u00fcrich", "addr:country": "CH", "addr:housenumber": "3", "addr:postcode": "8001", "addr:street": "Oetenbachgasse", "building": "yes", "source": "Stadt Z\u00fcrich Open Government Data; Geomatik + Vermessung; Tiefbau- und Entsorgungsdepartement"}}, {"type": "way", "id": 288353547, "nodes": [2919116348, 2919116347, 2919116345, 2919116330, 2919116327, 2919116314, 2919116313, 2919116311, 2919116310, 2919116316, 2919116318, 2919116348], "tags": {"addr:city": "Z\u00fcrich", "addr:country": "CH", "addr:housenumber": "5", "addr:postcode": "8001", "addr:street": "Lindenhofstrasse", "building": "yes", "source": "Stadt Z\u00fcrich Open Government Data; Geomatik + Vermessung; Tiefbau- und Entsorgungsdepartement"}}, {"type": "way", "id": 288353548, "nodes": [2919116398, 2919116400, 2919116409, 2919116410, 2919116411, 2919116430, 2919116428, 2919116398], "tags": {"addr:city": "Z\u00fcrich", "addr:country": "CH", "addr:housenumber": "5", "addr:postcode": "8001", "addr:street": "Oetenbachgasse", "building": "yes", "source": "Stadt Z\u00fcrich Open Government Data; Geomatik + Vermessung; Tiefbau- und Entsorgungsdepartement"}}, {"type": "way", "id": 288353550, "nodes": [2919116336, 2919116355, 2919116350, 2919116323, 2919116336], "tags": {"addr:city": "Z\u00fcrich", "addr:country": "CH", "addr:housenumber": "5a", "addr:postcode": "8001", "addr:street": "Oetenbachgasse", "building": "yes", "source": "Stadt Z\u00fcrich Open Government Data; Geomatik + Vermessung; Tiefbau- und Entsorgungsdepartement"}}, {"type": "way", "id": 288353551, "nodes": [2919116352, 2919116331, 2919116334, 2919116353, 2919116352], "tags": {"addr:city": "Z\u00fcrich", "addr:country": "CH", "addr:housename": "Kafega", "addr:housenumber": "7", "addr:postcode": "8001", "addr:street": "Kaminfegergasse", "building": "yes", "source": "Stadt Z\u00fcrich Open Government Data;Geomatik + Vermessung;Tiefbau- und Entsorgungsdepartement"}}, {"type": "way", "id": 288353552, "nodes": [2919116097, 2919116346, 2919116348, 2919116318, 2919116316, 2919116310, 2919116308, 2919116304, 2919116098, 2919116096, 2919116097], "tags": {"addr:city": "Z\u00fcrich", "addr:country": "CH", "addr:housenumber": "7", "addr:postcode": "8001", "addr:street": "Lindenhofstrasse", "building": "apartments", "source": "Stadt Z\u00fcrich Open Government Data; Geomatik + Vermessung; Tiefbau- und Entsorgungsdepartement"}}, {"type": "way", "id": 288353553, "nodes": [2919116397, 2919116374, 2919116380, 2919116399, 2919116397], "tags": {"addr:city": "Z\u00fcrich", "addr:country": "CH", "addr:housenumber": "9", "addr:postcode": "8001", "addr:street": "Kaminfegergasse", "building": "yes", "source": "Stadt Z\u00fcrich Open Government Data; Geomatik + Vermessung; Tiefbau- und Entsorgungsdepartement"}}, {"type": "way", "id": 288353554, "nodes": [2919116346, 2919116357, 2919116382, 2919116370, 2919116364, 2919116347, 2919116348, 2919116346], "tags": {"addr:city": "Z\u00fcrich", "addr:country": "CH", "addr:housenumber": "9", "addr:postcode": "8001", "addr:street": "Lindenhofstrasse", "building": "apartments", "source": "Stadt Z\u00fcrich Open Government Data; Geomatik + Vermessung; Tiefbau- und Entsorgungsdepartement"}}, {"type": "way", "id": 291221096, "nodes": [2946358450, 2946358449, 2946358452, 2946358438, 2946358453, 2946358439, 2946358461, 2946358459, 2946358460, 2946358462, 2946358465, 2946358440, 2946358471, 2946358478, 2946358487, 2946358436, 2946358434, 2946358457, 693318530, 2946358451, 2946358450], "tags": {"addr:city": "Z\u00fcrich", "addr:country": "CH", "addr:postcode": "8001", "building": "public", "name": "Amtshaus III", "owner": "Immobilien Stadt Z\u00fcrich (IMMO)", "source": "Stadt Z\u00fcrich Open Government Data; Geomatik + Vermessung; Tiefbau- und Entsorgungsdepartement"}}]}