{"version": 0.6, "generator": "Overpass API 0.7.60.6 e2dc3e5b", "osm3s": {"timestamp_osm_base": "2023-06-29T15:18:01Z", "copyright": "The data included in this document is from www.openstreetmap.org. The data is made available under ODbL."}, "elements": [{"type": "node", "id": 1122535282, "lat": 47.3642164, "lon": 8.5324171}, {"type": "node", "id": 1122535358, "lat": 47.3639611, "lon": 8.5321712}, {"type": "node", "id": 1122535399, "lat": 47.3642486, "lon": 8.5322873}, {"type": "node", "id": 1122535461, "lat": 47.3638675, "lon": 8.5319603}, {"type": "node", "id": 1122535477, "lat": 47.364585, "lon": 8.5327035}, {"type": "node", "id": 1122535492, "lat": 47.3645367, "lon": 8.5324599}, {"type": "node", "id": 1122535512, "lat": 47.3636719, "lon": 8.5329721}, {"type": "node", "id": 1122535567, "lat": 47.3639785, "lon": 8.5321009}, {"type": "node", "id": 1122535572, "lat": 47.3642395, "lon": 8.5326502}, {"type": "node", "id": 1122535580, "lat": 47.3644909, "lon": 8.5325198}, {"type": "node", "id": 1122535587, "lat": 47.3642515, "lon": 8.5322647}, {"type": "node", "id": 1122535647, "lat": 47.3636603, "lon": 8.532673}, {"type": "node", "id": 1122535675, "lat": 47.3639687, "lon": 8.5323707}, {"type": "node", "id": 1122535692, "lat": 47.364591, "lon": 8.5326891}, {"type": "node", "id": 1122535700, "lat": 47.363903, "lon": 8.5324983}, {"type": "node", "id": 1122535738, "lat": 47.3645061, "lon": 8.5323514}, {"type": "node", "id": 1122535806, "lat": 47.3639818, "lon": 8.5321649}, {"type": "node", "id": 1122535811, "lat": 47.364658, "lon": 8.5325044}, {"type": "node", "id": 1122535835, "lat": 47.3642067, "lon": 8.5322801}, {"type": "node", "id": 1122535847, "lat": 47.3646399, "lon": 8.5324129}, {"type": "node", "id": 1122535882, "lat": 47.3640286, "lon": 8.5322609}, {"type": "node", "id": 1122535904, "lat": 47.3645758, "lon": 8.532716}, {"type": "node", "id": 1122535910, "lat": 47.3645221, "lon": 8.5323914}, {"type": "node", "id": 1122535935, "lat": 47.3640321, "lon": 8.5327498}, {"type": "node", "id": 1122536005, "lat": 47.3638627, "lon": 8.532075}, {"type": "node", "id": 1122536044, "lat": 47.3637386, "lon": 8.5324452}, {"type": "node", "id": 1122536053, "lat": 47.3635858, "lon": 8.5329142}, {"type": "node", "id": 1122536059, "lat": 47.3640138, "lon": 8.5323479}, {"type": "node", "id": 1122536068, "lat": 47.3638735, "lon": 8.5324898}, {"type": "node", "id": 1122536087, "lat": 47.3644838, "lon": 8.532321}, {"type": "node", "id": 1122536115, "lat": 47.3638381, "lon": 8.5325128}, {"type": "node", "id": 1122536147, "lat": 47.3639984, "lon": 8.5325321}, {"type": "node", "id": 1122536164, "lat": 47.3646529, "lon": 8.5325236}, {"type": "node", "id": 1122536175, "lat": 47.3645902, "lon": 8.5321166}, {"type": "node", "id": 1122536187, "lat": 47.3642007, "lon": 8.5323139}, {"type": "node", "id": 1122536196, "lat": 47.3646562, "lon": 8.5324845}, {"type": "node", "id": 1122536224, "lat": 47.3639779, "lon": 8.5322503}, {"type": "node", "id": 1122536236, "lat": 47.3645624, "lon": 8.5327295}, {"type": "node", "id": 1122536257, "lat": 47.3642949, "lon": 8.5328747}, {"type": "node", "id": 1122536288, "lat": 47.3640832, "lon": 8.5329731}, {"type": "node", "id": 1122536322, "lat": 47.3638586, "lon": 8.5320822}, {"type": "node", "id": 1122536364, "lat": 47.3637239, "lon": 8.5328875}, {"type": "node", "id": 1122536376, "lat": 47.363854, "lon": 8.5325241}, {"type": "node", "id": 1122536390, "lat": 47.3644545, "lon": 8.5323034}, {"type": "node", "id": 1122536420, "lat": 47.3637678, "lon": 8.5327454}, {"type": "node", "id": 1122536440, "lat": 47.3639639, "lon": 8.532397}, {"type": "node", "id": 1122536452, "lat": 47.364646, "lon": 8.532546}, {"type": "node", "id": 3509246807, "lat": 47.3637024, "lon": 8.5328731}, {"type": "node", "id": 3509246812, "lat": 47.3637334, "lon": 8.5324417}, {"type": "node", "id": 3509246814, "lat": 47.3637498, "lon": 8.5324044}, {"type": "node", "id": 3509246815, "lat": 47.363757, "lon": 8.5324077}, {"type": "node", "id": 3509246816, "lat": 47.3638394, "lon": 8.5320638}, {"type": "node", "id": 3509246817, "lat": 47.3638611, "lon": 8.5328377}, {"type": "node", "id": 3509246818, "lat": 47.3639122, "lon": 8.533061}, {"type": "node", "id": 3509246822, "lat": 47.3641631, "lon": 8.5323038}, {"type": "node", "id": 3509246824, "lat": 47.3641943, "lon": 8.5320181}, {"type": "node", "id": 3509246828, "lat": 47.3644836, "lon": 8.5324847}, {"type": "node", "id": 5232517232, "lat": 47.3646368, "lon": 8.5323992}, {"type": "node", "id": 5232517233, "lat": 47.3646467, "lon": 8.5323948}, {"type": "node", "id": 5232517234, "lat": 47.3645742, "lon": 8.5320988}, {"type": "node", "id": 5232517235, "lat": 47.3638882, "lon": 8.531953}, {"type": "node", "id": 8259275173, "lat": 47.3636546, "lon": 8.5326915}, {"type": "node", "id": 8259275174, "lat": 47.3637621, "lon": 8.5327639}, {"type": "node", "id": 10824523064, "lat": 47.3643433, "lon": 8.5328484}, {"type": "node", "id": 10824523065, "lat": 47.3642889, "lon": 8.5326246}, {"type": "node", "id": 10824523070, "lat": 47.3645311, "lon": 8.5324337}, {"type": "node", "id": 10824523071, "lat": 47.364645, "lon": 8.5323866}, {"type": "way", "id": 96879579, "nodes": [1122536224, 1122535700, 1122536068, 1122536376, 1122536115, 1122536044, 3509246814, 3509246815, 1122536322, 1122536005, 1122535567, 1122535806, 1122535358, 1122536224], "tags": {"addr:city": "Z\u00fcrich", "addr:country": "CH", "addr:housenumber": "9", "addr:postcode": "8002", "addr:street": "Tessinerplatz", "building": "hotel", "building:levels": "6", "roof:levels": "1"}}, {"type": "way", "id": 96879589, "nodes": [1122536115, 1122536420, 1122535647, 3509246812, 1122536044, 1122536115], "tags": {"addr:city": "Z\u00fcrich", "addr:country": "CH", "addr:housenumber": "18", "addr:postcode": "8002", "addr:street": "General-Wille-Strasse", "building": "apartments", "building:levels": "6", "roof:levels": "1"}}, {"type": "way", "id": 96879624, "nodes": [1122535492, 1122535847, 1122536196, 1122535811, 1122536164, 1122536452, 1122535692, 1122535477, 1122535904, 1122536236, 10824523064, 1122536257, 1122535572, 10824523065, 1122535580, 3509246828, 1122535492], "tags": {"addr:city": "Z\u00fcrich", "addr:country": "CH", "addr:housenumber": "18", "addr:postcode": "8002", "addr:street": "Alfred-Escher-Strasse", "building": "yes", "building:levels": "5", "roof:levels": "1"}}, {"type": "way", "id": 96879633, "nodes": [1122535572, 1122536257, 1122536288, 1122535935, 1122535572], "tags": {"addr:city": "Z\u00fcrich", "addr:country": "CH", "addr:housenumber": "22", "addr:postcode": "8002", "addr:street": "Alfred-Escher-Strasse", "building": "yes", "building:levels": "6", "roof:levels": "1"}}, {"type": "way", "id": 96879707, "nodes": [1122535647, 8259275173, 1122536053, 1122535512, 3509246807, 1122536364, 8259275174, 1122536420, 1122535647], "tags": {"addr:city": "Z\u00fcrich", "addr:country": "CH", "addr:housenumber": "12", "addr:postcode": "8002", "addr:street": "General-Wille-Strasse", "building": "apartments", "building:levels": "5"}}, {"type": "way", "id": 96879720, "nodes": [3509246824, 5232517234, 1122536175, 10824523071, 5232517233, 5232517232, 1122535847, 1122535492, 10824523070, 1122535910, 1122535738, 1122536087, 1122536390, 1122535587, 1122535399, 1122535835, 1122536187, 3509246822, 3509246824], "tags": {"building": "office", "building:levels": "6", "roof:levels": "1"}}, {"type": "way", "id": 344165621, "nodes": [3509246818, 1122536288, 1122535935, 3509246817, 3509246818], "tags": {"addr:city": "Z\u00fcrich", "addr:country": "CH", "addr:housenumber": "24", "addr:postcode": "8002", "addr:street": "Alfred-Escher-Strasse", "building": "yes", "building:levels": "6", "roof:levels": "1"}}, {"type": "way", "id": 344165629, "nodes": [1122536187, 1122535282, 1122536147, 1122536440, 1122535675, 1122536059, 1122535882, 1122536224, 1122535358, 1122535806, 1122535567, 1122536005, 1122536322, 3509246816, 1122535461, 5232517235, 3509246824, 3509246822, 1122536187], "tags": {"addr:city": "Z\u00fcrich", "addr:country": "CH", "addr:housenumber": "7", "addr:postcode": "8002", "addr:street": "Tessinerplatz", "building": "office", "building:levels": "8", "roof:shape": "flat"}}]}