{"version": 0.6, "generator": "Overpass API 0.7.60.6 e2dc3e5b", "osm3s": {"timestamp_osm_base": "2023-06-29T15:24:04Z", "copyright": "The data included in this document is from www.openstreetmap.org. The data is made available under ODbL."}, "elements": [{"type": "node", "id": 358143680, "lat": 47.3717343, "lon": 8.5365604}, {"type": "node", "id": 358143682, "lat": 47.3715861, "lon": 8.5363243}, {"type": "node", "id": 358143684, "lat": 47.3715841, "lon": 8.5358207}, {"type": "node", "id": 358143685, "lat": 47.3718058, "lon": 8.5355193}, {"type": "node", "id": 358143688, "lat": 47.3721029, "lon": 8.536068}, {"type": "node", "id": 739966940, "lat": 47.3711565, "lon": 8.537686}, {"type": "node", "id": 739966944, "lat": 47.3717553, "lon": 8.5383727}, {"type": "node", "id": 739966956, "lat": 47.371485, "lon": 8.5374831}, {"type": "node", "id": 739967523, "lat": 47.3716312, "lon": 8.5376276}, {"type": "node", "id": 739967524, "lat": 47.3717327, "lon": 8.5368983}, {"type": "node", "id": 739967526, "lat": 47.3720696, "lon": 8.537431}, {"type": "node", "id": 739967531, "lat": 47.3713831, "lon": 8.5379208}, {"type": "node", "id": 739967532, "lat": 47.371914, "lon": 8.5374419}, {"type": "node", "id": 739967534, "lat": 47.3722279, "lon": 8.5382025}, {"type": "node", "id": 739967536, "lat": 47.3717196, "lon": 8.5371595}, {"type": "node", "id": 921511955, "lat": 47.3714351, "lon": 8.5375531}, {"type": "node", "id": 921511974, "lat": 47.3721512, "lon": 8.5376278}, {"type": "node", "id": 921511995, "lat": 47.3718372, "lon": 8.5374638}, {"type": "node", "id": 921512014, "lat": 47.3716777, "lon": 8.5374041}, {"type": "node", "id": 921512059, "lat": 47.3717689, "lon": 8.5373841}, {"type": "node", "id": 921512082, "lat": 47.3713996, "lon": 8.5373484}, {"type": "node", "id": 921512084, "lat": 47.3716321, "lon": 8.5374776}, {"type": "node", "id": 921512122, "lat": 47.3721166, "lon": 8.5375261}, {"type": "node", "id": 921512135, "lat": 47.3712567, "lon": 8.5378426}, {"type": "node", "id": 921512140, "lat": 47.3717092, "lon": 8.5373839}, {"type": "node", "id": 921512216, "lat": 47.3716318, "lon": 8.5370273}, {"type": "node", "id": 921512228, "lat": 47.3715066, "lon": 8.5378632}, {"type": "node", "id": 921512232, "lat": 47.3718189, "lon": 8.5375468}, {"type": "node", "id": 921512261, "lat": 47.3712927, "lon": 8.5378932}, {"type": "node", "id": 937612857, "lat": 47.3720252, "lon": 8.5359269}, {"type": "node", "id": 937612912, "lat": 47.3718912, "lon": 8.5356757}, {"type": "node", "id": 937615510, "lat": 47.3725471, "lon": 8.5369286}, {"type": "node", "id": 937615513, "lat": 47.3725075, "lon": 8.5366151}, {"type": "node", "id": 937615514, "lat": 47.3722368, "lon": 8.5368484}, {"type": "node", "id": 937615515, "lat": 47.3725338, "lon": 8.5365809}, {"type": "node", "id": 937615516, "lat": 47.37234, "lon": 8.5365865}, {"type": "node", "id": 937615517, "lat": 47.3726834, "lon": 8.5360455}, {"type": "node", "id": 937615518, "lat": 47.3718512, "lon": 8.5367267}, {"type": "node", "id": 937615519, "lat": 47.3728866, "lon": 8.5367615}, {"type": "node", "id": 937615520, "lat": 47.3727857, "lon": 8.5366121}, {"type": "node", "id": 937615523, "lat": 47.3726013, "lon": 8.5371752}, {"type": "node", "id": 937615525, "lat": 47.372491, "lon": 8.5370105}, {"type": "node", "id": 937615526, "lat": 47.3723721, "lon": 8.5375027}, {"type": "node", "id": 937615527, "lat": 47.3728005, "lon": 8.5359345}, {"type": "node", "id": 937615528, "lat": 47.3725491, "lon": 8.5372469}, {"type": "node", "id": 937615529, "lat": 47.372083, "lon": 8.5370737}, {"type": "node", "id": 937615530, "lat": 47.3729884, "lon": 8.5366135}, {"type": "node", "id": 937615532, "lat": 47.3726282, "lon": 8.5368266}, {"type": "node", "id": 937615533, "lat": 47.372732, "lon": 8.536986}, {"type": "node", "id": 937615534, "lat": 47.3720347, "lon": 8.5370041}, {"type": "node", "id": 937615535, "lat": 47.3724564, "lon": 8.536449}, {"type": "node", "id": 937615536, "lat": 47.3719782, "lon": 8.5365503}, {"type": "node", "id": 937615538, "lat": 47.3721687, "lon": 8.5368107}, {"type": "node", "id": 937615539, "lat": 47.3728201, "lon": 8.5365629}, {"type": "node", "id": 937615540, "lat": 47.3720689, "lon": 8.536693}, {"type": "node", "id": 937801734, "lat": 47.3727353, "lon": 8.5375808}, {"type": "node", "id": 937801742, "lat": 47.3726031, "lon": 8.5373928}, {"type": "node", "id": 937801745, "lat": 47.3727969, "lon": 8.5378813}, {"type": "node", "id": 937801747, "lat": 47.3727986, "lon": 8.537665}, {"type": "node", "id": 937801755, "lat": 47.372681, "lon": 8.5375112}, {"type": "node", "id": 937801774, "lat": 47.3730434, "lon": 8.5381281}, {"type": "node", "id": 937801775, "lat": 47.3730266, "lon": 8.5369564}, {"type": "node", "id": 937801780, "lat": 47.3724018, "lon": 8.5381511}, {"type": "node", "id": 937801783, "lat": 47.372801, "lon": 8.5381372}, {"type": "node", "id": 937801790, "lat": 47.372353, "lon": 8.5377519}, {"type": "node", "id": 1041911454, "lat": 47.3713665, "lon": 8.5379234}, {"type": "node", "id": 1041911785, "lat": 47.3713502, "lon": 8.5379099}, {"type": "node", "id": 1041912168, "lat": 47.3715169, "lon": 8.5378138}, {"type": "node", "id": 1041912348, "lat": 47.3713392, "lon": 8.5378777}, {"type": "node", "id": 1041912633, "lat": 47.3714922, "lon": 8.5378794}, {"type": "node", "id": 1110775372, "lat": 47.3721606, "lon": 8.5382263, "tags": {"addr:city": "Z\u00fcrich", "addr:country": "CH", "addr:housenumber": "47", "addr:postcode": "8001", "addr:street": "Bahnhofstrasse"}}, {"type": "node", "id": 1110775503, "lat": 47.3719906, "lon": 8.5382867, "tags": {"addr:city": "Z\u00fcrich", "addr:country": "CH", "addr:housenumber": "45", "addr:postcode": "8001", "addr:street": "Bahnhofstrasse"}}, {"type": "node", "id": 3251866812, "lat": 47.3728187, "lon": 8.5360002, "tags": {"addr:city": "Z\u00fcrich", "addr:country": "CH", "addr:housenumber": "35", "addr:postcode": "8001", "addr:street": "Sihlstrasse"}}, {"type": "node", "id": 3251866818, "lat": 47.3714695, "lon": 8.5376198}, {"type": "node", "id": 3251866819, "lat": 47.3715149, "lon": 8.5378407}, {"type": "node", "id": 3251866820, "lat": 47.3716219, "lon": 8.5375293}, {"type": "node", "id": 3251866821, "lat": 47.3716516, "lon": 8.5374361}, {"type": "node", "id": 3251866823, "lat": 47.3717404, "lon": 8.5373787}, {"type": "node", "id": 3251866825, "lat": 47.3717974, "lon": 8.5374027}, {"type": "node", "id": 3251866826, "lat": 47.3718171, "lon": 8.537425}, {"type": "node", "id": 3251866831, "lat": 47.3720799, "lon": 8.5374132}, {"type": "node", "id": 3251866833, "lat": 47.3720967, "lon": 8.5374721}, {"type": "node", "id": 3251866834, "lat": 47.3721384, "lon": 8.53716}, {"type": "node", "id": 3251866835, "lat": 47.372142, "lon": 8.5371818}, {"type": "node", "id": 3251866836, "lat": 47.3721511, "lon": 8.5371945}, {"type": "node", "id": 3251866837, "lat": 47.3721635, "lon": 8.537198, "tags": {"addr:city": "Z\u00fcrich", "addr:country": "CH", "addr:housenumber": "8", "addr:postcode": "8001", "addr:street": "Pelikanstrasse"}}, {"type": "node", "id": 3251866838, "lat": 47.3721847, "lon": 8.5378702, "tags": {"addr:city": "Z\u00fcrich", "addr:country": "CH", "addr:housenumber": "5", "addr:postcode": "8001", "addr:street": "Pelikanstrasse"}}, {"type": "node", "id": 3251866840, "lat": 47.3722759, "lon": 8.5373762}, {"type": "node", "id": 3251866841, "lat": 47.3722729, "lon": 8.5373556}, {"type": "node", "id": 3251866842, "lat": 47.3722832, "lon": 8.5373853}, {"type": "node", "id": 3251866843, "lat": 47.3722921, "lon": 8.5373861, "tags": {"addr:city": "Z\u00fcrich", "addr:country": "CH", "addr:housenumber": "6", "addr:postcode": "8001", "addr:street": "Pelikanstrasse"}}, {"type": "node", "id": 3251866847, "lat": 47.3723879, "lon": 8.536672}, {"type": "node", "id": 3251866848, "lat": 47.3723982, "lon": 8.5370792}, {"type": "node", "id": 3251866849, "lat": 47.3724006, "lon": 8.5366579}, {"type": "node", "id": 3251866850, "lat": 47.372418, "lon": 8.5370518}, {"type": "node", "id": 3251866857, "lat": 47.3726823, "lon": 8.5375831}, {"type": "node", "id": 3340359635, "lat": 47.3715287, "lon": 8.536897, "tags": {"addr:city": "Z\u00fcrich", "addr:country": "CH", "addr:housenumber": "11", "addr:postcode": "8001", "addr:street": "N\u00fcschelerstrasse"}}, {"type": "node", "id": 3340359638, "lat": 47.3715786, "lon": 8.5366032, "tags": {"addr:city": "Z\u00fcrich", "addr:country": "CH", "addr:housenumber": "19", "addr:postcode": "8001", "addr:street": "Pelikanstrasse"}}, {"type": "node", "id": 3340359641, "lat": 47.3714188, "lon": 8.5379073, "tags": {"addr:city": "Z\u00fcrich", "addr:country": "CH", "addr:housenumber": "41", "addr:postcode": "8001", "addr:street": "Bahnhofstrasse"}}, {"type": "node", "id": 3340359643, "lat": 47.3712767, "lon": 8.5375229, "tags": {"addr:city": "Z\u00fcrich", "addr:country": "CH", "addr:housenumber": "6", "addr:postcode": "8001", "addr:street": "N\u00fcschelerstrasse"}}, {"type": "node", "id": 3340359677, "lat": 47.3708892, "lon": 8.5368217}, {"type": "node", "id": 3340359682, "lat": 47.3709839, "lon": 8.5369707}, {"type": "node", "id": 3340359688, "lat": 47.3710136, "lon": 8.5369822}, {"type": "node", "id": 3340360093, "lat": 47.3710284, "lon": 8.5369089}, {"type": "node", "id": 3340360096, "lat": 47.3710461, "lon": 8.5369384}, {"type": "node", "id": 3340360098, "lat": 47.3710616, "lon": 8.5368628}, {"type": "node", "id": 3340360100, "lat": 47.3710786, "lon": 8.5368904}, {"type": "node", "id": 3340360101, "lat": 47.3711156, "lon": 8.5371428}, {"type": "node", "id": 3340360102, "lat": 47.3711201, "lon": 8.5365006}, {"type": "node", "id": 3340360103, "lat": 47.3711226, "lon": 8.5371856}, {"type": "node", "id": 3340360104, "lat": 47.3711481, "lon": 8.5370973}, {"type": "node", "id": 3340360106, "lat": 47.3711655, "lon": 8.5371254}, {"type": "node", "id": 3340360107, "lat": 47.3711806, "lon": 8.5370526}, {"type": "node", "id": 3340360109, "lat": 47.371189, "lon": 8.536686}, {"type": "node", "id": 3340360110, "lat": 47.3711988, "lon": 8.5370786}, {"type": "node", "id": 3340360111, "lat": 47.3712098, "lon": 8.5367067}, {"type": "node", "id": 3340360112, "lat": 47.3712165, "lon": 8.5370278}, {"type": "node", "id": 3340360113, "lat": 47.3712166, "lon": 8.5373314}, {"type": "node", "id": 3340360114, "lat": 47.3712253, "lon": 8.5370414}, {"type": "node", "id": 3340360115, "lat": 47.3712339, "lon": 8.5367232}, {"type": "node", "id": 3340360118, "lat": 47.3712507, "lon": 8.5369798}, {"type": "node", "id": 3340360120, "lat": 47.3712602, "lon": 8.5369946}, {"type": "node", "id": 3340360121, "lat": 47.3712613, "lon": 8.5367514}, {"type": "node", "id": 3340360122, "lat": 47.3712636, "lon": 8.5369359}, {"type": "node", "id": 3340360123, "lat": 47.3712821, "lon": 8.5367811}, {"type": "node", "id": 3340360124, "lat": 47.3712823, "lon": 8.5369636}, {"type": "node", "id": 3340360125, "lat": 47.3712832, "lon": 8.5369069}, {"type": "node", "id": 3340360127, "lat": 47.3713011, "lon": 8.5368234}, {"type": "node", "id": 3340360128, "lat": 47.3713033, "lon": 8.5369341}, {"type": "node", "id": 3340360129, "lat": 47.3713118, "lon": 8.536868}, {"type": "node", "id": 3340360133, "lat": 47.3713615, "lon": 8.5368523}, {"type": "node", "id": 3340360134, "lat": 47.3713619, "lon": 8.5366851}, {"type": "node", "id": 3340360135, "lat": 47.3713628, "lon": 8.5365031}, {"type": "node", "id": 3340360140, "lat": 47.3714547, "lon": 8.5369969}, {"type": "node", "id": 3340360142, "lat": 47.3715135, "lon": 8.5365039}, {"type": "node", "id": 3340360144, "lat": 47.3716559, "lon": 8.5367216}, {"type": "node", "id": 3344237837, "lat": 47.3719615, "lon": 8.5368935, "tags": {"addr:city": "Z\u00fcrich", "addr:country": "CH", "addr:housenumber": "10", "addr:postcode": "8001", "addr:street": "Pelikanstrasse"}}, {"type": "node", "id": 3344237838, "lat": 47.3718153, "lon": 8.5370184, "tags": {"addr:city": "Z\u00fcrich", "addr:country": "CH", "addr:housenumber": "11", "addr:postcode": "8001", "addr:street": "Pelikanstrasse"}}, {"type": "node", "id": 3344237839, "lat": 47.3719047, "lon": 8.5366495, "tags": {"addr:city": "Z\u00fcrich", "addr:country": "CH", "addr:housenumber": "22", "addr:postcode": "8001", "addr:street": "N\u00fcschelerstrasse"}}, {"type": "node", "id": 3344237840, "lat": 47.3720352, "lon": 8.5364714, "tags": {"addr:city": "Z\u00fcrich", "addr:country": "CH", "addr:housenumber": "24", "addr:postcode": "8001", "addr:street": "N\u00fcschelerstrasse"}}, {"type": "node", "id": 3344237841, "lat": 47.3721567, "lon": 8.536303, "tags": {"addr:city": "Z\u00fcrich", "addr:country": "CH", "addr:housenumber": "26", "addr:postcode": "8001", "addr:street": "N\u00fcschelerstrasse"}}, {"type": "node", "id": 3344237842, "lat": 47.3729614, "lon": 8.5365218, "tags": {"addr:city": "Z\u00fcrich", "addr:country": "CH", "addr:housenumber": "31", "addr:postcode": "8001", "addr:street": "Sihlstrasse"}}, {"type": "node", "id": 3344237843, "lat": 47.3729132, "lon": 8.5363448, "tags": {"addr:city": "Z\u00fcrich", "addr:country": "CH", "addr:housenumber": "33", "addr:postcode": "8001", "addr:street": "Sihlstrasse"}}, {"type": "node", "id": 3344237844, "lat": 47.3720255, "lon": 8.5373293, "tags": {"addr:city": "Z\u00fcrich", "addr:country": "CH", "addr:housenumber": "9a", "addr:postcode": "8001", "addr:street": "Pelikanstrasse"}}, {"type": "node", "id": 3344237845, "lat": 47.3716274, "lon": 8.5375951}, {"type": "node", "id": 3344237846, "lat": 47.371663, "lon": 8.5375797}, {"type": "node", "id": 3344237847, "lat": 47.3716681, "lon": 8.5376119}, {"type": "node", "id": 3344237848, "lat": 47.3717072, "lon": 8.538099}, {"type": "node", "id": 3344237849, "lat": 47.3717119, "lon": 8.5380973}, {"type": "node", "id": 3344237850, "lat": 47.3718139, "lon": 8.5375155}, {"type": "node", "id": 3344237851, "lat": 47.3718498, "lon": 8.5375001}, {"type": "node", "id": 3344237852, "lat": 47.3718549, "lon": 8.5375229}, {"type": "node", "id": 3344237853, "lat": 47.3718558, "lon": 8.5375327}, {"type": "node", "id": 3344237854, "lat": 47.3718773, "lon": 8.5374911}, {"type": "node", "id": 3344237855, "lat": 47.3718804, "lon": 8.5375136}, {"type": "node", "id": 3344237856, "lat": 47.3719247, "lon": 8.5374992}, {"type": "node", "id": 3344237857, "lat": 47.37203, "lon": 8.5374609}, {"type": "node", "id": 3344237858, "lat": 47.3720389, "lon": 8.5374781}, {"type": "node", "id": 3344237859, "lat": 47.3721166, "lon": 8.5367605}, {"type": "node", "id": 3344237860, "lat": 47.3721263, "lon": 8.5367465}, {"type": "node", "id": 3344237861, "lat": 47.3722142, "lon": 8.5362234}, {"type": "node", "id": 3344237863, "lat": 47.3723049, "lon": 8.5363662}, {"type": "node", "id": 3344237877, "lat": 47.3726402, "lon": 8.5362237}, {"type": "node", "id": 3344237879, "lat": 47.3726911, "lon": 8.536385}, {"type": "node", "id": 3344237880, "lat": 47.3727178, "lon": 8.5361789}, {"type": "node", "id": 3344237882, "lat": 47.3727575, "lon": 8.535959}, {"type": "node", "id": 3344237883, "lat": 47.3727584, "lon": 8.536331}, {"type": "node", "id": 3344346794, "lat": 47.3719527, "lon": 8.5363125, "tags": {"addr:city": "Z\u00fcrich", "addr:country": "CH", "addr:housenumber": "15", "addr:postcode": "8001", "addr:street": "N\u00fcschelerstrasse"}}, {"type": "node", "id": 3344346795, "lat": 47.3723786, "lon": 8.5379643, "tags": {"addr:city": "Z\u00fcrich", "addr:country": "CH", "addr:housenumber": "2", "addr:postcode": "8001", "addr:street": "Pelikanstrasse"}}, {"type": "node", "id": 3344346796, "lat": 47.3716931, "lon": 8.535668, "tags": {"addr:city": "Z\u00fcrich", "addr:country": "CH", "addr:housenumber": "34", "addr:postcode": "8001", "addr:street": "Talacker"}}, {"type": "node", "id": 3344346797, "lat": 47.3725097, "lon": 8.5375268, "tags": {"addr:city": "Z\u00fcrich", "addr:country": "CH", "addr:housenumber": "4", "addr:postcode": "8001", "addr:street": "St. Annagasse"}}, {"type": "node", "id": 3344346798, "lat": 47.3726182, "lon": 8.5381436, "tags": {"addr:city": "Z\u00fcrich", "addr:country": "CH", "addr:housenumber": "53", "addr:postcode": "8001", "addr:street": "Bahnhofstrasse"}}, {"type": "node", "id": 3344346799, "lat": 47.3727995, "lon": 8.5377191, "tags": {"addr:city": "Z\u00fcrich", "addr:country": "CH", "addr:housenumber": "55", "addr:postcode": "8001", "addr:street": "Bahnhofstrasse"}}, {"type": "node", "id": 3344346801, "lat": 47.3717645, "lon": 8.535844}, {"type": "node", "id": 3344346802, "lat": 47.3717693, "lon": 8.5365604}, {"type": "node", "id": 3344346803, "lat": 47.3718043, "lon": 8.5359013}, {"type": "node", "id": 3344346805, "lat": 47.3718393, "lon": 8.5358521}, {"type": "node", "id": 3344346807, "lat": 47.371873, "lon": 8.5359055}, {"type": "node", "id": 3344346810, "lat": 47.371988, "lon": 8.5358601}, {"type": "node", "id": 3344346828, "lat": 47.3727655, "lon": 8.537445}, {"type": "node", "id": 3344346829, "lat": 47.3727678, "lon": 8.5375776}, {"type": "node", "id": 3344346830, "lat": 47.3727955, "lon": 8.5376173}, {"type": "node", "id": 3344346831, "lat": 47.3727921, "lon": 8.5374026}, {"type": "node", "id": 3344346832, "lat": 47.3728261, "lon": 8.5374014}, {"type": "node", "id": 3344346833, "lat": 47.3728296, "lon": 8.5376162}, {"type": "node", "id": 3344346834, "lat": 47.3728543, "lon": 8.5374417}, {"type": "node", "id": 3344346835, "lat": 47.3728565, "lon": 8.5375743}, {"type": "node", "id": 3344346836, "lat": 47.3729075, "lon": 8.5369555}, {"type": "node", "id": 5777113793, "lat": 47.3719352, "lon": 8.5357552}, {"type": "node", "id": 5777113794, "lat": 47.3719477, "lon": 8.5358021}, {"type": "node", "id": 5777113795, "lat": 47.371786, "lon": 8.5358122}, {"type": "node", "id": 5777113796, "lat": 47.3717919, "lon": 8.5358186}, {"type": "node", "id": 5777113799, "lat": 47.3718017, "lon": 8.5355125}, {"type": "node", "id": 5777113802, "lat": 47.3721134, "lon": 8.5360866}, {"type": "node", "id": 9665793658, "lat": 47.371673, "lon": 8.5369787}, {"type": "node", "id": 9665793659, "lat": 47.3715767, "lon": 8.5368309}, {"type": "node", "id": 9665793660, "lat": 47.3715979, "lon": 8.5368016}, {"type": "node", "id": 9665793661, "lat": 47.3716943, "lon": 8.5369501}, {"type": "node", "id": 9702329022, "lat": 47.3716666, "lon": 8.5364483, "tags": {"addr:city": "Z\u00fcrich", "addr:country": "CH", "addr:housenumber": "18", "addr:postcode": "8001", "addr:street": "Pelikanstrasse"}}, {"type": "node", "id": 9702329023, "lat": 47.3719307, "lon": 8.5357608}, {"type": "node", "id": 9702329024, "lat": 47.3719421, "lon": 8.5357825}, {"type": "node", "id": 9706102311, "lat": 47.3716939, "lon": 8.537195, "tags": {"access": "private", "amenity": "parking_entrance", "parking": "underground"}}, {"type": "node", "id": 9706102312, "lat": 47.3716054, "lon": 8.5370638}, {"type": "node", "id": 9706166194, "lat": 47.3718736, "lon": 8.535701}, {"type": "node", "id": 9706166195, "lat": 47.3717808, "lon": 8.5355425}, {"type": "node", "id": 9706185917, "lat": 47.3715223, "lon": 8.5374317}, {"type": "node", "id": 9706185918, "lat": 47.3714393, "lon": 8.5372934}, {"type": "node", "id": 9706186135, "lat": 47.3716427, "lon": 8.5367398}, {"type": "node", "id": 9706186136, "lat": 47.3714893, "lon": 8.5365038}, {"type": "node", "id": 9706186162, "lat": 47.3709985, "lon": 8.5369504}, {"type": "node", "id": 9706186163, "lat": 47.3709052, "lon": 8.5367994}, {"type": "node", "id": 10716770148, "lat": 47.3730473, "lon": 8.5380936}, {"type": "node", "id": 10716770151, "lat": 47.3728221, "lon": 8.5381364}, {"type": "node", "id": 10716770152, "lat": 47.3730466, "lon": 8.5380588}, {"type": "node", "id": 10716770153, "lat": 47.3728069, "lon": 8.538137}, {"type": "node", "id": 10716770154, "lat": 47.3727979, "lon": 8.5376173}, {"type": "node", "id": 10716770155, "lat": 47.372828, "lon": 8.5376162}, {"type": "node", "id": 10716770158, "lat": 47.3725774, "lon": 8.5374298}, {"type": "node", "id": 10716770166, "lat": 47.3725628, "lon": 8.5374506}, {"type": "node", "id": 10716770167, "lat": 47.3725924, "lon": 8.5374081}, {"type": "node", "id": 10716770169, "lat": 47.3727673, "lon": 8.5375493}, {"type": "node", "id": 10716770170, "lat": 47.3726818, "lon": 8.5375526, "tags": {"access": "private", "barrier": "gate"}}, {"type": "node", "id": 10716770171, "lat": 47.3727678, "lon": 8.5375749}, {"type": "node", "id": 10716770172, "lat": 47.3726822, "lon": 8.5375782}, {"type": "node", "id": 10716770173, "lat": 47.3727669, "lon": 8.5375237}, {"type": "node", "id": 10716770174, "lat": 47.3726813, "lon": 8.5375262}, {"type": "node", "id": 10716770184, "lat": 47.3728125, "lon": 8.5376167}, {"type": "node", "id": 10716770185, "lat": 47.372856, "lon": 8.5375458}, {"type": "node", "id": 10716770186, "lat": 47.3730397, "lon": 8.537539, "tags": {"access": "private", "barrier": "gate"}}, {"type": "node", "id": 10716770187, "lat": 47.3730401, "lon": 8.5375608}, {"type": "node", "id": 10716770189, "lat": 47.3728565, "lon": 8.5375714}, {"type": "node", "id": 10716770191, "lat": 47.3730393, "lon": 8.5375172}, {"type": "node", "id": 10716770194, "lat": 47.3728556, "lon": 8.5375203}, {"type": "node", "id": 10716770195, "lat": 47.3730402, "lon": 8.5375654}, {"type": "node", "id": 10716770196, "lat": 47.3730393, "lon": 8.537513}, {"type": "node", "id": 10716770197, "lat": 47.3730413, "lon": 8.5375654}, {"type": "node", "id": 10716770198, "lat": 47.3730404, "lon": 8.5375129}, {"type": "node", "id": 10716770199, "lat": 47.3730417, "lon": 8.537589}, {"type": "node", "id": 10716770200, "lat": 47.3730399, "lon": 8.5374892}, {"type": "node", "id": 10716770201, "lat": 47.3730381, "lon": 8.5375891}, {"type": "node", "id": 10716770202, "lat": 47.3730363, "lon": 8.5374894}, {"type": "node", "id": 10716770203, "lat": 47.3730223, "lon": 8.5369504}, {"type": "node", "id": 10716770204, "lat": 47.3730478, "lon": 8.5381211}, {"type": "node", "id": 10716791705, "lat": 47.3728879, "lon": 8.5369611}, {"type": "node", "id": 10716791706, "lat": 47.3728728, "lon": 8.536983}, {"type": "node", "id": 10716791707, "lat": 47.3728688, "lon": 8.5369953}, {"type": "node", "id": 10716791708, "lat": 47.3728969, "lon": 8.5369556}, {"type": "node", "id": 10716791709, "lat": 47.372869, "lon": 8.5370109}, {"type": "node", "id": 10716791710, "lat": 47.3727834, "lon": 8.5376656}, {"type": "node", "id": 10716791711, "lat": 47.3727356, "lon": 8.537599}, {"type": "node", "id": 10716791712, "lat": 47.3727882, "lon": 8.5377695}, {"type": "node", "id": 10716791713, "lat": 47.37279, "lon": 8.5378815}, {"type": "node", "id": 10716791714, "lat": 47.3728003, "lon": 8.5377691}, {"type": "way", "id": 31968366, "nodes": [358143680, 9702329022, 358143682, 358143684, 3344346796, 9706166195, 5777113799, 358143685, 937612912, 9706166194, 5777113796, 5777113795, 3344346801, 3344346803, 3344346805, 3344346807, 5777113794, 9702329024, 9702329023, 5777113793, 3344346810, 937612857, 358143688, 5777113802, 3344346794, 3344346802, 358143680], "tags": {"addr:city": "Z\u00fcrich", "addr:country": "CH", "addr:postcode": "8001", "addr:street": "Pelikanplatz", "building": "yes", "building:levels": "6", "name": "Kaufleuten", "source": "Stadt Z\u00fcrich Open Government Data;Geomatik + Vermessung;Tiefbau- und Entsorgungsdepartement", "website": "https://kaufleuten.ch/", "wikidata": "Q60635988"}}, {"type": "way", "id": 59650551, "nodes": [739967526, 3251866831, 3344237844, 3344237838, 739967524, 9665793661, 9665793658, 921512216, 739967536, 739967532, 3344237856, 3344237857, 3344237858, 739967526], "tags": {"building": "office", "building:levels": "6", "owner": "UBS"}}, {"type": "way", "id": 78532964, "nodes": [739966956, 9706185917, 9706102311, 739967536, 921512216, 9706102312, 9706185918, 921512082, 739966956], "tags": {"addr:city": "Z\u00fcrich", "addr:country": "CH", "addr:housenumber": "10", "addr:postcode": "8001", "addr:street": "N\u00fcschelerstrasse", "building": "office", "building:levels": "6", "owner": "UBS", "source": "Stadt Z\u00fcrich Open Government Data; Geomatik + Vermessung; Tiefbau- und Entsorgungsdepartement"}}, {"type": "way", "id": 78532965, "nodes": [921512082, 3340359643, 739966940, 921512135, 921512261, 1041912348, 1041911785, 1041911454, 739967531, 3340359641, 1041912633, 921512228, 3251866819, 1041912168, 3251866818, 921511955, 739966956, 921512082], "tags": {"addr:city": "Z\u00fcrich", "addr:country": "CH", "addr:postcode": "8001", "building": "commercial", "building:levels": "4", "owner": "UBS", "roof:levels": "1", "roof:shape": "onion", "source": "Stadt Z\u00fcrich Open Government Data; Geomatik + Vermessung; Tiefbau- und Entsorgungsdepartement"}}, {"type": "way", "id": 80340829, "nodes": [937615534, 3344237837, 937615518, 3344237839, 937615536, 937615540, 3344237859, 3344237860, 937615538, 937615534], "tags": {"addr:city": "Z\u00fcrich", "addr:country": "CH", "addr:postcode": "8001", "building": "commercial", "building:levels": "5", "name": "Zum Neuen Froschauer", "source": "Stadt Z\u00fcrich Open Government Data; Geomatik + Vermessung; Tiefbau- und Entsorgungsdepartement"}}, {"type": "way", "id": 80340830, "nodes": [937615520, 937615519, 937615533, 937615532, 937615520], "tags": {"addr:city": "Z\u00fcrich", "addr:country": "CH", "addr:housenumber": "11", "addr:postcode": "8001", "addr:street": "St. Annagasse", "amenity": "place_of_worship", "building": "church", "denomination": "reformed", "name": "St. Anna-Kapelle", "religion": "christian", "source": "Stadt Z\u00fcrich Open Government Data;Geomatik + Vermessung;Tiefbau- und Entsorgungsdepartement", "wheelchair": "limited"}}, {"type": "way", "id": 80340832, "nodes": [937615533, 937615523, 937615525, 937615510, 3251866849, 3251866847, 937615516, 937615535, 937615515, 937615513, 937615532, 937615533], "tags": {"addr:city": "Z\u00fcrich", "addr:country": "CH", "addr:housenumber": "9", "addr:postcode": "8001", "addr:street": "St. Annagasse", "building": "yes", "source": "Stadt Z\u00fcrich Open Government Data; Geomatik + Vermessung; Tiefbau- und Entsorgungsdepartement"}}, {"type": "way", "id": 80340833, "nodes": [937615529, 3251866834, 3251866835, 3251866836, 3251866837, 3251866841, 3251866840, 3251866842, 3251866843, 937615526, 937615528, 3251866850, 3251866848, 937615514, 937615529], "tags": {"addr:city": "Z\u00fcrich", "addr:country": "CH", "addr:postcode": "8001", "building": "yes", "building:levels": "6", "source": "Stadt Z\u00fcrich Open Government Data; Geomatik + Vermessung; Tiefbau- und Entsorgungsdepartement"}}, {"type": "way", "id": 80340835, "nodes": [937615517, 3344237882, 937615527, 3251866812, 3344237843, 3344237842, 937615530, 937615519, 937615520, 937615539, 3344237883, 3344237879, 937615515, 937615535, 3344237877, 3344237880, 937615517], "tags": {"addr:city": "Z\u00fcrich", "addr:country": "CH", "addr:postcode": "8001", "building": "yes", "name": "Glockenhof", "source": "Stadt Z\u00fcrich Open Government Data;Geomatik + Vermessung;Tiefbau- und Entsorgungsdepartement", "tourism": "hotel", "website": "https://www.glockenhof.ch/"}}, {"type": "way", "id": 80359858, "nodes": [937801790, 3344346795, 937801780, 3344346798, 937801783, 937801745, 10716791713, 10716791712, 10716791714, 3344346799, 937801747, 10716791710, 10716791711, 937801734, 3251866857, 10716770172, 10716770170, 10716770174, 937801755, 937801742, 10716770167, 10716770158, 10716770166, 3344346797, 937801790], "tags": {"building": "commercial", "building:levels": "5", "note": "formerly Credit Suisse, now AXA", "old_name": "SVB Bahnhofstrasse", "owner": "AXA Winterthur", "roof:levels": "1", "survey:date": "2017-12-05"}}, {"type": "way", "id": 80359863, "nodes": [937801775, 10716770202, 10716770200, 10716770198, 10716770196, 10716770191, 10716770186, 10716770187, 10716770195, 10716770197, 10716770199, 10716770201, 10716770152, 10716770148, 10716770204, 937801774, 10716770151, 10716770153, 937801783, 937801745, 10716791713, 10716791712, 10716791714, 3344346799, 937801747, 10716791710, 10716791711, 937801734, 3251866857, 10716770172, 10716770170, 10716770174, 937801755, 937801742, 10716791709, 10716791707, 10716791706, 10716791705, 10716791708, 3344346836, 10716770203, 937801775]}, {"type": "way", "id": 327298864, "nodes": [3340360135, 9706186136, 3340360142, 3340359638, 3340360144, 9706186135, 9665793660, 9665793659, 3340359635, 3340360140, 3340360133, 3340360134, 3340360135], "tags": {"addr:city": "Z\u00fcrich", "addr:country": "CH", "addr:postcode": "8001", "building": "yes", "building:levels": "6", "source": "Stadt Z\u00fcrich Open Government Data; Geomatik + Vermessung; Tiefbau- und Entsorgungsdepartement"}}, {"type": "way", "id": 327298869, "nodes": [3340359677, 9706186163, 3340360102, 3340360135, 3340360134, 3340360109, 3340360098, 3340360093, 9706186162, 3340359682, 3340359677], "tags": {"addr:city": "Z\u00fcrich", "addr:country": "CH", "addr:housenumber": "30", "addr:postcode": "8001", "addr:street": "Talacker", "building": "office", "building:levels": "6", "source": "Stadt Z\u00fcrich Open Government Data; Geomatik + Vermessung; Tiefbau- und Entsorgungsdepartement"}}, {"type": "way", "id": 327298873, "nodes": [3340360101, 3340359688, 3340360096, 3340360093, 3340360098, 3340360100, 3340360111, 3340360115, 3340360121, 3340360123, 3340360127, 3340360129, 3340360125, 3340360128, 3340360124, 3340360122, 3340360107, 3340360110, 3340360106, 3340360104, 3340360101], "tags": {"addr:city": "Z\u00fcrich", "addr:country": "CH", "addr:housenumber": "7", "addr:postcode": "8001", "addr:street": "N\u00fcschelerstrasse", "building": "office", "source": "Stadt Z\u00fcrich Open Government Data; Geomatik + Vermessung; Tiefbau- und Entsorgungsdepartement"}}, {"type": "way", "id": 327298874, "nodes": [3340360140, 3340360113, 3340360103, 3340360106, 3340360110, 3340360114, 3340360112, 3340360118, 3340360120, 3340360124, 3340360128, 3340360133, 3340360140], "tags": {"addr:city": "Z\u00fcrich", "addr:country": "CH", "addr:housenumber": "9", "addr:postcode": "8001", "addr:street": "N\u00fcschelerstrasse", "building": "commercial", "building:levels": "4", "source": "Stadt Z\u00fcrich Open Government Data; Geomatik + Vermessung; Tiefbau- und Entsorgungsdepartement"}}, {"type": "way", "id": 327613478, "nodes": [739967526, 3344237858, 3344237857, 3344237856, 739967532, 3344237854, 3344237855, 3344237852, 3344237853, 921512232, 3344237850, 3344237851, 921511995, 3251866826, 3251866825, 921512059, 3251866823, 921512140, 921512014, 3251866821, 921512084, 3251866820, 3344237845, 3344237846, 3344237847, 739967523, 3344237849, 3344237848, 739966944, 1110775503, 1110775372, 739967534, 3251866838, 921511974, 921512122, 3251866833, 739967526], "tags": {"addr:city": "Z\u00fcrich", "addr:country": "CH", "addr:postcode": "8001", "building": "commercial", "construction": "yes", "note": "UBS Headquarters under reconstruction until 2018", "old_name": "SBG Bahnhofstrasse", "owner": "UBS", "source": "Stadt Z\u00fcrich Open Government Data; Geomatik + Vermessung; Tiefbau- und Entsorgungsdepartement", "survey:date": "2017-05-11"}}, {"type": "way", "id": 327613479, "nodes": [3344237863, 937615540, 937615536, 3344237840, 3344237841, 3344237861, 3344237863], "tags": {"addr:city": "Z\u00fcrich", "addr:country": "CH", "addr:postcode": "8001", "building": "yes", "source": "Stadt Z\u00fcrich Open Government Data; Geomatik + Vermessung; Tiefbau- und Entsorgungsdepartement"}}, {"type": "way", "id": 327627320, "nodes": [3344346832, 3344346831, 3344346828, 10716770173, 10716770169, 10716770171, 3344346829, 3344346830, 10716770154, 10716770184, 10716770155, 3344346833, 3344346835, 10716770189, 10716770185, 10716770194, 3344346834, 3344346832]}, {"type": "relation", "id": 4581096, "members": [{"type": "way", "ref": 80359863, "role": "outer"}, {"type": "way", "ref": 327627320, "role": "inner"}], "tags": {"addr:city": "Z\u00fcrich", "addr:country": "CH", "addr:housenumber": "57", "addr:postcode": "8001", "addr:street": "Bahnhofstrasse", "building": "retail", "building:levels": "5", "name": "St. Annahof", "owner": "Coop Immobilien", "roof:levels": "1", "source": "Stadt Z\u00fcrich Open Government Data; Geomatik + Vermessung; Tiefbau- und Entsorgungsdepartement", "type": "multipolygon", "wikidata": "Q2317180"}}]}