{"version": 0.6, "generator": "Overpass API 0.7.60.6 e2dc3e5b", "osm3s": {"timestamp_osm_base": "2023-06-29T12:49:34Z", "copyright": "The data included in this document is from www.openstreetmap.org. The data is made available under ODbL."}, "elements": [{"type": "node", "id": 1122535294, "lat": 47.3657208, "lon": 8.5317073}, {"type": "node", "id": 1122535343, "lat": 47.3657626, "lon": 8.531701}, {"type": "node", "id": 1122535412, "lat": 47.3657786, "lon": 8.5318536}, {"type": "node", "id": 1122535426, "lat": 47.3659013, "lon": 8.5314248}, {"type": "node", "id": 1122535574, "lat": 47.3659457, "lon": 8.5315377}, {"type": "node", "id": 1122535634, "lat": 47.3658401, "lon": 8.5314773}, {"type": "node", "id": 1122535667, "lat": 47.3655123, "lon": 8.5317284}, {"type": "node", "id": 1122535708, "lat": 47.365935, "lon": 8.5315104}, {"type": "node", "id": 1122535751, "lat": 47.3657055, "lon": 8.531691}, {"type": "node", "id": 1122535794, "lat": 47.3657556, "lon": 8.5316775}, {"type": "node", "id": 1122535841, "lat": 47.365912, "lon": 8.5317293}, {"type": "node", "id": 1122535870, "lat": 47.3657765, "lon": 8.5314775}, {"type": "node", "id": 1122536057, "lat": 47.3655066, "lon": 8.5317015}, {"type": "node", "id": 1122536092, "lat": 47.3657115, "lon": 8.5317494}, {"type": "node", "id": 1122536192, "lat": 47.3659682, "lon": 8.5319012}, {"type": "node", "id": 1122536218, "lat": 47.3658362, "lon": 8.5316451}, {"type": "node", "id": 1122536270, "lat": 47.3657966, "lon": 8.5318188}, {"type": "node", "id": 1122536293, "lat": 47.3657908, "lon": 8.5320203}, {"type": "node", "id": 1122536382, "lat": 47.3658863, "lon": 8.5315951}, {"type": "node", "id": 1122536397, "lat": 47.365767, "lon": 8.5317854}, {"type": "node", "id": 1122536433, "lat": 47.365769, "lon": 8.5320166}, {"type": "node", "id": 3386238796, "lat": 47.3658809, "lon": 8.5319594, "tags": {"addr:city": "Z\u00fcrich", "addr:country": "CH", "addr:housenumber": "2", "addr:postcode": "8002", "addr:street": "Seestrasse", "entrance": "yes"}}, {"type": "node", "id": 3386238798, "lat": 47.3657155, "lon": 8.5319563, "tags": {"addr:city": "Z\u00fcrich", "addr:country": "CH", "addr:housenumber": "4", "addr:postcode": "8002", "addr:street": "Seestrasse", "entrance": "yes"}}, {"type": "node", "id": 3386238800, "lat": 47.3656159, "lon": 8.5318415, "tags": {"addr:city": "Z\u00fcrich", "addr:country": "CH", "addr:housenumber": "6", "addr:postcode": "8002", "addr:street": "Seestrasse", "entrance": "yes"}}, {"type": "node", "id": 3721562991, "lat": 47.3656498, "lon": 8.5318821}, {"type": "node", "id": 3721562994, "lat": 47.3656625, "lon": 8.5315737}, {"type": "node", "id": 3721563009, "lat": 47.3657583, "lon": 8.5318022}, {"type": "node", "id": 3721563015, "lat": 47.365791, "lon": 8.5318675}, {"type": "node", "id": 3721563017, "lat": 47.3657954, "lon": 8.5315503}, {"type": "node", "id": 3721563018, "lat": 47.3657972, "lon": 8.5315332}, {"type": "node", "id": 3721563019, "lat": 47.3658088, "lon": 8.531827}, {"type": "node", "id": 3721563020, "lat": 47.3658094, "lon": 8.5318538}, {"type": "node", "id": 3721563023, "lat": 47.3658392, "lon": 8.5317786}, {"type": "node", "id": 3721569226, "lat": 47.3658463, "lon": 8.5318015}, {"type": "node", "id": 3721569227, "lat": 47.365849, "lon": 8.5319811}, {"type": "node", "id": 3721569239, "lat": 47.3659022, "lon": 8.5316009}, {"type": "node", "id": 3721569242, "lat": 47.3659161, "lon": 8.5316361}, {"type": "node", "id": 3721569246, "lat": 47.3659317, "lon": 8.531925}, {"type": "node", "id": 3721569247, "lat": 47.3659347, "lon": 8.5319347}, {"type": "node", "id": 3721569248, "lat": 47.3659476, "lon": 8.5315426}, {"type": "node", "id": 3721569249, "lat": 47.3659509, "lon": 8.5316062}, {"type": "node", "id": 3721569250, "lat": 47.3659528, "lon": 8.5319116}, {"type": "node", "id": 3721569251, "lat": 47.3659556, "lon": 8.5319205}, {"type": "node", "id": 3721569252, "lat": 47.3659621, "lon": 8.5316346}, {"type": "node", "id": 3721569256, "lat": 47.3659797, "lon": 8.5315345}, {"type": "node", "id": 3721569260, "lat": 47.3660047, "lon": 8.531598}, {"type": "node", "id": 5770475997, "lat": 47.3657675, "lon": 8.5320357}, {"type": "node", "id": 5770475998, "lat": 47.3657894, "lon": 8.5320393}, {"type": "node", "id": 5770475999, "lat": 47.3657031, "lon": 8.5317655}, {"type": "node", "id": 5770476000, "lat": 47.3657076, "lon": 8.5317706}, {"type": "node", "id": 5770476001, "lat": 47.3658057, "lon": 8.5318419}, {"type": "node", "id": 5770476002, "lat": 47.3659419, "lon": 8.5318254}, {"type": "node", "id": 5770476003, "lat": 47.3659442, "lon": 8.5318239}, {"type": "way", "id": 96879647, "nodes": [1122535426, 1122535634, 1122536382, 3721569248, 1122535574, 1122535708, 1122535426], "tags": {"addr:city": "Z\u00fcrich", "addr:country": "CH", "addr:housenumber": "6", "addr:postcode": "8002", "addr:street": "Ulmbergstrasse", "building": "yes"}}, {"type": "way", "id": 96879711, "nodes": [3721569227, 1122536293, 5770475998, 5770475997, 1122536433, 3386238798, 3721562991, 5770476000, 5770475999, 1122536092, 3721563009, 1122536397, 1122536270, 1122535412, 3721563015, 3721563020, 3721569227], "tags": {"building": "apartments", "building:levels": "4", "roof:levels": "1"}}, {"type": "way", "id": 368305306, "nodes": [3721562994, 1122535870, 3721563018, 3721563017, 1122536218, 1122535343, 1122535794, 1122535294, 1122535751, 3721562994], "tags": {"addr:city": "Z\u00fcrich", "addr:country": "CH", "addr:housenumber": "4", "addr:postcode": "8002", "addr:street": "Ulmbergstrasse", "building": "yes"}}, {"type": "way", "id": 368305310, "nodes": [3721569256, 3721569260, 3721569252, 3721569249, 3721569242, 3721569239, 3721569256], "tags": {"addr:city": "Z\u00fcrich", "addr:country": "CH", "addr:housenumber": "6a", "addr:postcode": "8002", "addr:street": "Ulmbergstrasse", "building": "yes"}}, {"type": "way", "id": 368305312, "nodes": [3721563020, 5770476001, 3721563019, 3721569226, 3721563023, 1122535841, 5770476002, 5770476003, 1122536192, 3721569250, 3721569251, 3721569247, 3721569246, 3386238796, 3721569227, 3721563020], "tags": {"building": "apartments", "building:levels": "4", "roof:levels": "1"}}, {"type": "way", "id": 368305320, "nodes": [1122535751, 1122536092, 5770475999, 5770476000, 3721562991, 3386238800, 1122535667, 1122536057, 3721562994, 1122535751], "tags": {"building": "apartments", "building:levels": "4", "roof:levels": "1"}}]}