{"version": 0.6, "generator": "Overpass API 0.7.60.6 e2dc3e5b", "osm3s": {"timestamp_osm_base": "2023-06-29T15:26:06Z", "copyright": "The data included in this document is from www.openstreetmap.org. The data is made available under ODbL."}, "elements": [{"type": "node", "id": 27481895, "lat": 47.3716221, "lon": 8.5425411}, {"type": "node", "id": 318696158, "lat": 47.3718535, "lon": 8.5427081}, {"type": "node", "id": 331180244, "lat": 47.3713397, "lon": 8.5426051}, {"type": "node", "id": 331180323, "lat": 47.3716887, "lon": 8.5427362}, {"type": "node", "id": 331180643, "lat": 47.3720976, "lon": 8.5426608}, {"type": "node", "id": 387214656, "lat": 47.3716777, "lon": 8.5442418}, {"type": "node", "id": 387214681, "lat": 47.3714004, "lon": 8.5437334}, {"type": "node", "id": 387214685, "lat": 47.371347, "lon": 8.5439117}, {"type": "node", "id": 387214691, "lat": 47.3714767, "lon": 8.543937}, {"type": "node", "id": 387219678, "lat": 47.3742775, "lon": 8.5431821}, {"type": "node", "id": 387219679, "lat": 47.3740999, "lon": 8.5431221}, {"type": "node", "id": 387219680, "lat": 47.3740508, "lon": 8.5436184}, {"type": "node", "id": 387219681, "lat": 47.3742018, "lon": 8.5436695}, {"type": "node", "id": 387850549, "lat": 47.3720781, "lon": 8.5441534}, {"type": "node", "id": 387850550, "lat": 47.371934, "lon": 8.5441447}, {"type": "node", "id": 387850551, "lat": 47.3719017, "lon": 8.5438836}, {"type": "node", "id": 387850552, "lat": 47.3720651, "lon": 8.5438904}, {"type": "node", "id": 387850566, "lat": 47.3717293, "lon": 8.5438547}, {"type": "node", "id": 387850568, "lat": 47.3718053, "lon": 8.5441743}, {"type": "node", "id": 387850569, "lat": 47.371909, "lon": 8.5441237}, {"type": "node", "id": 387850571, "lat": 47.3718766, "lon": 8.5438635}, {"type": "node", "id": 387850572, "lat": 47.3721024, "lon": 8.5430887}, {"type": "node", "id": 387850573, "lat": 47.371832, "lon": 8.543082}, {"type": "node", "id": 387850574, "lat": 47.3721034, "lon": 8.5429099}, {"type": "node", "id": 387850576, "lat": 47.3718325, "lon": 8.5429535}, {"type": "node", "id": 387850615, "lat": 47.3713134, "lon": 8.5438291}, {"type": "node", "id": 387850654, "lat": 47.3724234, "lon": 8.5429175}, {"type": "node", "id": 387850655, "lat": 47.3724202, "lon": 8.5430624}, {"type": "node", "id": 387850656, "lat": 47.3722755, "lon": 8.5430668}, {"type": "node", "id": 387850657, "lat": 47.3722743, "lon": 8.5431075}, {"type": "node", "id": 387850658, "lat": 47.3721559, "lon": 8.5431187}, {"type": "node", "id": 387850659, "lat": 47.3721566, "lon": 8.54291}, {"type": "node", "id": 387850664, "lat": 47.3729064, "lon": 8.54311}, {"type": "node", "id": 387850665, "lat": 47.3728133, "lon": 8.5431098}, {"type": "node", "id": 387850666, "lat": 47.3728061, "lon": 8.5428519}, {"type": "node", "id": 387850667, "lat": 47.372909, "lon": 8.5428556}, {"type": "node", "id": 471592602, "lat": 47.3730379, "lon": 8.5434949}, {"type": "node", "id": 472267730, "lat": 47.3730388, "lon": 8.5433448}, {"type": "node", "id": 560397861, "lat": 47.3737764, "lon": 8.5437342, "tags": {"addr:city": "Z\u00fcrich", "addr:country": "CH", "addr:housenumber": "22", "addr:postcode": "8001", "addr:street": "Niederdorfstrasse"}}, {"type": "node", "id": 633601369, "lat": 47.37235, "lon": 8.5436672, "tags": {"addr:city": "Z\u00fcrich", "addr:country": "CH", "addr:housenumber": "13", "addr:postcode": "8001", "addr:street": "St\u00fcssihofstatt"}}, {"type": "node", "id": 633640151, "lat": 47.3716025, "lon": 8.5439078, "tags": {"addr:city": "Z\u00fcrich", "addr:country": "CH", "addr:housenumber": "26", "addr:postcode": "8001", "addr:street": "M\u00fcnstergasse"}}, {"type": "node", "id": 633640154, "lat": 47.3716221, "lon": 8.5440917, "tags": {"addr:city": "Z\u00fcrich", "addr:country": "CH", "addr:housenumber": "1", "addr:postcode": "8001", "addr:street": "Spiegelgasse"}}, {"type": "node", "id": 633640168, "lat": 47.3719843, "lon": 8.5438876, "tags": {"addr:city": "Z\u00fcrich", "addr:country": "CH", "addr:housenumber": "14", "addr:postcode": "8001", "addr:street": "Marktgasse"}}, {"type": "node", "id": 633640178, "lat": 47.3721215, "lon": 8.5437803, "tags": {"addr:city": "Z\u00fcrich", "addr:country": "CH", "addr:housenumber": "19", "addr:postcode": "8001", "addr:street": "Marktgasse"}}, {"type": "node", "id": 633678282, "lat": 47.3735016, "lon": 8.5429504, "tags": {"addr:city": "Z\u00fcrich", "addr:country": "CH", "addr:housenumber": "82", "addr:postcode": "8001", "addr:street": "Limmatquai"}}, {"type": "node", "id": 633678286, "lat": 47.3741873, "lon": 8.5431516, "tags": {"addr:city": "Z\u00fcrich", "addr:country": "CH", "addr:housenumber": "94", "addr:postcode": "8001", "addr:street": "Limmatquai"}}, {"type": "node", "id": 637820248, "lat": 47.3736568, "lon": 8.5438154}, {"type": "node", "id": 637820249, "lat": 47.373654, "lon": 8.5437245}, {"type": "node", "id": 637820250, "lat": 47.3736411, "lon": 8.5440819}, {"type": "node", "id": 637820257, "lat": 47.3740789, "lon": 8.5433193}, {"type": "node", "id": 637820261, "lat": 47.3739592, "lon": 8.5437605}, {"type": "node", "id": 637820263, "lat": 47.3741053, "lon": 8.5433282}, {"type": "node", "id": 637820265, "lat": 47.3737627, "lon": 8.5444919}, {"type": "node", "id": 637820266, "lat": 47.3738085, "lon": 8.5440088}, {"type": "node", "id": 637820267, "lat": 47.3738084, "lon": 8.5441043}, {"type": "node", "id": 637820268, "lat": 47.3739634, "lon": 8.5444371}, {"type": "node", "id": 637820269, "lat": 47.3739393, "lon": 8.5440214}, {"type": "node", "id": 637820270, "lat": 47.3737553, "lon": 8.5441756}, {"type": "node", "id": 637820271, "lat": 47.3737979, "lon": 8.5441619}, {"type": "node", "id": 637820272, "lat": 47.3738421, "lon": 8.5442484}, {"type": "node", "id": 637820273, "lat": 47.3739371, "lon": 8.5442382}, {"type": "node", "id": 637820274, "lat": 47.3738271, "lon": 8.5441156}, {"type": "node", "id": 637820275, "lat": 47.3739388, "lon": 8.5441223}, {"type": "node", "id": 637820276, "lat": 47.37379, "lon": 8.5443845}, {"type": "node", "id": 637820277, "lat": 47.3738552, "lon": 8.5443587}, {"type": "node", "id": 637820279, "lat": 47.3740671, "lon": 8.5444831}, {"type": "node", "id": 637820281, "lat": 47.3740877, "lon": 8.5443511}, {"type": "node", "id": 637820282, "lat": 47.3741174, "lon": 8.5441728}, {"type": "node", "id": 637820285, "lat": 47.3737287, "lon": 8.544743}, {"type": "node", "id": 638948673, "lat": 47.3727028, "lon": 8.5431726}, {"type": "node", "id": 638948674, "lat": 47.3727117, "lon": 8.5434868}, {"type": "node", "id": 638965998, "lat": 47.3735898, "lon": 8.5431599}, {"type": "node", "id": 638966001, "lat": 47.3735876, "lon": 8.5429567}, {"type": "node", "id": 638966006, "lat": 47.3735523, "lon": 8.5432853}, {"type": "node", "id": 638966007, "lat": 47.3734458, "lon": 8.5432732}, {"type": "node", "id": 638966008, "lat": 47.3734458, "lon": 8.5433541}, {"type": "node", "id": 638966011, "lat": 47.3737604, "lon": 8.5429881}, {"type": "node", "id": 638966023, "lat": 47.3735487, "lon": 8.5433595}, {"type": "node", "id": 638966025, "lat": 47.3735253, "lon": 8.5433589}, {"type": "node", "id": 638966027, "lat": 47.3735245, "lon": 8.5434014, "tags": {"addr:city": "Z\u00fcrich", "addr:country": "CH", "addr:housenumber": "10", "addr:postcode": "8001", "addr:street": "Graue Gasse"}}, {"type": "node", "id": 638966029, "lat": 47.3735236, "lon": 8.543444}, {"type": "node", "id": 638966031, "lat": 47.3735476, "lon": 8.5434453}, {"type": "node", "id": 638966033, "lat": 47.3734404, "lon": 8.5434425}, {"type": "node", "id": 638966035, "lat": 47.3734341, "lon": 8.5434429}, {"type": "node", "id": 638966040, "lat": 47.3734396, "lon": 8.5434048, "tags": {"addr:city": "Z\u00fcrich", "addr:country": "CH", "addr:housenumber": "9", "addr:postcode": "8001", "addr:street": "Hirschengasse"}}, {"type": "node", "id": 638966053, "lat": 47.3736567, "lon": 8.5434651}, {"type": "node", "id": 638966054, "lat": 47.3737262, "lon": 8.5434757}, {"type": "node", "id": 638966055, "lat": 47.3736454, "lon": 8.5435015}, {"type": "node", "id": 638966056, "lat": 47.3735679, "lon": 8.5434832}, {"type": "node", "id": 638966066, "lat": 47.3735458, "lon": 8.5435454, "tags": {"addr:city": "Z\u00fcrich", "addr:country": "CH", "addr:housenumber": "12", "addr:postcode": "8001", "addr:street": "Graue Gasse"}}, {"type": "node", "id": 638966068, "lat": 47.3735439, "lon": 8.5436454}, {"type": "node", "id": 638966070, "lat": 47.3734408, "lon": 8.5436514}, {"type": "node", "id": 638966074, "lat": 47.3735584, "lon": 8.5436519}, {"type": "node", "id": 638966076, "lat": 47.3736342, "lon": 8.5436556}, {"type": "node", "id": 638966078, "lat": 47.3737141, "lon": 8.5436631}, {"type": "node", "id": 638966089, "lat": 47.3737441, "lon": 8.5432238}, {"type": "node", "id": 638984361, "lat": 47.3728444, "lon": 8.5434315}, {"type": "node", "id": 638984363, "lat": 47.3729495, "lon": 8.5435024}, {"type": "node", "id": 638984364, "lat": 47.3729237, "lon": 8.5434231}, {"type": "node", "id": 638984367, "lat": 47.3728578, "lon": 8.5437081}, {"type": "node", "id": 638984369, "lat": 47.3729583, "lon": 8.5437027}, {"type": "node", "id": 638984370, "lat": 47.3729371, "lon": 8.5436997}, {"type": "node", "id": 638984407, "lat": 47.3731596, "lon": 8.5433327}, {"type": "node", "id": 638984410, "lat": 47.3731777, "lon": 8.5436711}, {"type": "node", "id": 638984428, "lat": 47.3732316, "lon": 8.5446029, "tags": {"addr:city": "Z\u00fcrich", "addr:country": "CH", "addr:housenumber": "12", "addr:postcode": "8001", "addr:street": "Brunngasse"}}, {"type": "node", "id": 639029566, "lat": 47.3723034, "lon": 8.5438071, "tags": {"addr:city": "Z\u00fcrich", "addr:country": "CH", "addr:housenumber": "23", "addr:postcode": "8001", "addr:street": "Marktgasse"}}, {"type": "node", "id": 639048658, "lat": 47.3717841, "lon": 8.5431082, "tags": {"addr:city": "Z\u00fcrich", "addr:country": "CH", "addr:housenumber": "2", "addr:postcode": "8001", "addr:street": "Marktgasse"}}, {"type": "node", "id": 639048659, "lat": 47.3717999, "lon": 8.5432316, "tags": {"addr:city": "Z\u00fcrich", "addr:country": "CH", "addr:housenumber": "4", "addr:postcode": "8001", "addr:street": "Marktgasse"}}, {"type": "node", "id": 639048661, "lat": 47.3717782, "lon": 8.5430688, "tags": {"amenity": "atm", "brand": "Credit Suisse", "brand:wikidata": "Q372657", "level": "0", "name": "Credit Suisse", "opening_hours": "24/7", "operator": "Credit Suisse", "operator:wikidata": "Q372657", "wheelchair": "no"}}, {"type": "node", "id": 639048664, "lat": 47.3721562, "lon": 8.5430946}, {"type": "node", "id": 639048667, "lat": 47.3722753, "lon": 8.5430844}, {"type": "node", "id": 639048678, "lat": 47.3720923, "lon": 8.5436882, "tags": {"addr:city": "Z\u00fcrich", "addr:country": "CH", "addr:housenumber": "15", "addr:postcode": "8001", "addr:street": "Metzgergasse"}}, {"type": "node", "id": 656327498, "lat": 47.3735484, "lon": 8.5441394, "tags": {"check_date": "2023-04-24", "name": "Cara Moda Italiana", "shop": "clothes", "wheelchair": "no"}}, {"type": "node", "id": 656327728, "lat": 47.3738301, "lon": 8.5446423, "tags": {"check_date": "2023-04-24", "cuisine": "italian", "name": "punto italiano", "shop": "deli", "wheelchair": "no"}}, {"type": "node", "id": 660831129, "lat": 47.3737349, "lon": 8.5437311}, {"type": "node", "id": 660831130, "lat": 47.3735428, "lon": 8.5440845}, {"type": "node", "id": 660831132, "lat": 47.3736546, "lon": 8.5440495}, {"type": "node", "id": 660831133, "lat": 47.3736261, "lon": 8.5440566}, {"type": "node", "id": 660831134, "lat": 47.3736904, "lon": 8.5445722}, {"type": "node", "id": 660831135, "lat": 47.3738798, "lon": 8.5438662}, {"type": "node", "id": 660831137, "lat": 47.3738844, "lon": 8.5437437}, {"type": "node", "id": 660831138, "lat": 47.3738182, "lon": 8.5437373}, {"type": "node", "id": 660831140, "lat": 47.373949, "lon": 8.5438716}, {"type": "node", "id": 660831141, "lat": 47.3739801, "lon": 8.5437595}, {"type": "node", "id": 660831142, "lat": 47.3740514, "lon": 8.5437811}, {"type": "node", "id": 660831143, "lat": 47.3742232, "lon": 8.5438397}, {"type": "node", "id": 660831144, "lat": 47.3741323, "lon": 8.5438086}, {"type": "node", "id": 660831147, "lat": 47.373874, "lon": 8.544016}, {"type": "node", "id": 660831151, "lat": 47.3737429, "lon": 8.5441021}, {"type": "node", "id": 660831152, "lat": 47.3737643, "lon": 8.5441058}, {"type": "node", "id": 660831159, "lat": 47.3739681, "lon": 8.5441022}, {"type": "node", "id": 660831160, "lat": 47.3739698, "lon": 8.5440011}, {"type": "node", "id": 660831161, "lat": 47.3740269, "lon": 8.5440163}, {"type": "node", "id": 660831162, "lat": 47.3740413, "lon": 8.5438628}, {"type": "node", "id": 660831163, "lat": 47.3738117, "lon": 8.544502}, {"type": "node", "id": 660831164, "lat": 47.3737621, "lon": 8.5445151}, {"type": "node", "id": 660831167, "lat": 47.3739388, "lon": 8.5444363}, {"type": "node", "id": 660831169, "lat": 47.374159, "lon": 8.5440869}, {"type": "node", "id": 660831171, "lat": 47.3741842, "lon": 8.5441007}, {"type": "node", "id": 660831172, "lat": 47.3741136, "lon": 8.5439449}, {"type": "node", "id": 660831173, "lat": 47.3741043, "lon": 8.5440572}, {"type": "node", "id": 660831209, "lat": 47.3736768, "lon": 8.5445579}, {"type": "node", "id": 660831211, "lat": 47.3739349, "lon": 8.5445848}, {"type": "node", "id": 660831212, "lat": 47.3738358, "lon": 8.5446621}, {"type": "node", "id": 660846076, "lat": 47.3716654, "lon": 8.5425304}, {"type": "node", "id": 674317613, "lat": 47.3736773, "lon": 8.5429697}, {"type": "node", "id": 674317616, "lat": 47.3736847, "lon": 8.5429733}, {"type": "node", "id": 674317618, "lat": 47.3736658, "lon": 8.5431701}, {"type": "node", "id": 674317620, "lat": 47.3736701, "lon": 8.5432163}, {"type": "node", "id": 693318682, "lat": 47.3738831, "lon": 8.5433371, "tags": {"addr:city": "Z\u00fcrich", "addr:country": "CH", "addr:housenumber": "5", "addr:postcode": "8001", "addr:street": "Badergasse"}}, {"type": "node", "id": 693318685, "lat": 47.3738507, "lon": 8.543542, "tags": {"addr:city": "Z\u00fcrich", "addr:country": "CH", "addr:housenumber": "9", "addr:postcode": "8001", "addr:street": "Badergasse"}}, {"type": "node", "id": 693318700, "lat": 47.3741508, "lon": 8.5441356, "tags": {"addr:city": "Z\u00fcrich", "addr:country": "CH", "addr:housenumber": "14", "addr:postcode": "8001", "addr:street": "M\u00fchlegasse"}}, {"type": "node", "id": 759987274, "lat": 47.3718561, "lon": 8.5425072}, {"type": "node", "id": 759987277, "lat": 47.3720988, "lon": 8.5425651}, {"type": "node", "id": 791378540, "lat": 47.3725638, "lon": 8.5444673}, {"type": "node", "id": 791378541, "lat": 47.3730619, "lon": 8.5446625}, {"type": "node", "id": 791378544, "lat": 47.3724511, "lon": 8.5441405}, {"type": "node", "id": 791378546, "lat": 47.3726842, "lon": 8.543144}, {"type": "node", "id": 791378549, "lat": 47.3725097, "lon": 8.5430653}, {"type": "node", "id": 791378550, "lat": 47.3724274, "lon": 8.543866}, {"type": "node", "id": 791378551, "lat": 47.3731121, "lon": 8.5447765}, {"type": "node", "id": 791378554, "lat": 47.3729651, "lon": 8.5444033}, {"type": "node", "id": 791378555, "lat": 47.3726118, "lon": 8.5438222}, {"type": "node", "id": 791378557, "lat": 47.3725988, "lon": 8.5446227}, {"type": "node", "id": 791378558, "lat": 47.372668, "lon": 8.5431396}, {"type": "node", "id": 791378560, "lat": 47.3730656, "lon": 8.5441805}, {"type": "node", "id": 791378561, "lat": 47.3724837, "lon": 8.5448443}, {"type": "node", "id": 791378562, "lat": 47.3729373, "lon": 8.5443231}, {"type": "node", "id": 791378564, "lat": 47.3723563, "lon": 8.5441722}, {"type": "node", "id": 791378566, "lat": 47.3725664, "lon": 8.5434689}, {"type": "node", "id": 791378567, "lat": 47.3732487, "lon": 8.5446491}, {"type": "node", "id": 791378569, "lat": 47.372511, "lon": 8.5428806}, {"type": "node", "id": 791378570, "lat": 47.3724748, "lon": 8.5438512}, {"type": "node", "id": 791378572, "lat": 47.372701, "lon": 8.5433431}, {"type": "node", "id": 791378573, "lat": 47.3727842, "lon": 8.5431594}, {"type": "node", "id": 791378574, "lat": 47.3727794, "lon": 8.542886}, {"type": "node", "id": 791378575, "lat": 47.3725588, "lon": 8.5433458}, {"type": "node", "id": 791378577, "lat": 47.3729795, "lon": 8.544447}, {"type": "node", "id": 791378579, "lat": 47.3725419, "lon": 8.5431571}, {"type": "node", "id": 791378580, "lat": 47.3726198, "lon": 8.5435199}, {"type": "node", "id": 791378581, "lat": 47.3729885, "lon": 8.5442982}, {"type": "node", "id": 791378583, "lat": 47.3731821, "lon": 8.5444204}, {"type": "node", "id": 791378585, "lat": 47.3723912, "lon": 8.5443575}, {"type": "node", "id": 791378586, "lat": 47.3729388, "lon": 8.5441953}, {"type": "node", "id": 791378587, "lat": 47.3726678, "lon": 8.5430966}, {"type": "node", "id": 791378588, "lat": 47.3724078, "lon": 8.5444394}, {"type": "node", "id": 791378589, "lat": 47.3731075, "lon": 8.5439816}, {"type": "node", "id": 791378592, "lat": 47.3725039, "lon": 8.5440714}, {"type": "node", "id": 791378594, "lat": 47.3725412, "lon": 8.5443052}, {"type": "node", "id": 791378596, "lat": 47.3728375, "lon": 8.543704}, {"type": "node", "id": 791378598, "lat": 47.3726664, "lon": 8.5428817}, {"type": "node", "id": 791378600, "lat": 47.3724348, "lon": 8.5440456}, {"type": "node", "id": 791378601, "lat": 47.3731019, "lon": 8.5438103}, {"type": "node", "id": 791378603, "lat": 47.3731632, "lon": 8.5443428}, {"type": "node", "id": 791378604, "lat": 47.3728987, "lon": 8.544578}, {"type": "node", "id": 791378605, "lat": 47.3727863, "lon": 8.5440026}, {"type": "node", "id": 791378610, "lat": 47.3725217, "lon": 8.5441832}, {"type": "node", "id": 791378611, "lat": 47.3727422, "lon": 8.5437196}, {"type": "node", "id": 791378615, "lat": 47.3724398, "lon": 8.5445929}, {"type": "node", "id": 791378616, "lat": 47.3730173, "lon": 8.5445444}, {"type": "node", "id": 791378618, "lat": 47.3727444, "lon": 8.5437827}, {"type": "node", "id": 791378620, "lat": 47.3728055, "lon": 8.5444928}, {"type": "node", "id": 791378621, "lat": 47.3726595, "lon": 8.543741}, {"type": "node", "id": 791378623, "lat": 47.3725329, "lon": 8.5442562}, {"type": "node", "id": 791378624, "lat": 47.3732141, "lon": 8.5445499, "tags": {"incline": "6\u00b0"}}, {"type": "node", "id": 791378626, "lat": 47.372879, "lon": 8.5438247}, {"type": "node", "id": 791378628, "lat": 47.372695, "lon": 8.5430974}, {"type": "node", "id": 791378629, "lat": 47.3728294, "lon": 8.5434899}, {"type": "node", "id": 791378631, "lat": 47.3726952, "lon": 8.5432522}, {"type": "node", "id": 791378633, "lat": 47.3731406, "lon": 8.5442394}, {"type": "node", "id": 791378634, "lat": 47.3724256, "lon": 8.54452}, {"type": "node", "id": 791378636, "lat": 47.3725762, "lon": 8.5445479}, {"type": "node", "id": 791378637, "lat": 47.3723671, "lon": 8.5442332}, {"type": "node", "id": 791378638, "lat": 47.3729296, "lon": 8.5441498}, {"type": "node", "id": 791378640, "lat": 47.3724548, "lon": 8.5446675}, {"type": "node", "id": 791378643, "lat": 47.3723309, "lon": 8.5438896}, {"type": "node", "id": 791378644, "lat": 47.3726822, "lon": 8.5441887}, {"type": "node", "id": 791378645, "lat": 47.3725998, "lon": 8.5448044}, {"type": "node", "id": 791378647, "lat": 47.3725509, "lon": 8.5443873}, {"type": "node", "id": 791378648, "lat": 47.3726402, "lon": 8.5439992}, {"type": "node", "id": 791378649, "lat": 47.3725986, "lon": 8.5435287}, {"type": "node", "id": 791378650, "lat": 47.3726352, "lon": 8.5447947}, {"type": "node", "id": 791378651, "lat": 47.3723445, "lon": 8.5440547}, {"type": "node", "id": 792616676, "lat": 47.3723707, "lon": 8.5434149}, {"type": "node", "id": 792616677, "lat": 47.3720974, "lon": 8.5436031}, {"type": "node", "id": 792616679, "lat": 47.3722667, "lon": 8.5438022}, {"type": "node", "id": 792616680, "lat": 47.3724654, "lon": 8.5434209}, {"type": "node", "id": 792616681, "lat": 47.372498, "lon": 8.5434391}, {"type": "node", "id": 792616682, "lat": 47.372156, "lon": 8.5437848}, {"type": "node", "id": 792616684, "lat": 47.3723691, "lon": 8.5432493}, {"type": "node", "id": 792616685, "lat": 47.3723656, "lon": 8.5433455}, {"type": "node", "id": 792616686, "lat": 47.3724947, "lon": 8.5431197}, {"type": "node", "id": 792616688, "lat": 47.3723419, "lon": 8.5438126}, {"type": "node", "id": 792616695, "lat": 47.3722964, "lon": 8.5431071}, {"type": "node", "id": 792616696, "lat": 47.3724008, "lon": 8.5431134}, {"type": "node", "id": 792616697, "lat": 47.3720867, "lon": 8.5437738}, {"type": "node", "id": 792616700, "lat": 47.3724647, "lon": 8.5434377}, {"type": "node", "id": 792616702, "lat": 47.3721556, "lon": 8.5431706}, {"type": "node", "id": 792616703, "lat": 47.3724978, "lon": 8.5432483}, {"type": "node", "id": 792616704, "lat": 47.3721725, "lon": 8.5436086}, {"type": "node", "id": 792616705, "lat": 47.3724999, "lon": 8.5433486}, {"type": "node", "id": 792616708, "lat": 47.3722897, "lon": 8.5435224}, {"type": "node", "id": 792616710, "lat": 47.3723585, "lon": 8.5435429}, {"type": "node", "id": 792616711, "lat": 47.3722472, "lon": 8.5435092}, {"type": "node", "id": 893470163, "lat": 47.3720691, "lon": 8.5445524, "tags": {"addr:city": "Z\u00fcrich", "addr:country": "CH", "addr:housenumber": "8", "addr:postcode": "8001", "addr:street": "Leuengasse"}}, {"type": "node", "id": 893470182, "lat": 47.3720932, "lon": 8.5442657}, {"type": "node", "id": 893470226, "lat": 47.3719395, "lon": 8.5443898}, {"type": "node", "id": 893470243, "lat": 47.3723351, "lon": 8.5443573}, {"type": "node", "id": 893470245, "lat": 47.3720012, "lon": 8.5445877}, {"type": "node", "id": 893470250, "lat": 47.3721797, "lon": 8.5444093}, {"type": "node", "id": 893470253, "lat": 47.3722053, "lon": 8.5446}, {"type": "node", "id": 893470260, "lat": 47.3720555, "lon": 8.5442737}, {"type": "node", "id": 893470290, "lat": 47.3720175, "lon": 8.5444375}, {"type": "node", "id": 893470311, "lat": 47.3717496, "lon": 8.5442795}, {"type": "node", "id": 893470315, "lat": 47.3720658, "lon": 8.5446016}, {"type": "node", "id": 893470322, "lat": 47.3722295, "lon": 8.5442582}, {"type": "node", "id": 893470347, "lat": 47.3719181, "lon": 8.5445102}, {"type": "node", "id": 893470358, "lat": 47.3723893, "lon": 8.5447285}, {"type": "node", "id": 893470395, "lat": 47.3721546, "lon": 8.5438455}, {"type": "node", "id": 893470396, "lat": 47.3723695, "lon": 8.5445378}, {"type": "node", "id": 893470402, "lat": 47.3722247, "lon": 8.544783}, {"type": "node", "id": 893470411, "lat": 47.3720675, "lon": 8.5443677}, {"type": "node", "id": 893470440, "lat": 47.37208, "lon": 8.544425}, {"type": "node", "id": 893470457, "lat": 47.3721013, "lon": 8.5443577}, {"type": "node", "id": 893470459, "lat": 47.3719267, "lon": 8.5443007}, {"type": "node", "id": 893470463, "lat": 47.3723029, "lon": 8.5441403}, {"type": "node", "id": 893470478, "lat": 47.3720872, "lon": 8.5440972}, {"type": "node", "id": 893470480, "lat": 47.3718271, "lon": 8.5445539}, {"type": "node", "id": 893470482, "lat": 47.3723808, "lon": 8.5446305}, {"type": "node", "id": 893470485, "lat": 47.3720686, "lon": 8.5438311}, {"type": "node", "id": 893470505, "lat": 47.3723394, "lon": 8.5443727}, {"type": "node", "id": 893470515, "lat": 47.3722141, "lon": 8.5446933}, {"type": "node", "id": 893470519, "lat": 47.3720773, "lon": 8.5444509, "tags": {"addr:city": "Z\u00fcrich", "addr:country": "CH", "addr:housenumber": "12", "addr:postcode": "8001", "addr:street": "Els\u00e4ssergasse"}}, {"type": "node", "id": 893470547, "lat": 47.372182, "lon": 8.5444257}, {"type": "node", "id": 893470579, "lat": 47.3721499, "lon": 8.5441967}, {"type": "node", "id": 893470594, "lat": 47.3717317, "lon": 8.5443831}, {"type": "node", "id": 893470598, "lat": 47.3722789, "lon": 8.5438635}, {"type": "node", "id": 893470607, "lat": 47.3721471, "lon": 8.5441432}, {"type": "node", "id": 893470626, "lat": 47.3719187, "lon": 8.544214}, {"type": "node", "id": 893470635, "lat": 47.3722217, "lon": 8.5441559}, {"type": "node", "id": 894108000, "lat": 47.3718824, "lon": 8.5436828}, {"type": "node", "id": 894108001, "lat": 47.3717499, "lon": 8.5429898}, {"type": "node", "id": 894108005, "lat": 47.3716856, "lon": 8.5433835}, {"type": "node", "id": 894108007, "lat": 47.3717244, "lon": 8.5436806}, {"type": "node", "id": 894108014, "lat": 47.3714155, "lon": 8.5429928}, {"type": "node", "id": 894108016, "lat": 47.3713128, "lon": 8.5430329}, {"type": "node", "id": 894108020, "lat": 47.371718, "lon": 8.5437993}, {"type": "node", "id": 894108021, "lat": 47.3717016, "lon": 8.5435254}, {"type": "node", "id": 894108022, "lat": 47.3714866, "lon": 8.5439226}, {"type": "node", "id": 894108023, "lat": 47.3716723, "lon": 8.5438158}, {"type": "node", "id": 894108024, "lat": 47.3717163, "lon": 8.5436273}, {"type": "node", "id": 894108025, "lat": 47.3719726, "lon": 8.5434276}, {"type": "node", "id": 894108026, "lat": 47.3716827, "lon": 8.5430003}, {"type": "node", "id": 894108029, "lat": 47.3715848, "lon": 8.5432416}, {"type": "node", "id": 894108030, "lat": 47.3720735, "lon": 8.5437543}, {"type": "node", "id": 894108031, "lat": 47.3719752, "lon": 8.5434858}, {"type": "node", "id": 894108032, "lat": 47.3719729, "lon": 8.5432981}, {"type": "node", "id": 894108033, "lat": 47.3714581, "lon": 8.5431917}, {"type": "node", "id": 894108034, "lat": 47.3716942, "lon": 8.5436347}, {"type": "node", "id": 894108035, "lat": 47.3714942, "lon": 8.5433762}, {"type": "node", "id": 894108036, "lat": 47.3714021, "lon": 8.5434151}, {"type": "node", "id": 894108037, "lat": 47.3718193, "lon": 8.5434919}, {"type": "node", "id": 894108039, "lat": 47.3715707, "lon": 8.5430206}, {"type": "node", "id": 894108040, "lat": 47.3719868, "lon": 8.5431198}, {"type": "node", "id": 894108041, "lat": 47.3717628, "lon": 8.543674}, {"type": "node", "id": 894108044, "lat": 47.3717716, "lon": 8.5430247}, {"type": "node", "id": 894108046, "lat": 47.3717952, "lon": 8.5436657}, {"type": "node", "id": 894108047, "lat": 47.3715057, "lon": 8.5437}, {"type": "node", "id": 894108050, "lat": 47.3716931, "lon": 8.5434485, "tags": {"addr:city": "Z\u00fcrich", "addr:country": "CH", "addr:housenumber": "7", "addr:postcode": "8001", "addr:street": "Krebsgasse"}}, {"type": "node", "id": 894108051, "lat": 47.3720867, "lon": 8.5433612}, {"type": "node", "id": 894108052, "lat": 47.3718315, "lon": 8.5436306}, {"type": "node", "id": 894108054, "lat": 47.3715394, "lon": 8.5429425}, {"type": "node", "id": 894108055, "lat": 47.371678, "lon": 8.5433012}, {"type": "node", "id": 894108056, "lat": 47.3715592, "lon": 8.543873}, {"type": "node", "id": 894108058, "lat": 47.3713727, "lon": 8.5436054}, {"type": "node", "id": 894108059, "lat": 47.37155, "lon": 8.5436325}, {"type": "node", "id": 894108060, "lat": 47.3718531, "lon": 8.5434717}, {"type": "node", "id": 894108061, "lat": 47.371795, "lon": 8.5436152}, {"type": "node", "id": 894108063, "lat": 47.37167, "lon": 8.5432171}, {"type": "node", "id": 894108065, "lat": 47.371869, "lon": 8.5435908}, {"type": "node", "id": 894108066, "lat": 47.3718606, "lon": 8.5435338}, {"type": "node", "id": 894108067, "lat": 47.3718403, "lon": 8.5432863}, {"type": "node", "id": 894108068, "lat": 47.3719737, "lon": 8.5433471}, {"type": "node", "id": 894108070, "lat": 47.3718363, "lon": 8.54314}, {"type": "node", "id": 894108071, "lat": 47.3718022, "lon": 8.543268}, {"type": "node", "id": 894108073, "lat": 47.3718444, "lon": 8.5433739}, {"type": "node", "id": 894108074, "lat": 47.3718085, "lon": 8.5433608}, {"type": "node", "id": 894108075, "lat": 47.3715665, "lon": 8.543644, "tags": {"addr:city": "Z\u00fcrich", "addr:country": "CH", "addr:housenumber": "10", "addr:postcode": "8001", "addr:street": "Krebsgasse"}}, {"type": "node", "id": 894108076, "lat": 47.3719869, "lon": 8.5431809}, {"type": "node", "id": 894108077, "lat": 47.3718304, "lon": 8.5436097}, {"type": "node", "id": 894108078, "lat": 47.3717971, "lon": 8.5431887}, {"type": "node", "id": 894108079, "lat": 47.3714319, "lon": 8.5437551}, {"type": "node", "id": 894108080, "lat": 47.3719759, "lon": 8.5435516}, {"type": "node", "id": 894108081, "lat": 47.3718265, "lon": 8.5436549}, {"type": "node", "id": 894108083, "lat": 47.3716545, "lon": 8.5433726}, {"type": "node", "id": 894108084, "lat": 47.3719115, "lon": 8.5437543}, {"type": "node", "id": 894108086, "lat": 47.3715, "lon": 8.5434106}, {"type": "node", "id": 894108087, "lat": 47.3721024, "lon": 8.5431936}, {"type": "node", "id": 894108088, "lat": 47.3716676, "lon": 8.5431944}, {"type": "node", "id": 894108093, "lat": 47.3715111, "lon": 8.543465}, {"type": "node", "id": 894108094, "lat": 47.371643, "lon": 8.543224}, {"type": "node", "id": 894108095, "lat": 47.3715973, "lon": 8.5432091}, {"type": "node", "id": 894108096, "lat": 47.3717611, "lon": 8.5436216}, {"type": "node", "id": 894788878, "lat": 47.3717808, "lon": 8.5440462}, {"type": "node", "id": 894788880, "lat": 47.3716552, "lon": 8.5442617}, {"type": "node", "id": 894788882, "lat": 47.3717752, "lon": 8.5444597}, {"type": "node", "id": 894788883, "lat": 47.3714597, "lon": 8.5445085}, {"type": "node", "id": 894788884, "lat": 47.371641, "lon": 8.543884}, {"type": "node", "id": 894788885, "lat": 47.3715528, "lon": 8.5439564}, {"type": "node", "id": 894788887, "lat": 47.371705, "lon": 8.5443122}, {"type": "node", "id": 894788888, "lat": 47.3717299, "lon": 8.5447125}, {"type": "node", "id": 894788891, "lat": 47.3715659, "lon": 8.5439312}, {"type": "node", "id": 894788892, "lat": 47.371614, "lon": 8.544391}, {"type": "node", "id": 894788893, "lat": 47.3714639, "lon": 8.544034}, {"type": "node", "id": 894788895, "lat": 47.3717418, "lon": 8.5441917}, {"type": "node", "id": 894788901, "lat": 47.3717218, "lon": 8.5440706}, {"type": "node", "id": 894788906, "lat": 47.3718497, "lon": 8.5446047, "tags": {"addr:city": "Z\u00fcrich", "addr:country": "CH", "addr:housenumber": "13", "addr:postcode": "8001", "addr:street": "Spiegelgasse"}}, {"type": "node", "id": 894788907, "lat": 47.3716728, "lon": 8.5445921}, {"type": "node", "id": 894788910, "lat": 47.3717069, "lon": 8.5440777}, {"type": "node", "id": 894788911, "lat": 47.3716034, "lon": 8.5441094, "tags": {"addr:city": "Z\u00fcrich", "addr:country": "CH", "addr:housenumber": "2", "addr:postcode": "8001", "addr:street": "Spiegelgasse"}}, {"type": "node", "id": 894788912, "lat": 47.3716979, "lon": 8.5442971}, {"type": "node", "id": 894788915, "lat": 47.3716505, "lon": 8.543876}, {"type": "node", "id": 894788916, "lat": 47.3716829, "lon": 8.5443338}, {"type": "node", "id": 894788925, "lat": 47.3715835, "lon": 8.5443183}, {"type": "node", "id": 894788928, "lat": 47.3714858, "lon": 8.5447767}, {"type": "node", "id": 894788935, "lat": 47.3717439, "lon": 8.5442652}, {"type": "node", "id": 894788940, "lat": 47.3715933, "lon": 8.5444051}, {"type": "node", "id": 895750353, "lat": 47.3714937, "lon": 8.5441049, "tags": {"addr:city": "Z\u00fcrich", "addr:country": "CH", "addr:housenumber": "1", "addr:postcode": "8001", "addr:street": "Napfgasse"}}, {"type": "node", "id": 895750383, "lat": 47.3715293, "lon": 8.5442441}, {"type": "node", "id": 895750413, "lat": 47.3714601, "lon": 8.5443067}, {"type": "node", "id": 895787608, "lat": 47.3716071, "lon": 8.5448411, "tags": {"addr:city": "Z\u00fcrich", "addr:country": "CH", "addr:housenumber": "19", "addr:postcode": "8001", "addr:street": "Obere Z\u00e4une"}}, {"type": "node", "id": 895787624, "lat": 47.3715687, "lon": 8.5442823, "tags": {"addr:city": "Z\u00fcrich", "addr:country": "CH", "addr:housenumber": "3", "addr:postcode": "8001", "addr:street": "Napfgasse"}}, {"type": "node", "id": 895787630, "lat": 47.3713851, "lon": 8.5444556}, {"type": "node", "id": 955271552, "lat": 47.3714354, "lon": 8.5435558}, {"type": "node", "id": 1031582893, "lat": 47.371941, "lon": 8.5427105}, {"type": "node", "id": 1281444279, "lat": 47.3714177, "lon": 8.5443474}, {"type": "node", "id": 1517807718, "lat": 47.3739521, "lon": 8.5444371}, {"type": "node", "id": 1517807720, "lat": 47.3739725, "lon": 8.5445534}, {"type": "node", "id": 1965809598, "lat": 47.3725035, "lon": 8.5443184}, {"type": "node", "id": 1965809599, "lat": 47.3724607, "lon": 8.5441922}, {"type": "node", "id": 1965809602, "lat": 47.3725162, "lon": 8.544149}, {"type": "node", "id": 1965809647, "lat": 47.3725538, "lon": 8.5432307}, {"type": "node", "id": 1965809650, "lat": 47.3725662, "lon": 8.5439664}, {"type": "node", "id": 1965809654, "lat": 47.3725885, "lon": 8.5440378}, {"type": "node", "id": 1965809668, "lat": 47.372649, "lon": 8.5440158}, {"type": "node", "id": 1965809676, "lat": 47.3726596, "lon": 8.5440708}, {"type": "node", "id": 1965809697, "lat": 47.3726898, "lon": 8.54422}, {"type": "node", "id": 1965809718, "lat": 47.3726946, "lon": 8.5431595}, {"type": "node", "id": 1965809720, "lat": 47.3726959, "lon": 8.5440291}, {"type": "node", "id": 1965809722, "lat": 47.3726972, "lon": 8.5440479}, {"type": "node", "id": 1965809738, "lat": 47.3727436, "lon": 8.5440069}, {"type": "node", "id": 1965809771, "lat": 47.3728118, "lon": 8.5441472}, {"type": "node", "id": 1965809773, "lat": 47.3728143, "lon": 8.5441568}, {"type": "node", "id": 1965809777, "lat": 47.3728375, "lon": 8.5435986}, {"type": "node", "id": 1965809780, "lat": 47.3728409, "lon": 8.5447065}, {"type": "node", "id": 1965809782, "lat": 47.3728208, "lon": 8.544153}, {"type": "node", "id": 1965809788, "lat": 47.3728678, "lon": 8.5447456}, {"type": "node", "id": 1965809805, "lat": 47.3729301, "lon": 8.5447083}, {"type": "node", "id": 1965809817, "lat": 47.3729907, "lon": 8.5442467}, {"type": "node", "id": 1965809820, "lat": 47.3730091, "lon": 8.5442205}, {"type": "node", "id": 1965809824, "lat": 47.3730675, "lon": 8.5442012}, {"type": "node", "id": 1965809856, "lat": 47.3738208, "lon": 8.5443061}, {"type": "node", "id": 1965809857, "lat": 47.3738471, "lon": 8.5442947}, {"type": "node", "id": 1965809860, "lat": 47.3738997, "lon": 8.5444311}, {"type": "node", "id": 1965809862, "lat": 47.3741428, "lon": 8.5441843}, {"type": "node", "id": 1968663671, "lat": 47.3714684, "lon": 8.5434865}, {"type": "node", "id": 1968663673, "lat": 47.3714754, "lon": 8.543535}, {"type": "node", "id": 1968663679, "lat": 47.3718651, "lon": 8.5429058}, {"type": "node", "id": 1968663680, "lat": 47.3719417, "lon": 8.5426565}, {"type": "node", "id": 1968663687, "lat": 47.3722774, "lon": 8.5433949}, {"type": "node", "id": 1968663689, "lat": 47.3722847, "lon": 8.5432062}, {"type": "node", "id": 1968663691, "lat": 47.3722919, "lon": 8.5432562}, {"type": "node", "id": 1968663693, "lat": 47.3722954, "lon": 8.5432303}, {"type": "node", "id": 1968663694, "lat": 47.3722922, "lon": 8.5431762}, {"type": "node", "id": 1968663696, "lat": 47.3723675, "lon": 8.5432904}, {"type": "node", "id": 1969144616, "lat": 47.372164, "lon": 8.5441939}, {"type": "node", "id": 1969144617, "lat": 47.3721771, "lon": 8.5442792}, {"type": "node", "id": 1970613059, "lat": 47.3713932, "lon": 8.544013}, {"type": "node", "id": 1972634360, "lat": 47.3714912, "lon": 8.5445966}, {"type": "node", "id": 1972634363, "lat": 47.3715053, "lon": 8.5445868}, {"type": "node", "id": 1972634365, "lat": 47.3715511, "lon": 8.5446891}, {"type": "node", "id": 1972634368, "lat": 47.3715384, "lon": 8.5449241}, {"type": "node", "id": 2866198305, "lat": 47.3716141, "lon": 8.5438354, "tags": {"addr:city": "Z\u00fcrich", "addr:country": "CH", "addr:housenumber": "23", "addr:postcode": "8001", "addr:street": "M\u00fcnstergasse"}}, {"type": "node", "id": 2866198318, "lat": 47.3713132, "lon": 8.543809}, {"type": "node", "id": 2866198319, "lat": 47.3713186, "lon": 8.5438249}, {"type": "node", "id": 2866198320, "lat": 47.3713521, "lon": 8.54391}, {"type": "node", "id": 2866198321, "lat": 47.371464, "lon": 8.5431904}, {"type": "node", "id": 2866198322, "lat": 47.3714859, "lon": 8.543265}, {"type": "node", "id": 2866198323, "lat": 47.3714975, "lon": 8.5436746}, {"type": "node", "id": 2866198324, "lat": 47.3715232, "lon": 8.543744}, {"type": "node", "id": 2866198325, "lat": 47.371548, "lon": 8.5429992}, {"type": "node", "id": 2866198326, "lat": 47.3715548, "lon": 8.5436487}, {"type": "node", "id": 2866198328, "lat": 47.3715782, "lon": 8.5434002}, {"type": "node", "id": 2866198329, "lat": 47.3715935, "lon": 8.5437312}, {"type": "node", "id": 2866198330, "lat": 47.3715983, "lon": 8.543674}, {"type": "node", "id": 2866198331, "lat": 47.3716082, "lon": 8.5437241}, {"type": "node", "id": 2866198332, "lat": 47.3716408, "lon": 8.543709}, {"type": "node", "id": 2866198333, "lat": 47.3716615, "lon": 8.5431343}, {"type": "node", "id": 2866198334, "lat": 47.3716741, "lon": 8.5431333}, {"type": "node", "id": 2866198335, "lat": 47.3717193, "lon": 8.5432925}, {"type": "node", "id": 2866198336, "lat": 47.3717186, "lon": 8.5432826}, {"type": "node", "id": 2874837776, "lat": 47.3718244, "lon": 8.5435401, "tags": {"addr:city": "Z\u00fcrich", "addr:country": "CH", "addr:housenumber": "10", "addr:postcode": "8001", "addr:street": "Marktgasse"}}, {"type": "node", "id": 2874837777, "lat": 47.3716734, "lon": 8.5432574, "tags": {"addr:city": "Z\u00fcrich", "addr:country": "CH", "addr:housenumber": "3", "addr:postcode": "8001", "addr:street": "Krebsgasse"}}, {"type": "node", "id": 2874837778, "lat": 47.3716808, "lon": 8.5433314, "tags": {"addr:city": "Z\u00fcrich", "addr:country": "CH", "addr:housenumber": "5", "addr:postcode": "8001", "addr:street": "Krebsgasse"}}, {"type": "node", "id": 2874837779, "lat": 47.3717157, "lon": 8.5429951, "tags": {"addr:city": "Z\u00fcrich", "addr:country": "CH", "addr:housenumber": "58", "addr:postcode": "8001", "addr:street": "Limmatquai"}}, {"type": "node", "id": 2874837780, "lat": 47.3718047, "lon": 8.5433083, "tags": {"addr:city": "Z\u00fcrich", "addr:country": "CH", "addr:housenumber": "6", "addr:postcode": "8001", "addr:street": "Marktgasse"}}, {"type": "node", "id": 2874837781, "lat": 47.3718147, "lon": 8.5434371, "tags": {"addr:city": "Z\u00fcrich", "addr:country": "CH", "addr:housenumber": "8", "addr:postcode": "8001", "addr:street": "Marktgasse"}}, {"type": "node", "id": 2874837782, "lat": 47.3717086, "lon": 8.5435726, "tags": {"addr:city": "Z\u00fcrich", "addr:country": "CH", "addr:housenumber": "9", "addr:postcode": "8001", "addr:street": "Krebsgasse"}}, {"type": "node", "id": 2874837784, "lat": 47.3713457, "lon": 8.5426586}, {"type": "node", "id": 2874837785, "lat": 47.3717429, "lon": 8.5435076}, {"type": "node", "id": 2874837786, "lat": 47.3717434, "lon": 8.5435175}, {"type": "node", "id": 2876535120, "lat": 47.3717013, "lon": 8.5446522, "tags": {"addr:city": "Z\u00fcrich", "addr:country": "CH", "addr:housenumber": "8", "addr:postcode": "8001", "addr:street": "Napfgasse"}}, {"type": "node", "id": 2876535162, "lat": 47.3714143, "lon": 8.5445446}, {"type": "node", "id": 2876535163, "lat": 47.3714215, "lon": 8.5443803}, {"type": "node", "id": 2876535166, "lat": 47.3714287, "lon": 8.5443741}, {"type": "node", "id": 2876535167, "lat": 47.3714359, "lon": 8.5444147}, {"type": "node", "id": 2876535169, "lat": 47.3714559, "lon": 8.5444974}, {"type": "node", "id": 2876535172, "lat": 47.3715149, "lon": 8.5444563}, {"type": "node", "id": 2876535173, "lat": 47.3715214, "lon": 8.5444731}, {"type": "node", "id": 2876535174, "lat": 47.3715591, "lon": 8.5447094}, {"type": "node", "id": 2876535175, "lat": 47.3715723, "lon": 8.5448782}, {"type": "node", "id": 2876535176, "lat": 47.3715837, "lon": 8.5446604}, {"type": "node", "id": 2876535177, "lat": 47.3715891, "lon": 8.5446701}, {"type": "node", "id": 2883853029, "lat": 47.3715081, "lon": 8.5439954, "tags": {"addr:city": "Z\u00fcrich", "addr:country": "CH", "addr:housenumber": "26", "addr:postcode": "8001", "addr:street": "M\u00fcnstergasse"}}, {"type": "node", "id": 2883853030, "lat": 47.3716638, "lon": 8.5439159}, {"type": "node", "id": 2883853031, "lat": 47.3716711, "lon": 8.5439235}, {"type": "node", "id": 2883853032, "lat": 47.3716767, "lon": 8.5439431}, {"type": "node", "id": 2883853033, "lat": 47.3716891, "lon": 8.5439475}, {"type": "node", "id": 2883853034, "lat": 47.3717208, "lon": 8.5441987}, {"type": "node", "id": 2883853035, "lat": 47.3717229, "lon": 8.5442069}, {"type": "node", "id": 2883853036, "lat": 47.3717774, "lon": 8.5441791}, {"type": "node", "id": 2883853037, "lat": 47.3718035, "lon": 8.544162}, {"type": "node", "id": 2883853038, "lat": 47.3718253, "lon": 8.5442329}, {"type": "node", "id": 2883853039, "lat": 47.3718279, "lon": 8.5442452}, {"type": "node", "id": 2883853040, "lat": 47.3718421, "lon": 8.5443044}, {"type": "node", "id": 2883853041, "lat": 47.3718433, "lon": 8.5442341}, {"type": "node", "id": 2883853042, "lat": 47.3718446, "lon": 8.544243}, {"type": "node", "id": 2883853043, "lat": 47.3718524, "lon": 8.5443021}, {"type": "node", "id": 2883853044, "lat": 47.3718633, "lon": 8.5442999}, {"type": "node", "id": 2883853045, "lat": 47.371865, "lon": 8.5443091}, {"type": "node", "id": 2883853046, "lat": 47.371872, "lon": 8.5444072}, {"type": "node", "id": 2883853047, "lat": 47.3718775, "lon": 8.5446774}, {"type": "node", "id": 2883853048, "lat": 47.3718767, "lon": 8.5444167}, {"type": "node", "id": 2883853049, "lat": 47.3719431, "lon": 8.5425608}, {"type": "node", "id": 2883853050, "lat": 47.3719437, "lon": 8.5425096}, {"type": "node", "id": 2883853051, "lat": 47.3719488, "lon": 8.5437456}, {"type": "node", "id": 2883853052, "lat": 47.3719628, "lon": 8.5446125}, {"type": "node", "id": 2883853053, "lat": 47.3719651, "lon": 8.5446226}, {"type": "node", "id": 2883853054, "lat": 47.3719719, "lon": 8.5432828}, {"type": "node", "id": 2883853055, "lat": 47.3719805, "lon": 8.5431799}, {"type": "node", "id": 2883853056, "lat": 47.3719811, "lon": 8.5432973}, {"type": "node", "id": 2883853057, "lat": 47.3720087, "lon": 8.5444644}, {"type": "node", "id": 2883853058, "lat": 47.3720155, "lon": 8.5443752}, {"type": "node", "id": 2883853059, "lat": 47.3720507, "lon": 8.5446028}, {"type": "node", "id": 2883853060, "lat": 47.3720513, "lon": 8.5445937}, {"type": "node", "id": 2886648287, "lat": 47.3722189, "lon": 8.5447369, "tags": {"addr:city": "Z\u00fcrich", "addr:country": "CH", "addr:housenumber": "13", "addr:postcode": "8001", "addr:street": "Leuengasse"}}, {"type": "node", "id": 2886648288, "lat": 47.3723852, "lon": 8.5446791, "tags": {"addr:city": "Z\u00fcrich", "addr:country": "CH", "addr:housenumber": "14", "addr:postcode": "8001", "addr:street": "Rindermarkt"}}, {"type": "node", "id": 2886648290, "lat": 47.372076, "lon": 8.5441224, "tags": {"addr:city": "Z\u00fcrich", "addr:country": "CH", "addr:housenumber": "4", "addr:postcode": "8001", "addr:street": "Leuengasse"}}, {"type": "node", "id": 2886648291, "lat": 47.3722352, "lon": 8.5429123, "tags": {"addr:city": "Z\u00fcrich", "addr:country": "CH", "addr:housenumber": "64", "addr:postcode": "8001", "addr:street": "Limmatquai"}}, {"type": "node", "id": 2886648292, "lat": 47.3723373, "lon": 8.5429152, "tags": {"addr:city": "Z\u00fcrich", "addr:country": "CH", "addr:housenumber": "66", "addr:postcode": "8001", "addr:street": "Limmatquai"}}, {"type": "node", "id": 2886648293, "lat": 47.3721023, "lon": 8.5435362}, {"type": "node", "id": 2886648294, "lat": 47.3721216, "lon": 8.5432485}, {"type": "node", "id": 2886648295, "lat": 47.3721267, "lon": 8.5431292}, {"type": "node", "id": 2886648296, "lat": 47.3721463, "lon": 8.544162}, {"type": "node", "id": 2886648297, "lat": 47.3721558, "lon": 8.5431291}, {"type": "node", "id": 2886648299, "lat": 47.3721973, "lon": 8.5432684}, {"type": "node", "id": 2886648300, "lat": 47.3721976, "lon": 8.543256}, {"type": "node", "id": 2886648401, "lat": 47.3721985, "lon": 8.5431759}, {"type": "node", "id": 2886648402, "lat": 47.372239, "lon": 8.5435411}, {"type": "node", "id": 2886648403, "lat": 47.3722466, "lon": 8.5441517}, {"type": "node", "id": 2886648404, "lat": 47.3722505, "lon": 8.5441448}, {"type": "node", "id": 2886648406, "lat": 47.3722727, "lon": 8.5433939}, {"type": "node", "id": 2886648407, "lat": 47.3722801, "lon": 8.5436001}, {"type": "node", "id": 2886648408, "lat": 47.3722881, "lon": 8.5432784}, {"type": "node", "id": 2886648410, "lat": 47.3722948, "lon": 8.5443731}, {"type": "node", "id": 2886648411, "lat": 47.3722974, "lon": 8.5431538}, {"type": "node", "id": 2886648412, "lat": 47.3722989, "lon": 8.5432115}, {"type": "node", "id": 2886648413, "lat": 47.3723048, "lon": 8.543183}, {"type": "node", "id": 2886648415, "lat": 47.3723549, "lon": 8.5432706}, {"type": "node", "id": 2886648417, "lat": 47.3723615, "lon": 8.5432889}, {"type": "node", "id": 2886648418, "lat": 47.3723721, "lon": 8.5431928}, {"type": "node", "id": 2886648420, "lat": 47.3723944, "lon": 8.5431961}, {"type": "node", "id": 2888641512, "lat": 47.3724409, "lon": 8.5440456}, {"type": "node", "id": 2888641513, "lat": 47.3724626, "lon": 8.54427}, {"type": "node", "id": 2888641514, "lat": 47.372466, "lon": 8.5442451}, {"type": "node", "id": 2888641515, "lat": 47.3724681, "lon": 8.5441735}, {"type": "node", "id": 2888641516, "lat": 47.3724708, "lon": 8.5442664}, {"type": "node", "id": 2888641517, "lat": 47.3724722, "lon": 8.5442421}, {"type": "node", "id": 2888641518, "lat": 47.3724736, "lon": 8.544204}, {"type": "node", "id": 2888641519, "lat": 47.3724736, "lon": 8.544329}, {"type": "node", "id": 2888641520, "lat": 47.3724808, "lon": 8.5444091}, {"type": "node", "id": 2888641521, "lat": 47.3724884, "lon": 8.5439938}, {"type": "node", "id": 2888641522, "lat": 47.3724887, "lon": 8.5442324}, {"type": "node", "id": 2888641523, "lat": 47.3725135, "lon": 8.544566}, {"type": "node", "id": 2888641524, "lat": 47.3725227, "lon": 8.544567}, {"type": "node", "id": 2888641525, "lat": 47.3725517, "lon": 8.5438307}, {"type": "node", "id": 2888641526, "lat": 47.3725707, "lon": 8.5442395}, {"type": "node", "id": 2888641527, "lat": 47.3725726, "lon": 8.5442438}, {"type": "node", "id": 2888641528, "lat": 47.3725795, "lon": 8.5439648}, {"type": "node", "id": 2888641529, "lat": 47.3725843, "lon": 8.5440052}, {"type": "node", "id": 2888641530, "lat": 47.3725939, "lon": 8.544013}, {"type": "node", "id": 2888641531, "lat": 47.3726766, "lon": 8.5439864}, {"type": "node", "id": 2888641532, "lat": 47.3726785, "lon": 8.5440001}, {"type": "node", "id": 2888641533, "lat": 47.3726849, "lon": 8.5437901}, {"type": "node", "id": 2888641534, "lat": 47.3726886, "lon": 8.5439831}, {"type": "node", "id": 2888641535, "lat": 47.3726909, "lon": 8.5439955}, {"type": "node", "id": 2888641536, "lat": 47.3727215, "lon": 8.5440209}, {"type": "node", "id": 2888641537, "lat": 47.3727374, "lon": 8.5439661}, {"type": "node", "id": 2888641538, "lat": 47.3727598, "lon": 8.5440059}, {"type": "node", "id": 2888641539, "lat": 47.3727628, "lon": 8.5440184}, {"type": "node", "id": 2888641540, "lat": 47.3728106, "lon": 8.5439646}, {"type": "node", "id": 2888641541, "lat": 47.372811, "lon": 8.5437838}, {"type": "node", "id": 2888641542, "lat": 47.3728408, "lon": 8.5439568}, {"type": "node", "id": 2888641543, "lat": 47.3728443, "lon": 8.5441415}, {"type": "node", "id": 2888641544, "lat": 47.3728491, "lon": 8.5440524}, {"type": "node", "id": 2888641545, "lat": 47.3728534, "lon": 8.543951}, {"type": "node", "id": 2888641546, "lat": 47.3728709, "lon": 8.5440414}, {"type": "node", "id": 2888641547, "lat": 47.3728718, "lon": 8.5437734}, {"type": "node", "id": 2888641548, "lat": 47.372874, "lon": 8.544177}, {"type": "node", "id": 2888659446, "lat": 47.3726006, "lon": 8.544631}, {"type": "node", "id": 2888659447, "lat": 47.3726069, "lon": 8.544661}, {"type": "node", "id": 2888659448, "lat": 47.3726081, "lon": 8.5444534}, {"type": "node", "id": 2888659449, "lat": 47.3726188, "lon": 8.5445344}, {"type": "node", "id": 2888659450, "lat": 47.3726216, "lon": 8.5446554}, {"type": "node", "id": 2888659451, "lat": 47.3726248, "lon": 8.5446685}, {"type": "node", "id": 2888659452, "lat": 47.3726494, "lon": 8.5445236}, {"type": "node", "id": 2888659453, "lat": 47.3726575, "lon": 8.5445705}, {"type": "node", "id": 2888659454, "lat": 47.3726595, "lon": 8.5444413}, {"type": "node", "id": 2888659455, "lat": 47.3726615, "lon": 8.5445725}, {"type": "node", "id": 2888659456, "lat": 47.3726669, "lon": 8.5446009}, {"type": "node", "id": 2888659457, "lat": 47.3726702, "lon": 8.5444455}, {"type": "node", "id": 2888659458, "lat": 47.3726765, "lon": 8.5445139}, {"type": "node", "id": 2888659459, "lat": 47.3726872, "lon": 8.5443352}, {"type": "node", "id": 2888659460, "lat": 47.3727017, "lon": 8.5446014}, {"type": "node", "id": 2888659461, "lat": 47.3727022, "lon": 8.5445848}, {"type": "node", "id": 2888659462, "lat": 47.3727034, "lon": 8.5446261}, {"type": "node", "id": 2888659463, "lat": 47.3727068, "lon": 8.5444292}, {"type": "node", "id": 2888659464, "lat": 47.3727068, "lon": 8.5445977}, {"type": "node", "id": 2888659465, "lat": 47.3727175, "lon": 8.5447532}, {"type": "node", "id": 2888659466, "lat": 47.3727269, "lon": 8.5444637}, {"type": "node", "id": 2888659467, "lat": 47.3727282, "lon": 8.5444869}, {"type": "node", "id": 2888659468, "lat": 47.3727288, "lon": 8.5443166}, {"type": "node", "id": 2888659469, "lat": 47.3727524, "lon": 8.5444139}, {"type": "node", "id": 2888659470, "lat": 47.3727566, "lon": 8.5444506}, {"type": "node", "id": 2888659471, "lat": 47.3727572, "lon": 8.5444339}, {"type": "node", "id": 2888659472, "lat": 47.372773, "lon": 8.5444692}, {"type": "node", "id": 2888659473, "lat": 47.3727862, "lon": 8.544418}, {"type": "node", "id": 2888659474, "lat": 47.3727881, "lon": 8.5445177}, {"type": "node", "id": 2888659475, "lat": 47.3727909, "lon": 8.5444055}, {"type": "node", "id": 2888659477, "lat": 47.3728001, "lon": 8.5445586}, {"type": "node", "id": 2888659478, "lat": 47.3728023, "lon": 8.5445675}, {"type": "node", "id": 2888659479, "lat": 47.3728067, "lon": 8.5444687}, {"type": "node", "id": 2888659480, "lat": 47.3728095, "lon": 8.5445071}, {"type": "node", "id": 2888659481, "lat": 47.3728222, "lon": 8.5445558}, {"type": "node", "id": 2888659482, "lat": 47.3728331, "lon": 8.5446007}, {"type": "node", "id": 2888659483, "lat": 47.3728423, "lon": 8.5442579}, {"type": "node", "id": 2888659484, "lat": 47.3728706, "lon": 8.544355}, {"type": "node", "id": 2888659485, "lat": 47.3728729, "lon": 8.5443631}, {"type": "node", "id": 2888659486, "lat": 47.3728808, "lon": 8.5442336}, {"type": "node", "id": 2888659487, "lat": 47.3728808, "lon": 8.5443491}, {"type": "node", "id": 2888659488, "lat": 47.3728982, "lon": 8.5444156}, {"type": "node", "id": 2888659489, "lat": 47.3729057, "lon": 8.5443351}, {"type": "node", "id": 2888659490, "lat": 47.372959, "lon": 8.5444575}, {"type": "node", "id": 2888659491, "lat": 47.3729647, "lon": 8.5444752}, {"type": "node", "id": 2888659492, "lat": 47.3729795, "lon": 8.5445259}, {"type": "node", "id": 2888659493, "lat": 47.3729858, "lon": 8.5444612}, {"type": "node", "id": 2889160938, "lat": 47.3729895, "lon": 8.5438177, "tags": {"addr:city": "Z\u00fcrich", "addr:housenumber": "10", "addr:postcode": "8001", "addr:street": "Niederdorfstrasse"}}, {"type": "node", "id": 2889160939, "lat": 47.3731803, "lon": 8.544713, "tags": {"addr:city": "Z\u00fcrich", "addr:country": "CH", "addr:housenumber": "15", "addr:postcode": "8001", "addr:street": "Froschaugasse"}}, {"type": "node", "id": 2889160940, "lat": 47.3731046, "lon": 8.543896, "tags": {"addr:city": "Z\u00fcrich", "addr:housenumber": "2", "addr:postcode": "8001", "addr:street": "Brunngasse"}}, {"type": "node", "id": 2889160946, "lat": 47.3729078, "lon": 8.544008}, {"type": "node", "id": 2889160947, "lat": 47.3729164, "lon": 8.5440624}, {"type": "node", "id": 2889160949, "lat": 47.3729663, "lon": 8.544008}, {"type": "node", "id": 2889160950, "lat": 47.3729666, "lon": 8.5440211}, {"type": "node", "id": 2889160951, "lat": 47.3729702, "lon": 8.5446554}, {"type": "node", "id": 2889160952, "lat": 47.3729868, "lon": 8.5442658}, {"type": "node", "id": 2889160953, "lat": 47.3729951, "lon": 8.5447233}, {"type": "node", "id": 2889160954, "lat": 47.3729978, "lon": 8.5442355}, {"type": "node", "id": 2889160955, "lat": 47.3730082, "lon": 8.5441938}, {"type": "node", "id": 2889160956, "lat": 47.3730088, "lon": 8.5442267}, {"type": "node", "id": 2889160957, "lat": 47.3730269, "lon": 8.5446089}, {"type": "node", "id": 2889160958, "lat": 47.3730347, "lon": 8.5445972}, {"type": "node", "id": 2889160959, "lat": 47.3730427, "lon": 8.5442752}, {"type": "node", "id": 2889160960, "lat": 47.3730457, "lon": 8.5441802}, {"type": "node", "id": 2889160961, "lat": 47.3730466, "lon": 8.5441872}, {"type": "node", "id": 2889160962, "lat": 47.3730646, "lon": 8.5442702}, {"type": "node", "id": 2889160963, "lat": 47.3731015, "lon": 8.5439878}, {"type": "node", "id": 2889160964, "lat": 47.3731268, "lon": 8.5446059}, {"type": "node", "id": 2889160965, "lat": 47.3731318, "lon": 8.5446103}, {"type": "node", "id": 2889160966, "lat": 47.3731326, "lon": 8.5444533}, {"type": "node", "id": 2892776803, "lat": 47.3731687, "lon": 8.5440961}, {"type": "node", "id": 2892776804, "lat": 47.3731712, "lon": 8.5439756}, {"type": "node", "id": 2892776805, "lat": 47.3731819, "lon": 8.5440899}, {"type": "node", "id": 2892776806, "lat": 47.3731892, "lon": 8.5442027}, {"type": "node", "id": 2892776807, "lat": 47.3732125, "lon": 8.5442945}, {"type": "node", "id": 2892776808, "lat": 47.3732358, "lon": 8.5443873}, {"type": "node", "id": 2892776809, "lat": 47.3732484, "lon": 8.5440587}, {"type": "node", "id": 2892776810, "lat": 47.3732586, "lon": 8.5444565}, {"type": "node", "id": 2892776811, "lat": 47.3732607, "lon": 8.5441048}, {"type": "node", "id": 2892776812, "lat": 47.3732683, "lon": 8.5441532}, {"type": "node", "id": 2892776813, "lat": 47.3732737, "lon": 8.5441499}, {"type": "node", "id": 2892776814, "lat": 47.3732805, "lon": 8.5445228}, {"type": "node", "id": 2892776816, "lat": 47.373285, "lon": 8.5439612}, {"type": "node", "id": 2892776817, "lat": 47.3732889, "lon": 8.5440658}, {"type": "node", "id": 2892776818, "lat": 47.3732941, "lon": 8.5440863}, {"type": "node", "id": 2892776819, "lat": 47.3732965, "lon": 8.5442494}, {"type": "node", "id": 2892776820, "lat": 47.3733062, "lon": 8.5441299}, {"type": "node", "id": 2892776821, "lat": 47.3733087, "lon": 8.5446035}, {"type": "node", "id": 2892776822, "lat": 47.373323, "lon": 8.544334}, {"type": "node", "id": 2892776823, "lat": 47.3733312, "lon": 8.5442114}, {"type": "node", "id": 2892776824, "lat": 47.3733335, "lon": 8.544676}, {"type": "node", "id": 2892776825, "lat": 47.3733404, "lon": 8.5443981}, {"type": "node", "id": 2892776826, "lat": 47.373355, "lon": 8.5442881}, {"type": "node", "id": 2892776827, "lat": 47.3733605, "lon": 8.5444667}, {"type": "node", "id": 2892776828, "lat": 47.3733686, "lon": 8.5445564}, {"type": "node", "id": 2892776829, "lat": 47.373376, "lon": 8.5439505}, {"type": "node", "id": 2892776830, "lat": 47.3733769, "lon": 8.5444537}, {"type": "node", "id": 2892776831, "lat": 47.3733819, "lon": 8.5445147}, {"type": "node", "id": 2892776832, "lat": 47.3733887, "lon": 8.5448157}, {"type": "node", "id": 2892776833, "lat": 47.3733905, "lon": 8.5445441}, {"type": "node", "id": 2892776834, "lat": 47.3733923, "lon": 8.5445069}, {"type": "node", "id": 2892776835, "lat": 47.3733977, "lon": 8.5444352}, {"type": "node", "id": 2892776836, "lat": 47.3733995, "lon": 8.5444416}, {"type": "node", "id": 2892776837, "lat": 47.3734012, "lon": 8.5445006}, {"type": "node", "id": 2892776838, "lat": 47.3734015, "lon": 8.5445236}, {"type": "node", "id": 2892776839, "lat": 47.3734047, "lon": 8.5445357}, {"type": "node", "id": 2892776840, "lat": 47.373405, "lon": 8.544622}, {"type": "node", "id": 2892776841, "lat": 47.3734066, "lon": 8.5445195}, {"type": "node", "id": 2892776842, "lat": 47.3734107, "lon": 8.5440653}, {"type": "node", "id": 2892776843, "lat": 47.3734333, "lon": 8.5441453}, {"type": "node", "id": 2892776845, "lat": 47.3734396, "lon": 8.5447331}, {"type": "node", "id": 2892776846, "lat": 47.3734405, "lon": 8.5445127}, {"type": "node", "id": 2892776847, "lat": 47.3734445, "lon": 8.5445896}, {"type": "node", "id": 2892776848, "lat": 47.3734505, "lon": 8.5447685}, {"type": "node", "id": 2892776849, "lat": 47.3734571, "lon": 8.5442225}, {"type": "node", "id": 2892776851, "lat": 47.3734595, "lon": 8.5445009}, {"type": "node", "id": 2892776852, "lat": 47.3734639, "lon": 8.5445811}, {"type": "node", "id": 2892776854, "lat": 47.3734783, "lon": 8.544707}, {"type": "node", "id": 2892776855, "lat": 47.3734827, "lon": 8.5445722}, {"type": "node", "id": 2892776856, "lat": 47.3735026, "lon": 8.5443773}, {"type": "node", "id": 2892776857, "lat": 47.3735123, "lon": 8.5446865}, {"type": "node", "id": 2892776859, "lat": 47.3735227, "lon": 8.5447152}, {"type": "node", "id": 2892776860, "lat": 47.3735248, "lon": 8.5444547}, {"type": "node", "id": 2892776861, "lat": 47.3735491, "lon": 8.5445316}, {"type": "node", "id": 2892776862, "lat": 47.3735887, "lon": 8.5446742}, {"type": "node", "id": 2892837806, "lat": 47.3725251, "lon": 8.5430652}, {"type": "node", "id": 2892837807, "lat": 47.3726338, "lon": 8.543565}, {"type": "node", "id": 2892837808, "lat": 47.3726465, "lon": 8.5435046}, {"type": "node", "id": 2892837809, "lat": 47.3726881, "lon": 8.5431792}, {"type": "node", "id": 2892837811, "lat": 47.3727131, "lon": 8.5434996}, {"type": "node", "id": 2892837813, "lat": 47.3727233, "lon": 8.5434958}, {"type": "node", "id": 2892837814, "lat": 47.3727364, "lon": 8.5434919}, {"type": "node", "id": 2892837816, "lat": 47.37274, "lon": 8.5434967}, {"type": "node", "id": 2892837818, "lat": 47.372783, "lon": 8.5431111}, {"type": "node", "id": 2892837823, "lat": 47.3728471, "lon": 8.5434887}, {"type": "node", "id": 2892837826, "lat": 47.3729275, "lon": 8.5435026}, {"type": "node", "id": 2892837827, "lat": 47.3729323, "lon": 8.5431008}, {"type": "node", "id": 2892837828, "lat": 47.3729346, "lon": 8.5429061}, {"type": "node", "id": 2892837830, "lat": 47.3730395, "lon": 8.5433047}, {"type": "node", "id": 2892837832, "lat": 47.3730409, "lon": 8.5429144}, {"type": "node", "id": 2892837833, "lat": 47.3730445, "lon": 8.5431004}, {"type": "node", "id": 2892837834, "lat": 47.3730434, "lon": 8.5428539}, {"type": "node", "id": 2892837835, "lat": 47.373044, "lon": 8.5431302}, {"type": "node", "id": 2892837837, "lat": 47.3730469, "lon": 8.543691}, {"type": "node", "id": 2892837838, "lat": 47.3730476, "lon": 8.5429156}, {"type": "node", "id": 2892837839, "lat": 47.3731355, "lon": 8.5428555}, {"type": "node", "id": 2892837840, "lat": 47.3731377, "lon": 8.542972}, {"type": "node", "id": 2892837841, "lat": 47.3731475, "lon": 8.5431074}, {"type": "node", "id": 2892837842, "lat": 47.3731576, "lon": 8.5432947}, {"type": "node", "id": 2892887126, "lat": 47.373194, "lon": 8.5429502}, {"type": "node", "id": 2892887127, "lat": 47.3732034, "lon": 8.54308}, {"type": "node", "id": 2892887128, "lat": 47.3732067, "lon": 8.5431641}, {"type": "node", "id": 2892887129, "lat": 47.373215, "lon": 8.5433734}, {"type": "node", "id": 2892887130, "lat": 47.3732166, "lon": 8.5434861}, {"type": "node", "id": 2892887131, "lat": 47.3732263, "lon": 8.5435543}, {"type": "node", "id": 2892887132, "lat": 47.3732725, "lon": 8.5429457}, {"type": "node", "id": 2892887133, "lat": 47.3732728, "lon": 8.5429322}, {"type": "node", "id": 2892887134, "lat": 47.3732906, "lon": 8.5436705}, {"type": "node", "id": 2892887135, "lat": 47.3732917, "lon": 8.5435494}, {"type": "node", "id": 2892887136, "lat": 47.3732971, "lon": 8.5435495}, {"type": "node", "id": 2892887137, "lat": 47.3732976, "lon": 8.5434661}, {"type": "node", "id": 2892887138, "lat": 47.373312, "lon": 8.5434028}, {"type": "node", "id": 2892887139, "lat": 47.373316, "lon": 8.5434638}, {"type": "node", "id": 2892887140, "lat": 47.3733209, "lon": 8.5434024}, {"type": "node", "id": 2892887141, "lat": 47.3733214, "lon": 8.5433648}, {"type": "node", "id": 2892887142, "lat": 47.3733239, "lon": 8.5432391}, {"type": "node", "id": 2892887143, "lat": 47.3733247, "lon": 8.5431952}, {"type": "node", "id": 2892887144, "lat": 47.3733261, "lon": 8.5431539}, {"type": "node", "id": 2892887145, "lat": 47.3733276, "lon": 8.5430694}, {"type": "node", "id": 2892887146, "lat": 47.3733311, "lon": 8.5429359}, {"type": "node", "id": 2892887147, "lat": 47.3733394, "lon": 8.5434852}, {"type": "node", "id": 2892887148, "lat": 47.3733427, "lon": 8.5432401}, {"type": "node", "id": 2892887149, "lat": 47.373343, "lon": 8.5431956}, {"type": "node", "id": 2892887150, "lat": 47.3733441, "lon": 8.5434026}, {"type": "node", "id": 2892887151, "lat": 47.3733527, "lon": 8.5434834}, {"type": "node", "id": 2892887152, "lat": 47.3733563, "lon": 8.5436642}, {"type": "node", "id": 2892887153, "lat": 47.3734113, "lon": 8.5432454}, {"type": "node", "id": 2892887154, "lat": 47.3734132, "lon": 8.5429436}, {"type": "node", "id": 2892887155, "lat": 47.373427, "lon": 8.5436538}, {"type": "node", "id": 2892940678, "lat": 47.373445, "lon": 8.5431099, "tags": {"addr:city": "Z\u00fcrich", "addr:country": "CH", "addr:housenumber": "1", "addr:postcode": "8001", "addr:street": "Hirschengasse"}}, {"type": "node", "id": 2892940679, "lat": 47.3734923, "lon": 8.5436484, "tags": {"addr:city": "Z\u00fcrich", "addr:country": "CH", "addr:housenumber": "15", "addr:postcode": "8001", "addr:street": "Niederdorfstrasse"}}, {"type": "node", "id": 2892940680, "lat": 47.3734388, "lon": 8.543367}, {"type": "node", "id": 2892940681, "lat": 47.3734443, "lon": 8.5429466}, {"type": "node", "id": 2892940682, "lat": 47.3734456, "lon": 8.5433669}, {"type": "node", "id": 2892940683, "lat": 47.3735122, "lon": 8.5432774}, {"type": "node", "id": 2892940684, "lat": 47.3735589, "lon": 8.5429543}, {"type": "node", "id": 2892940685, "lat": 47.3736459, "lon": 8.5434932}, {"type": "node", "id": 2892940686, "lat": 47.3736543, "lon": 8.543503}, {"type": "node", "id": 2892960079, "lat": 47.3735887, "lon": 8.5430583, "tags": {"addr:city": "Z\u00fcrich", "addr:country": "CH", "addr:housenumber": "1", "addr:postcode": "8001", "addr:street": "Graue Gasse"}}, {"type": "node", "id": 2892960080, "lat": 47.3735632, "lon": 8.5435675, "tags": {"addr:city": "Z\u00fcrich", "addr:country": "CH", "addr:housenumber": "11", "addr:postcode": "8001", "addr:street": "Graue Gasse"}}, {"type": "node", "id": 2892960081, "lat": 47.3735963, "lon": 8.5436538, "tags": {"addr:city": "Z\u00fcrich", "addr:country": "CH", "addr:housenumber": "17", "addr:postcode": "8001", "addr:street": "Niederdorfstrasse"}}, {"type": "node", "id": 2892960082, "lat": 47.3736741, "lon": 8.5436593, "tags": {"addr:city": "Z\u00fcrich", "addr:country": "CH", "addr:housenumber": "19", "addr:postcode": "8001", "addr:street": "Niederdorfstrasse"}}, {"type": "node", "id": 2892960083, "lat": 47.3737522, "lon": 8.5431059, "tags": {"addr:city": "Z\u00fcrich", "addr:country": "CH", "addr:housenumber": "2", "addr:postcode": "8001", "addr:street": "K\u00f6ngengasse"}}, {"type": "node", "id": 2892960084, "lat": 47.3737201, "lon": 8.5435694, "tags": {"addr:city": "Z\u00fcrich", "addr:country": "CH", "addr:housenumber": "8", "addr:postcode": "8001", "addr:street": "K\u00f6ngengasse"}}, {"type": "node", "id": 2892960085, "lat": 47.3736324, "lon": 8.5429631, "tags": {"addr:city": "Z\u00fcrich", "addr:country": "CH", "addr:housenumber": "84", "addr:postcode": "8001", "addr:street": "Limmatquai"}}, {"type": "node", "id": 2892960086, "lat": 47.3737226, "lon": 8.5429807, "tags": {"addr:city": "Z\u00fcrich", "addr:country": "CH", "addr:housenumber": "86", "addr:postcode": "8001", "addr:street": "Limmatquai"}}, {"type": "node", "id": 2895820205, "lat": 47.3739022, "lon": 8.5436886, "tags": {"addr:city": "Z\u00fcrich", "addr:country": "CH", "addr:housenumber": "21", "addr:postcode": "8001", "addr:street": "Niederdorfstrasse"}}, {"type": "node", "id": 2895820206, "lat": 47.3741268, "lon": 8.5436441, "tags": {"addr:city": "Z\u00fcrich", "addr:country": "CH", "addr:housenumber": "25", "addr:postcode": "8001", "addr:street": "Niederdorfstrasse"}}, {"type": "node", "id": 2895820207, "lat": 47.3740071, "lon": 8.5433765, "tags": {"addr:city": "Z\u00fcrich", "addr:country": "CH", "addr:housenumber": "6", "addr:postcode": "8001", "addr:street": "Preyergasse"}}, {"type": "node", "id": 2895820208, "lat": 47.3737429, "lon": 8.5435137}, {"type": "node", "id": 2895820209, "lat": 47.3737526, "lon": 8.5433962}, {"type": "node", "id": 2895820210, "lat": 47.3737579, "lon": 8.5433183}, {"type": "node", "id": 2895820211, "lat": 47.373766, "lon": 8.5432248}, {"type": "node", "id": 2895820212, "lat": 47.3737873, "lon": 8.5429847}, {"type": "node", "id": 2895820213, "lat": 47.3738212, "lon": 8.5435247}, {"type": "node", "id": 2895820214, "lat": 47.3738322, "lon": 8.5434072}, {"type": "node", "id": 2895820215, "lat": 47.3738375, "lon": 8.5433286}, {"type": "node", "id": 2895820216, "lat": 47.3738376, "lon": 8.5436791}, {"type": "node", "id": 2895820217, "lat": 47.3738419, "lon": 8.5436065}, {"type": "node", "id": 2895820218, "lat": 47.3738423, "lon": 8.5432396}, {"type": "node", "id": 2895820219, "lat": 47.3738455, "lon": 8.5432036}, {"type": "node", "id": 2895820220, "lat": 47.3738592, "lon": 8.5432062}, {"type": "node", "id": 2895820221, "lat": 47.37386, "lon": 8.5434762}, {"type": "node", "id": 2895820222, "lat": 47.373869, "lon": 8.5434095}, {"type": "node", "id": 2895820223, "lat": 47.3738707, "lon": 8.5433974}, {"type": "node", "id": 2895820224, "lat": 47.3738759, "lon": 8.543399}, {"type": "node", "id": 2895820225, "lat": 47.3738774, "lon": 8.5430022}, {"type": "node", "id": 2895820226, "lat": 47.3738904, "lon": 8.5432751}, {"type": "node", "id": 2895820227, "lat": 47.3739228, "lon": 8.5430208}, {"type": "node", "id": 2895820228, "lat": 47.3739669, "lon": 8.5436983}, {"type": "node", "id": 2895820229, "lat": 47.3739769, "lon": 8.5435524}, {"type": "node", "id": 2895820230, "lat": 47.3739856, "lon": 8.5435129}, {"type": "node", "id": 2895820231, "lat": 47.3739961, "lon": 8.5434459}, {"type": "node", "id": 2895820232, "lat": 47.3740179, "lon": 8.5433072}, {"type": "node", "id": 2895820233, "lat": 47.3740558, "lon": 8.5430584}, {"type": "node", "id": 2895850901, "lat": 47.373972, "lon": 8.5439501, "tags": {"addr:city": "Z\u00fcrich", "addr:country": "CH", "addr:housenumber": "13", "addr:postcode": "8001", "addr:street": "Preyergasse"}}, {"type": "node", "id": 2895850902, "lat": 47.3738084, "lon": 8.5440566, "tags": {"addr:city": "Z\u00fcrich", "addr:country": "CH", "addr:housenumber": "18", "addr:postcode": "8001", "addr:street": "Preyergasse"}}, {"type": "node", "id": 2895850903, "lat": 47.3740157, "lon": 8.5437703, "tags": {"addr:city": "Z\u00fcrich", "addr:country": "CH", "addr:housenumber": "28", "addr:postcode": "8001", "addr:street": "Niederdorfstrasse"}}, {"type": "node", "id": 2895850904, "lat": 47.3740916, "lon": 8.5437947, "tags": {"addr:city": "Z\u00fcrich", "addr:country": "CH", "addr:housenumber": "30", "addr:postcode": "8001", "addr:street": "Niederdorfstrasse"}}, {"type": "node", "id": 2895850905, "lat": 47.3734873, "lon": 8.5439306}, {"type": "node", "id": 2895850906, "lat": 47.3734883, "lon": 8.5439014}, {"type": "node", "id": 2895850907, "lat": 47.3734923, "lon": 8.5438028}, {"type": "node", "id": 2895850908, "lat": 47.3735333, "lon": 8.5440873}, {"type": "node", "id": 2895850910, "lat": 47.3735522, "lon": 8.5439069}, {"type": "node", "id": 2895850911, "lat": 47.3735569, "lon": 8.5441348}, {"type": "node", "id": 2895850912, "lat": 47.3736088, "lon": 8.5439581}, {"type": "node", "id": 2895850913, "lat": 47.3736233, "lon": 8.543959}, {"type": "node", "id": 2895850914, "lat": 47.3736284, "lon": 8.543966}, {"type": "node", "id": 2895850915, "lat": 47.3736343, "lon": 8.544085}, {"type": "node", "id": 2895850916, "lat": 47.3736378, "lon": 8.5440529}, {"type": "node", "id": 2895850917, "lat": 47.373652, "lon": 8.5440511}, {"type": "node", "id": 2895850918, "lat": 47.3736554, "lon": 8.5439674}, {"type": "node", "id": 2895850919, "lat": 47.3736558, "lon": 8.544105}, {"type": "node", "id": 2895850920, "lat": 47.3736847, "lon": 8.5445525}, {"type": "node", "id": 2895850921, "lat": 47.3736891, "lon": 8.5446088}, {"type": "node", "id": 2895850922, "lat": 47.3736989, "lon": 8.5446009}, {"type": "node", "id": 2895850923, "lat": 47.3737194, "lon": 8.5441269}, {"type": "node", "id": 2895850924, "lat": 47.3737269, "lon": 8.5439451}, {"type": "node", "id": 2895850925, "lat": 47.3737272, "lon": 8.5440594}, {"type": "node", "id": 2895850926, "lat": 47.3737272, "lon": 8.5441905}, {"type": "node", "id": 2895850927, "lat": 47.3737294, "lon": 8.5441236}, {"type": "node", "id": 2895850928, "lat": 47.3737301, "lon": 8.544098}, {"type": "node", "id": 2895850929, "lat": 47.3737329, "lon": 8.5439279}, {"type": "node", "id": 2895850930, "lat": 47.3737565, "lon": 8.5441864}, {"type": "node", "id": 2895850931, "lat": 47.3737568, "lon": 8.5444967}, {"type": "node", "id": 2895850932, "lat": 47.3737713, "lon": 8.5445432}, {"type": "node", "id": 2895850933, "lat": 47.3738122, "lon": 8.5445158}, {"type": "node", "id": 2895850934, "lat": 47.3738167, "lon": 8.5445957}, {"type": "node", "id": 2895850935, "lat": 47.373964, "lon": 8.5443709}, {"type": "node", "id": 2895850936, "lat": 47.3739659, "lon": 8.5443258}, {"type": "node", "id": 2895850937, "lat": 47.3739725, "lon": 8.5443268}, {"type": "node", "id": 2895850938, "lat": 47.3740421, "lon": 8.5438716}, {"type": "node", "id": 2895850939, "lat": 47.3740594, "lon": 8.5441394}, {"type": "node", "id": 2895850940, "lat": 47.3740849, "lon": 8.5441557}, {"type": "node", "id": 2895850941, "lat": 47.3741145, "lon": 8.5439585}, {"type": "node", "id": 3395753435, "lat": 47.3716501, "lon": 8.5443611, "tags": {"amenity": "clock", "check_date": "2021-06-26", "display": "analog", "support": "wall_mounted", "visibility": "house"}}, {"type": "node", "id": 3587167979, "lat": 47.3726605, "lon": 8.5438008}, {"type": "node", "id": 3587167980, "lat": 47.3726963, "lon": 8.5439804}, {"type": "node", "id": 3806936033, "lat": 47.3723987, "lon": 8.5443944, "tags": {"dedicatee": "Gottfried Keller", "historic": "memorial", "memorial": "plaque", "openplaques:id": "40418", "source": "memory"}}, {"type": "node", "id": 5107213198, "lat": 47.3718398, "lon": 8.5431276}, {"type": "node", "id": 5107213199, "lat": 47.3718462, "lon": 8.5431217}, {"type": "node", "id": 6635185165, "lat": 47.3716215, "lon": 8.5425355}, {"type": "node", "id": 6635185166, "lat": 47.3718318, "lon": 8.5426827}, {"type": "node", "id": 6635185167, "lat": 47.3718334, "lon": 8.5425298}, {"type": "node", "id": 6635185168, "lat": 47.3718538, "lon": 8.5426832}, {"type": "node", "id": 6635185169, "lat": 47.3718558, "lon": 8.5425303}, {"type": "node", "id": 6635185170, "lat": 47.3719412, "lon": 8.5426906}, {"type": "node", "id": 6635185171, "lat": 47.3721263, "lon": 8.5426957}, {"type": "node", "id": 6635185172, "lat": 47.3721284, "lon": 8.5425313}, {"type": "node", "id": 6635185173, "lat": 47.3719435, "lon": 8.5425261}, {"type": "node", "id": 7968683155, "lat": 47.3713636, "lon": 8.5428165}, {"type": "node", "id": 7969048850, "lat": 47.3713521, "lon": 8.5427144}, {"type": "node", "id": 7969048852, "lat": 47.3713547, "lon": 8.5427374}, {"type": "node", "id": 7969048853, "lat": 47.3713615, "lon": 8.5427975}, {"type": "node", "id": 8933669779, "lat": 47.3719274, "lon": 8.5446462}, {"type": "node", "id": 9801305983, "lat": 47.3716309, "lon": 8.5432185}, {"type": "node", "id": 10820644415, "lat": 47.3740901, "lon": 8.5431856}, {"type": "node", "id": 10820644416, "lat": 47.3740992, "lon": 8.5431887}, {"type": "node", "id": 10820644417, "lat": 47.3740604, "lon": 8.5435566}, {"type": "node", "id": 10820644418, "lat": 47.3740694, "lon": 8.5435596}, {"type": "node", "id": 10820644419, "lat": 47.3742131, "lon": 8.5435971}, {"type": "node", "id": 10820644420, "lat": 47.3742038, "lon": 8.543594}, {"type": "node", "id": 10820644421, "lat": 47.3742663, "lon": 8.5432544}, {"type": "node", "id": 10820644422, "lat": 47.3742569, "lon": 8.5432512}, {"type": "way", "id": 30067765, "nodes": [660846076, 331180323, 7968683155, 7969048853, 7969048852, 7969048850, 2874837784, 331180244, 6635185165, 27481895, 660846076], "tags": {"addr:city": "Z\u00fcrich", "addr:country": "CH", "addr:housenumber": "55", "addr:postcode": "8001", "addr:street": "Limmatquai", "architect": "Hans Heinrich Holzhalb", "building": "public", "building:levels": "3", "building:material": "sandstone", "name": "Rathaus", "name:ko": "\uc2dc\uccad", "roof:colour": "brown", "roof:material": "roof_tiles", "roof:shape": "hipped", "smoking": "outside", "source": "Stadt Z\u00fcrich Open Government Data;Geomatik + Vermessung;Tiefbau- und Entsorgungsdepartement", "wheelchair": "yes", "wikidata": "Q9315546", "wikipedia": "de:Rathaus (Z\u00fcrich)", "year_of_construction": "1698"}}, {"type": "way", "id": 30067780, "nodes": [331180643, 759987277, 2883853049, 6635185173, 2883853050, 759987274, 6635185169, 6635185168, 318696158, 1031582893, 6635185170, 1968663680, 331180643], "tags": {"addr:city": "Z\u00fcrich", "addr:country": "CH", "addr:housenumber": "61", "addr:postcode": "8001", "addr:street": "Limmatquai", "building": "yes", "source": "Stadt Z\u00fcrich Open Government Data;Geomatik + Vermessung;Tiefbau- und Entsorgungsdepartement", "year_of_construction": "1824"}}, {"type": "way", "id": 33806607, "nodes": [387214685, 2866198320, 1970613059, 387214691, 387214681, 2866198318, 2866198319, 387850615, 387214685], "tags": {"addr:city": "Z\u00fcrich", "addr:country": "CH", "addr:housenumber": "19", "addr:postcode": "8001", "addr:street": "M\u00fcnstergasse", "building": "yes", "source": "Stadt Z\u00fcrich Open Government Data; Geomatik + Vermessung; Tiefbau- und Entsorgungsdepartement"}}, {"type": "way", "id": 33806990, "nodes": [387219678, 633678286, 387219679, 10820644415, 10820644416, 637820257, 637820263, 10820644418, 10820644417, 387219680, 2895820206, 387219681, 10820644419, 10820644420, 10820644422, 10820644421, 387219678], "tags": {"building": "yes", "source": "Stadt Z\u00fcrich Open Government Data; Geomatik + Vermessung; Tiefbau- und Entsorgungsdepartement"}}, {"type": "way", "id": 33854821, "nodes": [387850549, 387850550, 387850551, 633640168, 387850552, 2886648290, 387850549], "tags": {"addr:city": "Z\u00fcrich", "addr:country": "CH", "addr:postcode": "8001", "building": "yes", "source": "Stadt Z\u00fcrich Open Government Data; Geomatik + Vermessung; Tiefbau- und Entsorgungsdepartement"}}, {"type": "way", "id": 33854825, "nodes": [387850571, 387850566, 894788878, 894788901, 894788910, 894788895, 2883853036, 2883853037, 387850568, 387850569, 387850571], "tags": {"addr:city": "Z\u00fcrich", "addr:country": "CH", "addr:housenumber": "12", "addr:postcode": "8001", "addr:street": "Marktgasse", "building": "commercial", "owner": "UBS", "source": "Stadt Z\u00fcrich Open Government Data; Geomatik + Vermessung; Tiefbau- und Entsorgungsdepartement", "start_date": "1897"}}, {"type": "way", "id": 33854826, "nodes": [387850572, 387850573, 387850576, 1968663679, 387850574, 387850572], "tags": {"addr:city": "Z\u00fcrich", "addr:country": "CH", "addr:housenumber": "62", "addr:postcode": "8001", "addr:street": "Limmatquai", "building": "yes", "source": "Stadt Z\u00fcrich Open Government Data; Geomatik + Vermessung; Tiefbau- und Entsorgungsdepartement"}}, {"type": "way", "id": 33854849, "nodes": [387850658, 2886648297, 792616702, 2886648401, 1968663689, 1968663694, 2886648411, 792616695, 387850657, 639048667, 387850656, 387850655, 387850654, 2886648292, 2886648291, 387850659, 639048664, 387850658], "tags": {"addr:city": "Z\u00fcrich", "addr:country": "CH", "addr:postcode": "8001", "addr:street": "Limmatquai", "building": "yes", "source": "Stadt Z\u00fcrich Open Government Data; Geomatik + Vermessung; Tiefbau- und Entsorgungsdepartement"}}, {"type": "way", "id": 33854851, "nodes": [387850664, 387850665, 387850666, 387850667, 387850664], "tags": {"addr:city": "Z\u00fcrich", "addr:country": "CH", "addr:housenumber": "72", "addr:postcode": "8001", "addr:street": "Limmatquai", "building": "yes", "source": "Stadt Z\u00fcrich Open Government Data; Geomatik + Vermessung; Tiefbau- und Entsorgungsdepartement"}}, {"type": "way", "id": 50175157, "nodes": [637820275, 637820274, 637820272, 637820273, 637820275], "tags": {"addr:city": "Z\u00fcrich", "addr:country": "CH", "addr:housenumber": "20", "addr:postcode": "8001", "addr:street": "Preyergasse", "building": "yes", "source": "Stadt Z\u00fcrich Open Government Data; Geomatik + Vermessung; Tiefbau- und Entsorgungsdepartement"}}, {"type": "way", "id": 50175158, "nodes": [637820271, 1965809856, 1965809857, 637820277, 637820276, 2895850930, 637820270, 637820271], "tags": {"addr:city": "Z\u00fcrich", "addr:country": "CH", "addr:housenumber": "22", "addr:postcode": "8001", "addr:street": "Preyergasse", "building": "yes", "source": "Stadt Z\u00fcrich Open Government Data; Geomatik + Vermessung; Tiefbau- und Entsorgungsdepartement"}}, {"type": "way", "id": 50286308, "nodes": [638966006, 2892940683, 638966007, 638966008, 638966025, 638966023, 638966006], "tags": {"addr:city": "Z\u00fcrich", "addr:country": "CH", "addr:housenumber": "7", "addr:postcode": "8001", "addr:street": "Hirschengasse", "building": "yes", "source": "Stadt Z\u00fcrich Open Government Data; Geomatik + Vermessung; Tiefbau- und Entsorgungsdepartement"}}, {"type": "way", "id": 50286309, "nodes": [638966025, 638966027, 638966029, 638966033, 638966040, 2892940680, 2892940682, 638966008, 638966025], "tags": {"addr:city": "Z\u00fcrich", "addr:country": "CH", "addr:postcode": "8001", "building": "yes", "source": "Stadt Z\u00fcrich Open Government Data; Geomatik + Vermessung; Tiefbau- und Entsorgungsdepartement"}}, {"type": "way", "id": 50286310, "nodes": [638966053, 2892940686, 638966055, 638966076, 2892960082, 638966078, 2892960084, 638966054, 638966053], "tags": {"addr:city": "Z\u00fcrich", "addr:country": "CH", "addr:postcode": "8001", "building": "apartments", "source": "Stadt Z\u00fcrich Open Government Data; Geomatik + Vermessung; Tiefbau- und Entsorgungsdepartement"}}, {"type": "way", "id": 50286311, "nodes": [638966055, 2892940685, 638966056, 2892960080, 638966074, 2892960081, 638966076, 638966055], "tags": {"addr:city": "Z\u00fcrich", "addr:country": "CH", "addr:postcode": "8001", "building": "apartments", "source": "Stadt Z\u00fcrich Open Government Data; Geomatik + Vermessung; Tiefbau- und Entsorgungsdepartement"}}, {"type": "way", "id": 50286312, "nodes": [638966029, 638966031, 638966066, 638966068, 2892940679, 638966070, 638966035, 638966033, 638966029], "tags": {"addr:city": "Z\u00fcrich", "addr:country": "CH", "addr:postcode": "8001", "building": "apartments", "source": "Stadt Z\u00fcrich Open Government Data; Geomatik + Vermessung; Tiefbau- und Entsorgungsdepartement"}}, {"type": "way", "id": 50288277, "nodes": [2892837842, 2892837830, 472267730, 471592602, 2892837837, 638984410, 638984407, 2892837842], "tags": {"addr:city": "Z\u00fcrich", "addr:country": "CH", "addr:housenumber": "10", "addr:postcode": "8001", "addr:street": "Rosengasse", "building": "yes", "source": "Stadt Z\u00fcrich Open Government Data; Geomatik + Vermessung; Tiefbau- und Entsorgungsdepartement"}}, {"type": "way", "id": 50288278, "nodes": [638984370, 638984367, 2892837823, 638984361, 638984364, 2892837826, 638984370], "tags": {"addr:city": "Z\u00fcrich", "addr:country": "CH", "addr:housenumber": "5", "addr:postcode": "8001", "addr:street": "Niederdorfstrasse", "building": "yes", "source": "Stadt Z\u00fcrich Open Government Data; Geomatik + Vermessung; Tiefbau- und Entsorgungsdepartement"}}, {"type": "way", "id": 51790973, "nodes": [660831163, 1965809860, 660831167, 660831211, 660831212, 656327728, 2895850934, 2895850933, 660831163], "tags": {"addr:city": "Z\u00fcrich", "addr:country": "CH", "addr:housenumber": "15", "addr:postcode": "8001", "addr:street": "Z\u00e4hringerplatz", "building": "yes", "source": "Stadt Z\u00fcrich Open Government Data; Geomatik + Vermessung; Tiefbau- und Entsorgungsdepartement"}}, {"type": "way", "id": 51790974, "nodes": [637820281, 2895850937, 2895850935, 637820268, 1517807718, 660831167, 660831211, 1517807720, 637820279, 637820281], "tags": {"addr:city": "Z\u00fcrich", "addr:country": "CH", "addr:postcode": "8001", "building": "yes", "source": "Stadt Z\u00fcrich Open Government Data; Geomatik + Vermessung; Tiefbau- und Entsorgungsdepartement"}}, {"type": "way", "id": 51790975, "nodes": [2895850920, 660831134, 2895850922, 2895850921, 637820285, 660831212, 656327728, 2895850934, 2895850933, 2895850932, 660831164, 2895850931, 2895850920], "tags": {"addr:city": "Z\u00fcrich", "addr:country": "CH", "addr:housenumber": "9", "addr:postcode": "8001", "addr:street": "Spitalgasse", "building": "yes", "source": "Stadt Z\u00fcrich Open Government Data; Geomatik + Vermessung; Tiefbau- und Entsorgungsdepartement"}}, {"type": "way", "id": 51790976, "nodes": [660831130, 2895850911, 656327498, 660831209, 2895850920, 2895850931, 637820265, 637820250, 2895850915, 660831133, 660831130], "tags": {"addr:city": "Z\u00fcrich", "addr:country": "CH", "addr:housenumber": "5", "addr:postcode": "8001", "addr:street": "Spitalgasse", "building": "yes", "source": "Stadt Z\u00fcrich Open Government Data; Geomatik + Vermessung; Tiefbau- und Entsorgungsdepartement"}}, {"type": "way", "id": 51790978, "nodes": [660831132, 2895850918, 637820248, 637820249, 660831129, 2895850929, 2895850924, 2895850925, 660831151, 637820270, 2895850930, 2895850926, 2895850923, 2895850927, 2895850928, 2895850919, 2895850917, 660831132], "tags": {"addr:city": "Z\u00fcrich", "addr:country": "CH", "addr:housenumber": "20", "addr:postcode": "8001", "addr:street": "Niederdorfstrasse", "building": "yes", "source": "Stadt Z\u00fcrich Open Government Data; Geomatik + Vermessung; Tiefbau- und Entsorgungsdepartement"}}, {"type": "way", "id": 51790979, "nodes": [660831129, 2895850929, 2895850924, 2895850925, 660831151, 660831152, 637820267, 2895850902, 637820266, 660831138, 560397861, 660831129], "tags": {"addr:city": "Z\u00fcrich", "addr:country": "CH", "addr:postcode": "8001", "building": "yes", "source": "Stadt Z\u00fcrich Open Government Data; Geomatik + Vermessung; Tiefbau- und Entsorgungsdepartement"}}, {"type": "way", "id": 51790983, "nodes": [660831135, 660831147, 637820269, 660831140, 660831135], "tags": {"addr:city": "Z\u00fcrich", "addr:country": "CH", "addr:housenumber": "16", "addr:postcode": "8001", "addr:street": "Preyergasse", "building": "yes", "source": "Stadt Z\u00fcrich Open Government Data; Geomatik + Vermessung; Tiefbau- und Entsorgungsdepartement"}}, {"type": "way", "id": 51790984, "nodes": [660831138, 637820266, 660831147, 660831135, 660831137, 660831138], "tags": {"addr:city": "Z\u00fcrich", "addr:country": "CH", "addr:housenumber": "24", "addr:postcode": "8001", "addr:street": "Niederdorfstrasse", "building": "yes", "source": "Stadt Z\u00fcrich Open Government Data; Geomatik + Vermessung; Tiefbau- und Entsorgungsdepartement"}}, {"type": "way", "id": 51790985, "nodes": [660831169, 660831173, 2895850941, 660831172, 660831144, 2895850904, 660831142, 660831162, 2895850938, 660831161, 660831160, 660831159, 2895850939, 2895850940, 637820282, 1965809862, 693318700, 660831169], "tags": {"addr:city": "Z\u00fcrich", "addr:country": "CH", "addr:postcode": "8001", "building": "yes", "source": "Stadt Z\u00fcrich Open Government Data; Geomatik + Vermessung; Tiefbau- und Entsorgungsdepartement"}}, {"type": "way", "id": 51790986, "nodes": [660831144, 660831143, 660831171, 660831169, 660831173, 2895850941, 660831172, 660831144], "tags": {"addr:city": "Z\u00fcrich", "addr:country": "CH", "addr:housenumber": "12", "addr:postcode": "8001", "addr:street": "M\u00fchlegasse", "building": "yes", "source": "Stadt Z\u00fcrich Open Government Data; Geomatik + Vermessung; Tiefbau- und Entsorgungsdepartement"}}, {"type": "way", "id": 51790987, "nodes": [660831142, 2895850903, 660831141, 2895850901, 660831160, 660831161, 2895850938, 660831162, 660831142], "tags": {"addr:city": "Z\u00fcrich", "addr:country": "CH", "addr:postcode": "8001", "building": "apartments", "source": "Stadt Z\u00fcrich Open Government Data; Geomatik + Vermessung; Tiefbau- und Entsorgungsdepartement"}}, {"type": "way", "id": 51790989, "nodes": [660831137, 660831135, 660831140, 637820261, 660831137], "tags": {"addr:city": "Z\u00fcrich", "addr:country": "CH", "addr:housenumber": "26", "addr:postcode": "8001", "addr:street": "Niederdorfstrasse", "building": "yes", "source": "Stadt Z\u00fcrich Open Government Data; Geomatik + Vermessung; Tiefbau- und Entsorgungsdepartement"}}, {"type": "way", "id": 53302948, "nodes": [674317613, 2892960085, 638966001, 2892960079, 638965998, 674317618, 674317613], "tags": {"addr:city": "Z\u00fcrich", "addr:country": "CH", "addr:postcode": "8001", "building": "yes", "source": "Stadt Z\u00fcrich Open Government Data; Geomatik + Vermessung; Tiefbau- und Entsorgungsdepartement"}}, {"type": "way", "id": 53302952, "nodes": [638966011, 2892960083, 638966089, 674317620, 674317616, 2892960086, 638966011], "tags": {"addr:city": "Z\u00fcrich", "addr:country": "CH", "addr:postcode": "8001", "building": "yes", "source": "Stadt Z\u00fcrich Open Government Data; Geomatik + Vermessung; Tiefbau- und Entsorgungsdepartement"}}, {"type": "way", "id": 64260356, "nodes": [791378603, 791378577, 2888659490, 2888659491, 2888659493, 791378616, 2889160966, 791378583, 791378603], "tags": {"addr:city": "Z\u00fcrich", "addr:country": "CH", "addr:housenumber": "6", "addr:postcode": "8001", "addr:street": "Brunngasse", "building": "yes", "source": "Stadt Z\u00fcrich Open Government Data; Geomatik + Vermessung; Tiefbau- und Entsorgungsdepartement"}}, {"type": "way", "id": 64260358, "nodes": [791378587, 791378598, 791378569, 791378549, 2892837806, 791378579, 791378558, 791378587], "tags": {"addr:city": "Z\u00fcrich", "addr:country": "CH", "addr:housenumber": "68", "addr:postcode": "8001", "addr:street": "Limmatquai", "building": "commercial", "building:levels": "5", "owner": "Modissa Immobilien", "source": "Stadt Z\u00fcrich Open Government Data; Geomatik + Vermessung; Tiefbau- und Entsorgungsdepartement"}}, {"type": "way", "id": 64260360, "nodes": [791378647, 791378594, 1965809598, 2888641519, 791378585, 3806936033, 791378588, 2888641520, 791378647], "tags": {"addr:city": "Z\u00fcrich", "addr:country": "CH", "addr:housenumber": "9", "addr:postcode": "8001", "addr:street": "Rindermarkt", "building": "apartments", "name": "Haus zur Sichel", "source": "Stadt Z\u00fcrich Open Government Data; Geomatik + Vermessung; Tiefbau- und Entsorgungsdepartement", "uzh_landmark": "true"}}, {"type": "way", "id": 64260361, "nodes": [791378633, 2889160962, 2889160959, 791378581, 2889160952, 1965809817, 2889160954, 2889160956, 1965809820, 1965809824, 791378560, 2889160961, 2889160960, 2889160955, 791378586, 791378638, 2889160947, 2889160950, 2889160949, 2889160946, 791378626, 2889160938, 791378601, 2889160940, 791378589, 2889160963, 791378633], "tags": {"addr:city": "Z\u00fcrich", "addr:country": "CH", "addr:postcode": "8001", "building": "yes", "source": "Stadt Z\u00fcrich Open Government Data; Geomatik + Vermessung; Tiefbau- und Entsorgungsdepartement"}}, {"type": "way", "id": 64260362, "nodes": [791378636, 791378540, 791378634, 791378615, 2888641523, 2888641524, 791378636], "tags": {"addr:city": "Z\u00fcrich", "addr:country": "CH", "addr:housenumber": "13", "addr:postcode": "8001", "addr:street": "Rindermarkt", "building": "apartments", "name": "Schwarzer Amboss", "source": "Stadt Z\u00fcrich Open Government Data; Geomatik + Vermessung; Tiefbau- und Entsorgungsdepartement"}}, {"type": "way", "id": 64260363, "nodes": [1965809668, 1965809676, 791378644, 2888641527, 2888641526, 791378623, 791378610, 1965809602, 791378592, 1965809654, 1965809668], "tags": {"addr:city": "Z\u00fcrich", "addr:country": "CH", "addr:housenumber": "9", "addr:postcode": "8001", "addr:street": "St\u00fcssihofstatt", "building": "yes", "source": "Stadt Z\u00fcrich Open Government Data; Geomatik + Vermessung; Tiefbau- und Entsorgungsdepartement"}}, {"type": "way", "id": 64260365, "nodes": [791378600, 2888641512, 791378550, 791378643, 791378651, 791378600], "tags": {"addr:city": "Z\u00fcrich", "addr:country": "CH", "addr:housenumber": "1", "addr:postcode": "8001", "addr:street": "Rindermarkt", "building": "yes", "name": "Zum grossen Pfauen", "source": "Stadt Z\u00fcrich Open Government Data; Geomatik + Vermessung; Tiefbau- und Entsorgungsdepartement"}}, {"type": "way", "id": 64260368, "nodes": [2888641525, 1965809650, 1965809654, 791378592, 2888641521, 791378570, 2888641525], "tags": {"addr:city": "Z\u00fcrich", "addr:country": "CH", "addr:housenumber": "10", "addr:postcode": "8001", "addr:street": "St\u00fcssihofstatt", "building": "yes", "source": "Stadt Z\u00fcrich Open Government Data; Geomatik + Vermessung; Tiefbau- und Entsorgungsdepartement"}}, {"type": "way", "id": 64260369, "nodes": [791378580, 791378649, 791378566, 791378575, 791378572, 638948674, 2892837808, 791378580], "tags": {"addr:city": "Z\u00fcrich", "addr:country": "CH", "addr:housenumber": "4", "addr:postcode": "8001", "addr:street": "St\u00fcssihofstatt", "building": "yes", "source": "Stadt Z\u00fcrich Open Government Data; Geomatik + Vermessung; Tiefbau- und Entsorgungsdepartement"}}, {"type": "way", "id": 64260371, "nodes": [791378550, 791378570, 2888641521, 791378592, 1965809602, 2888641515, 2888641518, 791378610, 791378623, 791378594, 1965809598, 2888641522, 2888641517, 1965809599, 791378544, 791378600, 2888641512, 791378550], "tags": {"addr:city": "Z\u00fcrich", "addr:country": "CH", "addr:housenumber": "11", "addr:postcode": "8001", "addr:street": "St\u00fcssihofstatt", "building": "yes", "source": "Stadt Z\u00fcrich Open Government Data; Geomatik + Vermessung; Tiefbau- und Entsorgungsdepartement"}}, {"type": "way", "id": 64260372, "nodes": [638948674, 2892837808, 791378580, 2892837807, 791378621, 791378611, 2892837813, 2892837811, 638948674], "tags": {"addr:city": "Z\u00fcrich", "addr:country": "CH", "addr:housenumber": "1", "addr:postcode": "8001", "addr:street": "Niederdorfstrasse", "building": "yes", "source": "Stadt Z\u00fcrich Open Government Data; Geomatik + Vermessung; Tiefbau- und Entsorgungsdepartement"}}, {"type": "way", "id": 64260374, "nodes": [791378603, 791378633, 2889160962, 2889160959, 791378581, 791378562, 791378554, 791378577, 791378603], "tags": {"addr:city": "Z\u00fcrich", "addr:country": "CH", "addr:housenumber": "4", "addr:postcode": "8001", "addr:street": "Brunngasse", "building": "yes", "source": "Stadt Z\u00fcrich Open Government Data; Geomatik + Vermessung; Tiefbau- und Entsorgungsdepartement"}}, {"type": "way", "id": 64260378, "nodes": [791378561, 791378640, 791378557, 2888659446, 2888659447, 791378650, 791378645, 791378561], "tags": {"addr:city": "Z\u00fcrich", "addr:country": "CH", "addr:housenumber": "17", "addr:postcode": "8001", "addr:street": "Rindermarkt", "building": "apartments", "source": "Stadt Z\u00fcrich Open Government Data; Geomatik + Vermessung; Tiefbau- und Entsorgungsdepartement"}}, {"type": "way", "id": 64260380, "nodes": [791378540, 791378647, 2888641520, 791378588, 791378634, 791378540], "tags": {"addr:city": "Z\u00fcrich", "addr:country": "CH", "addr:housenumber": "11", "addr:postcode": "8001", "addr:street": "Rindermarkt", "building": "apartments", "name": "Haus zum Sackel", "owner": "Stadt Z\u00fcrich, FD, Liegenschaftenverwaltung", "source": "Stadt Z\u00fcrich Open Government Data; Geomatik + Vermessung; Tiefbau- und Entsorgungsdepartement"}}, {"type": "way", "id": 64260381, "nodes": [791378618, 2888641533, 3587167979, 791378555, 791378648, 2888641531, 2888641532, 2888641535, 2888641534, 3587167980, 2888641537, 1965809738, 2888641538, 2888641539, 791378605, 791378618], "tags": {"addr:city": "Z\u00fcrich", "addr:country": "CH", "addr:housenumber": "6", "addr:postcode": "8001", "addr:street": "St\u00fcssihofstatt", "building": "yes", "source": "Stadt Z\u00fcrich Open Government Data;Geomatik + Vermessung;Tiefbau- und Entsorgungsdepartement"}}, {"type": "way", "id": 64260382, "nodes": [1965809599, 791378637, 791378564, 791378544, 1965809599], "tags": {"addr:city": "Z\u00fcrich", "addr:country": "CH", "addr:housenumber": "5", "addr:postcode": "8001", "addr:street": "Rindermarkt", "building": "yes", "name": "zum Farren", "source": "Stadt Z\u00fcrich Open Government Data; Geomatik + Vermessung; Tiefbau- und Entsorgungsdepartement"}}, {"type": "way", "id": 64260383, "nodes": [791378541, 2889160964, 2889160965, 791378624, 791378583, 2889160966, 791378616, 2889160958, 791378541], "tags": {"addr:city": "Z\u00fcrich", "addr:country": "CH", "addr:housenumber": "8", "addr:postcode": "8001", "addr:street": "Brunngasse", "building": "yes", "name": "Zum Brunnenhof", "source": "Stadt Z\u00fcrich Open Government Data;Geomatik + Vermessung;Tiefbau- und Entsorgungsdepartement", "wikidata": "Q29574439"}}, {"type": "way", "id": 64260384, "nodes": [791378574, 791378598, 791378587, 791378628, 1965809718, 638948673, 791378573, 2892837818, 791378574], "tags": {"addr:city": "Z\u00fcrich", "addr:country": "CH", "addr:housenumber": "70", "addr:postcode": "8001", "addr:street": "Limmatquai", "building": "yes", "source": "Stadt Z\u00fcrich Open Government Data; Geomatik + Vermessung; Tiefbau- und Entsorgungsdepartement"}}, {"type": "way", "id": 64260385, "nodes": [791378544, 791378600, 791378651, 791378564, 791378544], "tags": {"addr:city": "Z\u00fcrich", "addr:country": "CH", "addr:housenumber": "3", "addr:postcode": "8001", "addr:street": "Rindermarkt", "building": "yes", "name": "Zum weissen T\u00e4ubli", "source": "Stadt Z\u00fcrich Open Government Data; Geomatik + Vermessung; Tiefbau- und Entsorgungsdepartement"}}, {"type": "way", "id": 64260387, "nodes": [791378604, 2888659482, 1965809788, 1965809805, 791378604], "tags": {"addr:city": "Z\u00fcrich", "addr:country": "CH", "addr:housenumber": "6", "addr:postcode": "8001", "addr:street": "Steinbockgasse", "building": "yes", "source": "Stadt Z\u00fcrich Open Government Data; Geomatik + Vermessung; Tiefbau- und Entsorgungsdepartement"}}, {"type": "way", "id": 64260388, "nodes": [791378567, 638984428, 791378624, 2889160965, 2889160964, 791378541, 791378551, 2889160939, 791378567], "tags": {"addr:city": "Z\u00fcrich", "addr:country": "CH", "addr:postcode": "8001", "building": "yes", "source": "Stadt Z\u00fcrich Open Government Data; Geomatik + Vermessung; Tiefbau- und Entsorgungsdepartement"}}, {"type": "way", "id": 64260389, "nodes": [791378629, 2892837816, 2892837814, 2892837813, 791378611, 791378596, 1965809777, 791378629], "tags": {"addr:city": "Z\u00fcrich", "addr:country": "CH", "addr:housenumber": "3", "addr:postcode": "8001", "addr:street": "Niederdorfstrasse", "building": "yes", "source": "Stadt Z\u00fcrich Open Government Data; Geomatik + Vermessung; Tiefbau- und Entsorgungsdepartement"}}, {"type": "way", "id": 64260391, "nodes": [791378557, 791378636, 2888641524, 2888641523, 791378615, 791378640, 791378557], "tags": {"addr:city": "Z\u00fcrich", "addr:country": "CH", "addr:housenumber": "15", "addr:postcode": "8001", "addr:street": "Rindermarkt", "building": "apartments", "name": "Zum gelben Lilie", "source": "Stadt Z\u00fcrich Open Government Data; Geomatik + Vermessung; Tiefbau- und Entsorgungsdepartement"}}, {"type": "way", "id": 64260392, "nodes": [791378558, 791378546, 2892837809, 791378631, 791378572, 791378575, 1965809647, 791378579, 791378558], "tags": {"addr:city": "Z\u00fcrich", "addr:country": "CH", "addr:housenumber": "3", "addr:postcode": "8001", "addr:street": "St\u00fcssihofstatt", "building": "yes", "name": "Zunfthaus zur Schneidern", "source": "Stadt Z\u00fcrich Open Government Data; Geomatik + Vermessung; Tiefbau- und Entsorgungsdepartement"}}, {"type": "way", "id": 64442899, "nodes": [792616686, 792616696, 2886648420, 2886648418, 792616684, 792616703, 792616686], "tags": {"addr:city": "Z\u00fcrich", "addr:country": "CH", "addr:housenumber": "17", "addr:postcode": "8001", "addr:street": "St\u00fcssihofstatt", "building": "yes", "source": "Stadt Z\u00fcrich Open Government Data; Geomatik + Vermessung; Tiefbau- und Entsorgungsdepartement"}}, {"type": "way", "id": 64442902, "nodes": [792616703, 792616705, 792616685, 1968663696, 792616684, 792616703], "tags": {"addr:city": "Z\u00fcrich", "addr:country": "CH", "addr:housenumber": "16", "addr:postcode": "8001", "addr:street": "St\u00fcssihofstatt", "building": "yes", "source": "Stadt Z\u00fcrich Open Government Data; Geomatik + Vermessung; Tiefbau- und Entsorgungsdepartement"}}, {"type": "way", "id": 64442904, "nodes": [792616685, 1968663696, 2886648417, 2886648415, 1968663691, 2886648408, 1968663687, 792616676, 792616680, 792616700, 792616681, 792616705, 792616685], "tags": {"addr:city": "Z\u00fcrich", "addr:country": "CH", "addr:housenumber": "15", "addr:postcode": "8001", "addr:street": "St\u00fcssihofstatt", "building": "yes", "source": "Stadt Z\u00fcrich Open Government Data; Geomatik + Vermessung; Tiefbau- und Entsorgungsdepartement"}}, {"type": "way", "id": 64442905, "nodes": [792616696, 792616695, 2886648411, 1968663694, 2886648413, 2886648412, 1968663693, 792616684, 2886648418, 2886648420, 792616696], "tags": {"addr:city": "Z\u00fcrich", "addr:country": "CH", "addr:housenumber": "8", "addr:postcode": "8001", "addr:street": "Schneggengasse", "building": "yes", "source": "Stadt Z\u00fcrich Open Government Data; Geomatik + Vermessung; Tiefbau- und Entsorgungsdepartement"}}, {"type": "way", "id": 64442906, "nodes": [792616676, 792616710, 792616708, 792616711, 2886648406, 1968663687, 792616676], "tags": {"addr:city": "Z\u00fcrich", "addr:country": "CH", "addr:housenumber": "14", "addr:postcode": "8001", "addr:street": "St\u00fcssihofstatt", "building": "yes", "source": "Stadt Z\u00fcrich Open Government Data; Geomatik + Vermessung; Tiefbau- und Entsorgungsdepartement"}}, {"type": "way", "id": 64442907, "nodes": [792616679, 2886648407, 792616708, 792616710, 633601369, 792616688, 639029566, 792616679], "tags": {"addr:city": "Z\u00fcrich", "addr:country": "CH", "addr:postcode": "8001", "building": "yes", "source": "Stadt Z\u00fcrich Open Government Data; Geomatik + Vermessung; Tiefbau- und Entsorgungsdepartement"}}, {"type": "way", "id": 64442908, "nodes": [792616697, 639048678, 792616677, 792616704, 792616682, 633640178, 792616697], "tags": {"addr:city": "Z\u00fcrich", "addr:country": "CH", "addr:postcode": "8001", "building": "yes", "source": "Stadt Z\u00fcrich Open Government Data; Geomatik + Vermessung; Tiefbau- und Entsorgungsdepartement"}}, {"type": "way", "id": 75684685, "nodes": [893470347, 893470480, 894788906, 2883853047, 8933669779, 2883853053, 2883853052, 893470245, 2883853060, 2883853059, 893470315, 893470163, 893470519, 893470440, 893470290, 2883853057, 893470347], "tags": {"addr:city": "Z\u00fcrich", "addr:country": "CH", "addr:postcode": "8001", "building": "yes", "name": "Zum Hohen Eich", "source": "Stadt Z\u00fcrich Open Government Data;Geomatik + Vermessung;Tiefbau- und Entsorgungsdepartement"}}, {"type": "way", "id": 75684686, "nodes": [893470395, 893470598, 893470463, 2886648404, 2886648403, 893470635, 2886648296, 893470607, 893470395], "tags": {"addr:city": "Z\u00fcrich", "addr:country": "CH", "addr:housenumber": "20", "addr:postcode": "8001", "addr:street": "Marktgasse", "building": "yes", "source": "Stadt Z\u00fcrich Open Government Data; Geomatik + Vermessung; Tiefbau- und Entsorgungsdepartement"}}, {"type": "way", "id": 75684691, "nodes": [893470396, 893470482, 893470515, 893470253, 893470396], "tags": {"addr:city": "Z\u00fcrich", "addr:country": "CH", "addr:housenumber": "12", "addr:postcode": "8001", "addr:street": "Rindermarkt", "building": "apartments", "source": "Stadt Z\u00fcrich Open Government Data; Geomatik + Vermessung; Tiefbau- und Entsorgungsdepartement"}}, {"type": "way", "id": 75684695, "nodes": [893470579, 893470250, 2886648410, 893470243, 893470463, 2886648404, 2886648403, 893470635, 893470322, 1969144617, 1969144616, 893470579], "tags": {"addr:city": "Z\u00fcrich", "addr:country": "CH", "addr:housenumber": "6", "addr:postcode": "8001", "addr:street": "Rindermarkt", "building": "apartments", "source": "Stadt Z\u00fcrich Open Government Data; Geomatik + Vermessung; Tiefbau- und Entsorgungsdepartement"}}, {"type": "way", "id": 75684697, "nodes": [893470182, 893470260, 893470411, 893470457, 893470182], "tags": {"addr:city": "Z\u00fcrich", "addr:country": "CH", "addr:housenumber": "6", "addr:postcode": "8001", "addr:street": "Leuengasse", "building": "yes", "source": "Stadt Z\u00fcrich Open Government Data; Geomatik + Vermessung; Tiefbau- und Entsorgungsdepartement"}}, {"type": "way", "id": 75684699, "nodes": [387850569, 387850568, 2883853037, 2883853036, 894788895, 2883853034, 2883853035, 387214656, 894788912, 894788935, 893470311, 2883853038, 2883853039, 2883853042, 2883853041, 893470626, 387850569], "tags": {"addr:city": "Z\u00fcrich", "addr:country": "CH", "addr:housenumber": "5", "addr:postcode": "8001", "addr:street": "Spiegelgasse", "building": "yes", "source": "Stadt Z\u00fcrich Open Government Data; Geomatik + Vermessung; Tiefbau- und Entsorgungsdepartement"}}, {"type": "way", "id": 75684703, "nodes": [893470395, 893470485, 893470478, 893470607, 893470395], "tags": {"addr:city": "Z\u00fcrich", "addr:country": "CH", "addr:housenumber": "18", "addr:postcode": "8001", "addr:street": "Marktgasse", "building": "yes", "source": "Stadt Z\u00fcrich Open Government Data; Geomatik + Vermessung; Tiefbau- und Entsorgungsdepartement"}}, {"type": "way", "id": 75684704, "nodes": [893470515, 2886648287, 893470402, 893470358, 2886648288, 893470482, 893470515], "tags": {"addr:city": "Z\u00fcrich", "addr:country": "CH", "addr:housenumber": "14", "addr:postcode": "8001", "addr:street": "Rindermarkt", "building": "yes", "name": "Zum Palmbaum", "source": "Stadt Z\u00fcrich Open Government Data;Geomatik + Vermessung;Tiefbau- und Entsorgungsdepartement"}}, {"type": "way", "id": 75684712, "nodes": [893470505, 893470547, 893470253, 893470396, 893470505], "tags": {"addr:city": "Z\u00fcrich", "addr:country": "CH", "addr:housenumber": "8", "addr:postcode": "8001", "addr:street": "Rindermarkt", "building": "apartments", "source": "Stadt Z\u00fcrich Open Government Data; Geomatik + Vermessung; Tiefbau- und Entsorgungsdepartement"}}, {"type": "way", "id": 75731987, "nodes": [894108059, 2866198323, 894108047, 2866198324, 894108056, 2866198305, 894108023, 2866198332, 2866198331, 2866198329, 894108075, 2866198326, 894108059], "tags": {"addr:city": "Z\u00fcrich", "addr:country": "CH", "addr:postcode": "8001", "building": "yes", "name": "Zum roten Gatter", "source": "Stadt Z\u00fcrich Open Government Data; Geomatik + Vermessung; Tiefbau- und Entsorgungsdepartement"}}, {"type": "way", "id": 75731988, "nodes": [894108024, 2874837782, 894108021, 2874837786, 2874837785, 894108037, 2874837776, 894108077, 894108061, 894108096, 894108024], "tags": {"addr:city": "Z\u00fcrich", "addr:country": "CH", "addr:postcode": "8001", "building": "apartments", "source": "Stadt Z\u00fcrich Open Government Data; Geomatik + Vermessung; Tiefbau- und Entsorgungsdepartement"}}, {"type": "way", "id": 75731989, "nodes": [894108088, 2866198333, 2866198334, 894108026, 894108039, 894108095, 9801305983, 894108088], "tags": {"addr:city": "Z\u00fcrich", "addr:country": "CH", "addr:housenumber": "56", "addr:postcode": "8001", "addr:street": "Limmatquai", "building": "yes", "source": "Stadt Z\u00fcrich Open Government Data; Geomatik + Vermessung; Tiefbau- und Entsorgungsdepartement"}}, {"type": "way", "id": 75731991, "nodes": [894108068, 894108073, 894108067, 2883853054, 894108032, 894108068], "tags": {"addr:city": "Z\u00fcrich", "addr:country": "CH", "addr:housenumber": "7", "addr:postcode": "8001", "addr:street": "Marktgasse", "building": "apartments", "source": "Stadt Z\u00fcrich Open Government Data;Geomatik + Vermessung;Tiefbau- und Entsorgungsdepartement"}}, {"type": "way", "id": 75731992, "nodes": [894108051, 894108030, 2883853051, 894108084, 894108000, 894108065, 894108080, 894108031, 894108025, 894108068, 894108051], "tags": {"addr:city": "Z\u00fcrich", "addr:country": "CH", "addr:housenumber": "17", "addr:postcode": "8001", "addr:street": "Marktgasse", "building": "yes", "source": "Stadt Z\u00fcrich Open Government Data; Geomatik + Vermessung; Tiefbau- und Entsorgungsdepartement"}}, {"type": "way", "id": 75731993, "nodes": [894108066, 894108060, 894108025, 894108031, 894108066], "tags": {"addr:city": "Z\u00fcrich", "addr:country": "CH", "addr:housenumber": "11", "addr:postcode": "8001", "addr:street": "Marktgasse", "building": "yes", "source": "Stadt Z\u00fcrich Open Government Data; Geomatik + Vermessung; Tiefbau- und Entsorgungsdepartement"}}, {"type": "way", "id": 75731994, "nodes": [894108046, 894108041, 894108096, 894108061, 894108046], "tags": {"addr:city": "Z\u00fcrich", "addr:country": "CH", "addr:housenumber": "29", "addr:postcode": "8001", "addr:street": "M\u00fcnstergasse", "building": "yes", "source": "Stadt Z\u00fcrich Open Government Data; Geomatik + Vermessung; Tiefbau- und Entsorgungsdepartement"}}, {"type": "way", "id": 75731998, "nodes": [894108094, 894108029, 2866198322, 894108035, 894108086, 2866198328, 894108083, 894108094], "tags": {"addr:city": "Z\u00fcrich", "addr:country": "CH", "addr:housenumber": "4", "addr:postcode": "8001", "addr:street": "Krebsgasse", "building": "yes", "source": "Stadt Z\u00fcrich Open Government Data; Geomatik + Vermessung; Tiefbau- und Entsorgungsdepartement"}}, {"type": "way", "id": 75732000, "nodes": [894108055, 2874837777, 894108063, 894108078, 639048659, 894108071, 2866198336, 2866198335, 894108055], "tags": {"addr:city": "Z\u00fcrich", "addr:country": "CH", "addr:postcode": "8001", "building": "apartments", "housename": "Haus zum Alpha", "source": "Stadt Z\u00fcrich Open Government Data; Geomatik + Vermessung; Tiefbau- und Entsorgungsdepartement"}}, {"type": "way", "id": 75732001, "nodes": [894108065, 894108066, 894108031, 894108080, 894108065], "tags": {"addr:city": "Z\u00fcrich", "addr:country": "CH", "addr:housenumber": "13", "addr:postcode": "8001", "addr:street": "Marktgasse", "building": "apartments", "source": "Stadt Z\u00fcrich Open Government Data; Geomatik + Vermessung; Tiefbau- und Entsorgungsdepartement"}}, {"type": "way", "id": 75732003, "nodes": [894108040, 5107213199, 5107213198, 894108070, 894108067, 2883853054, 894108032, 2883853056, 2883853055, 894108076, 894108040], "tags": {"addr:city": "Z\u00fcrich", "addr:country": "CH", "addr:housenumber": "3", "addr:postcode": "8001", "addr:street": "Marktgasse", "building": "yes", "source": "Stadt Z\u00fcrich Open Government Data; Geomatik + Vermessung; Tiefbau- und Entsorgungsdepartement"}}, {"type": "way", "id": 75732004, "nodes": [894108088, 894108063, 894108078, 639048658, 639048661, 894108044, 894108001, 2874837779, 894108026, 2866198334, 2866198333, 894108088], "tags": {"addr:city": "Z\u00fcrich", "addr:country": "CH", "addr:postcode": "8001", "building": "yes", "source": "Stadt Z\u00fcrich Open Government Data; Geomatik + Vermessung; Tiefbau- und Entsorgungsdepartement"}}, {"type": "way", "id": 75732005, "nodes": [894108059, 894108093, 1968663671, 1968663673, 955271552, 894108058, 894108079, 894108047, 2866198323, 894108059], "tags": {"addr:city": "Z\u00fcrich", "addr:country": "CH", "addr:housenumber": "7", "addr:postcode": "8001", "addr:street": "Ankengasse", "building": "yes", "source": "Stadt Z\u00fcrich Open Government Data; Geomatik + Vermessung; Tiefbau- und Entsorgungsdepartement"}}, {"type": "way", "id": 75732007, "nodes": [894108029, 2866198325, 894108054, 894108014, 894108033, 2866198321, 2866198322, 894108029], "tags": {"addr:city": "Z\u00fcrich", "addr:country": "CH", "addr:housenumber": "54", "addr:postcode": "8001", "addr:street": "Limmatquai", "building": "yes", "name": "Zunfthaus zur Saffran", "source": "Stadt Z\u00fcrich Open Government Data; Geomatik + Vermessung; Tiefbau- und Entsorgungsdepartement", "wikidata": "Q9392138"}}, {"type": "way", "id": 75732008, "nodes": [894108005, 2874837778, 894108055, 2866198335, 2866198336, 894108071, 2874837780, 894108074, 894108005], "tags": {"addr:city": "Z\u00fcrich", "addr:country": "CH", "addr:postcode": "8001", "building": "yes", "source": "Stadt Z\u00fcrich Open Government Data; Geomatik + Vermessung; Tiefbau- und Entsorgungsdepartement"}}, {"type": "way", "id": 75732010, "nodes": [894108034, 2866198330, 2866198331, 2866198332, 894108023, 894108020, 894108034], "tags": {"addr:city": "Z\u00fcrich", "addr:country": "CH", "addr:housenumber": "25", "addr:postcode": "8001", "addr:street": "M\u00fcnstergasse", "building": "yes", "source": "Stadt Z\u00fcrich Open Government Data; Geomatik + Vermessung; Tiefbau- und Entsorgungsdepartement"}}, {"type": "way", "id": 75732011, "nodes": [894108077, 894108052, 894108081, 894108046, 894108061, 894108077], "tags": {"addr:city": "Z\u00fcrich", "addr:country": "CH", "addr:housenumber": "31", "addr:postcode": "8001", "addr:street": "M\u00fcnstergasse", "building": "yes", "source": "Stadt Z\u00fcrich Open Government Data; Geomatik + Vermessung; Tiefbau- und Entsorgungsdepartement"}}, {"type": "way", "id": 75732013, "nodes": [894108076, 894108087, 894108051, 894108068, 894108032, 2883853056, 2883853055, 894108076], "tags": {"addr:city": "Z\u00fcrich", "addr:country": "CH", "addr:housenumber": "6", "addr:postcode": "8001", "addr:street": "Marktgasse", "building": "yes", "source": "Stadt Z\u00fcrich Open Government Data; Geomatik + Vermessung; Tiefbau- und Entsorgungsdepartement"}}, {"type": "way", "id": 75732014, "nodes": [894108021, 894108050, 894108005, 894108074, 2874837781, 894108037, 2874837785, 2874837786, 894108021], "tags": {"addr:city": "Z\u00fcrich", "addr:country": "CH", "addr:postcode": "8001", "building": "yes", "source": "Stadt Z\u00fcrich Open Government Data; Geomatik + Vermessung; Tiefbau- und Entsorgungsdepartement"}}, {"type": "way", "id": 75732015, "nodes": [894108014, 894108016, 894108036, 894108035, 894108033, 894108014], "tags": {"addr:city": "Z\u00fcrich", "addr:country": "CH", "addr:housenumber": "52", "addr:postcode": "8001", "addr:street": "Limmatquai", "building": "yes", "name": "Zunfthaus zur Haue", "source": "Stadt Z\u00fcrich Open Government Data; Geomatik + Vermessung; Tiefbau- und Entsorgungsdepartement", "wikidata": "Q229905"}}, {"type": "way", "id": 75732016, "nodes": [894108073, 894108060, 894108025, 894108068, 894108073], "tags": {"addr:city": "Z\u00fcrich", "addr:country": "CH", "addr:housenumber": "9", "addr:postcode": "8001", "addr:street": "Marktgasse", "building": "yes", "source": "Stadt Z\u00fcrich Open Government Data; Geomatik + Vermessung; Tiefbau- und Entsorgungsdepartement"}}, {"type": "way", "id": 75732017, "nodes": [894108056, 894108022, 894108079, 894108047, 2866198324, 894108056], "tags": {"addr:city": "Z\u00fcrich", "addr:country": "CH", "addr:housenumber": "21", "addr:postcode": "8001", "addr:street": "M\u00fcnstergasse", "building": "yes", "name": "Zum Goldstein", "source": "Stadt Z\u00fcrich Open Government Data; Geomatik + Vermessung; Tiefbau- und Entsorgungsdepartement"}}, {"type": "way", "id": 75732018, "nodes": [894108041, 894108007, 894108024, 894108096, 894108041], "tags": {"addr:city": "Z\u00fcrich", "addr:country": "CH", "addr:housenumber": "27", "addr:postcode": "8001", "addr:street": "M\u00fcnstergasse", "building": "yes", "source": "Stadt Z\u00fcrich Open Government Data; Geomatik + Vermessung; Tiefbau- und Entsorgungsdepartement"}}, {"type": "way", "id": 75803831, "nodes": [894788885, 2883853029, 894788893, 895750353, 895787624, 894788925, 894788880, 894788911, 894788885], "tags": {"addr:city": "Z\u00fcrich", "addr:country": "CH", "addr:postcode": "8001", "building": "yes", "source": "Stadt Z\u00fcrich Open Government Data; Geomatik + Vermessung; Tiefbau- und Entsorgungsdepartement"}}, {"type": "way", "id": 75803834, "nodes": [894788882, 893470480, 893470347, 2883853057, 893470290, 2883853058, 893470226, 2883853048, 2883853046, 894788882], "tags": {"addr:city": "Z\u00fcrich", "addr:country": "CH", "addr:housename": "zum Waldris", "addr:housenumber": "11", "addr:postcode": "8001", "addr:street": "Spiegelgasse", "building": "yes", "name": "Waldris", "source": "Stadt Z\u00fcrich Open Government Data;Geomatik + Vermessung;Tiefbau- und Entsorgungsdepartement"}}, {"type": "way", "id": 75803837, "nodes": [893470459, 893470226, 2883853048, 2883853046, 894788882, 893470594, 2883853040, 2883853043, 2883853044, 2883853045, 893470459], "tags": {"addr:city": "Z\u00fcrich", "addr:country": "CH", "addr:housenumber": "9", "addr:postcode": "8001", "addr:street": "Spiegelgasse", "building": "yes", "name": "Zum Kronberg", "source": "Stadt Z\u00fcrich Open Government Data;Geomatik + Vermessung;Tiefbau- und Entsorgungsdepartement"}}, {"type": "way", "id": 75803842, "nodes": [894788880, 894788916, 3395753435, 894788892, 894788925, 894788880], "tags": {"addr:city": "Z\u00fcrich", "addr:country": "CH", "addr:housenumber": "5", "addr:postcode": "8001", "addr:street": "Napfgasse", "building": "apartments", "building:levels": "2", "roof:levels": "0", "roof:shape": "flat", "source": "Stadt Z\u00fcrich Open Government Data; Geomatik + Vermessung; Tiefbau- und Entsorgungsdepartement"}}, {"type": "way", "id": 75803844, "nodes": [894788907, 2876535120, 894788888, 895787608, 2876535175, 1972634368, 894788928, 2876535174, 1972634365, 2876535176, 2876535177, 894788907], "tags": {"addr:city": "Z\u00fcrich", "addr:country": "CH", "addr:postcode": "8001", "building": "yes", "name": "zum blauen Himmel", "source": "Stadt Z\u00fcrich Open Government Data; Geomatik + Vermessung; Tiefbau- und Entsorgungsdepartement"}}, {"type": "way", "id": 75803847, "nodes": [387850566, 894788915, 2883853030, 2883853031, 2883853032, 2883853033, 894788901, 894788878, 387850566], "tags": {"addr:city": "Z\u00fcrich", "addr:country": "CH", "addr:housenumber": "30", "addr:postcode": "8001", "addr:street": "M\u00fcnstergasse", "building": "yes", "source": "Stadt Z\u00fcrich Open Government Data; Geomatik + Vermessung; Tiefbau- und Entsorgungsdepartement"}}, {"type": "way", "id": 75803848, "nodes": [894788940, 2876535173, 2876535172, 2876535169, 894788883, 1972634360, 1972634363, 1972634365, 2876535176, 2876535177, 894788907, 894788940], "tags": {"addr:city": "Z\u00fcrich", "addr:country": "CH", "addr:housenumber": "6", "addr:postcode": "8001", "addr:street": "Napfgasse", "building": "yes", "name": "Zum Napf", "source": "Stadt Z\u00fcrich Open Government Data;Geomatik + Vermessung;Tiefbau- und Entsorgungsdepartement"}}, {"type": "way", "id": 75803849, "nodes": [894788895, 894788910, 894788884, 633640151, 894788891, 633640154, 387214656, 2883853035, 2883853034, 894788895], "tags": {"addr:city": "Z\u00fcrich", "addr:country": "CH", "addr:housenumber": "1", "addr:postcode": "8001", "addr:street": "Spiegelgasse", "building": "yes", "source": "Stadt Z\u00fcrich Open Government Data; Geomatik + Vermessung; Tiefbau- und Entsorgungsdepartement"}}, {"type": "way", "id": 75891333, "nodes": [894788940, 895750383, 895750413, 1281444279, 2876535166, 2876535163, 2876535167, 895787630, 2876535162, 894788883, 2876535169, 2876535172, 2876535173, 894788940], "tags": {"addr:city": "Z\u00fcrich", "addr:country": "CH", "addr:housenumber": "4", "addr:postcode": "8001", "addr:street": "Napfgasse", "building": "yes", "source": "Stadt Z\u00fcrich Open Government Data; Geomatik + Vermessung; Tiefbau- und Entsorgungsdepartement", "wikidata": "Q1124534"}}, {"type": "way", "id": 185888718, "nodes": [791378644, 1965809697, 1965809771, 1965809773, 1965809782, 791378605, 2888641539, 2888641538, 1965809738, 2888641536, 1965809720, 1965809722, 1965809676, 791378644], "tags": {"addr:city": "Z\u00fcrich", "addr:country": "CH", "addr:housenumber": "7", "addr:postcode": "8001", "addr:street": "St\u00fcssihofstatt", "building": "yes", "source": "Stadt Z\u00fcrich Open Government Data; Geomatik + Vermessung; Tiefbau- und Entsorgungsdepartement"}}, {"type": "way", "id": 186172572, "nodes": [792616679, 792616682, 792616704, 792616677, 2886648293, 2886648402, 792616711, 792616708, 2886648407, 792616679], "tags": {"addr:city": "Z\u00fcrich", "addr:country": "CH", "addr:housenumber": "21", "addr:postcode": "8001", "addr:street": "Marktgasse", "building": "apartments", "name": "Zur Treu", "source": "Stadt Z\u00fcrich Open Government Data; Geomatik + Vermessung; Tiefbau- und Entsorgungsdepartement"}}, {"type": "way", "id": 284661601, "nodes": [2883853039, 2883853038, 893470311, 894788887, 893470594, 2883853040, 2883853039], "tags": {"addr:city": "Z\u00fcrich", "addr:country": "CH", "addr:housenumber": "7", "addr:postcode": "8001", "addr:street": "Spiegelgasse", "building": "yes", "source": "Stadt Z\u00fcrich Open Government Data; Geomatik + Vermessung; Tiefbau- und Entsorgungsdepartement"}}, {"type": "way", "id": 284661602, "nodes": [2883853042, 2883853041, 893470626, 893470459, 2883853045, 2883853044, 2883853043, 2883853042], "tags": {"addr:city": "Z\u00fcrich", "addr:country": "CH", "addr:housenumber": "8", "addr:postcode": "8001", "addr:street": "Els\u00e4ssergasse", "building": "yes", "source": "Stadt Z\u00fcrich Open Government Data; Geomatik + Vermessung; Tiefbau- und Entsorgungsdepartement"}}, {"type": "way", "id": 284961899, "nodes": [2886648297, 2886648295, 2886648294, 2886648300, 2886648299, 2886648408, 1968663691, 1968663693, 2886648412, 1968663689, 2886648401, 792616702, 2886648297], "tags": {"addr:city": "Z\u00fcrich", "addr:country": "CH", "addr:housenumber": "3", "addr:postcode": "8001", "addr:street": "Metzgergasse", "building": "yes", "source": "Stadt Z\u00fcrich Open Government Data; Geomatik + Vermessung; Tiefbau- und Entsorgungsdepartement"}}, {"type": "way", "id": 285188183, "nodes": [2888641542, 2888641540, 2888641543, 1965809782, 791378605, 791378618, 2888641541, 2888641542], "tags": {"addr:city": "Z\u00fcrich", "addr:country": "CH", "addr:housenumber": "2", "addr:postcode": "8001", "addr:street": "Niederdorfstrasse", "building": "yes", "source": "Stadt Z\u00fcrich Open Government Data; Geomatik + Vermessung; Tiefbau- und Entsorgungsdepartement"}}, {"type": "way", "id": 285188186, "nodes": [2888641541, 2888641542, 2888641545, 2888641546, 2888641544, 2888641548, 791378638, 2889160947, 2889160946, 791378626, 2888641547, 2888641541], "tags": {"addr:city": "Z\u00fcrich", "addr:country": "CH", "addr:housenumber": "4", "addr:postcode": "8001", "addr:street": "Niederdorfstrasse", "building": "yes", "source": "Stadt Z\u00fcrich Open Government Data; Geomatik + Vermessung; Tiefbau- und Entsorgungsdepartement"}}, {"type": "way", "id": 285188188, "nodes": [2888641513, 2888641516, 2888641514, 2888641517, 1965809599, 791378637, 791378585, 2888641519, 2888641513], "tags": {"addr:city": "Z\u00fcrich", "addr:country": "CH", "addr:housenumber": "7", "addr:postcode": "8001", "addr:street": "Rindermarkt", "building": "yes", "source": "Stadt Z\u00fcrich Open Government Data; Geomatik + Vermessung; Tiefbau- und Entsorgungsdepartement"}}, {"type": "way", "id": 285188190, "nodes": [2888641525, 791378555, 791378648, 2888641530, 2888641529, 2888641528, 1965809650, 2888641525], "tags": {"addr:city": "Z\u00fcrich", "addr:country": "CH", "addr:housenumber": "8", "addr:postcode": "8001", "addr:street": "St\u00fcssihofstatt", "building": "yes", "source": "Stadt Z\u00fcrich Open Government Data;Geomatik + Vermessung;Tiefbau- und Entsorgungsdepartement"}}, {"type": "way", "id": 285188844, "nodes": [2888659459, 2888659468, 2888659469, 2888659463, 2888659459], "tags": {"addr:housenumber": "11a", "addr:street": "Rindermarkt", "building": "yes", "source": "Stadt Z\u00fcrich Open Government Data; Geomatik + Vermessung; Tiefbau- und Entsorgungsdepartement"}}, {"type": "way", "id": 285188845, "nodes": [2888659452, 2888659453, 2888659455, 2888659456, 2888659461, 2888659458, 2888659452], "tags": {"addr:housenumber": "15a", "addr:street": "Rindermarkt", "building": "yes", "source": "Stadt Z\u00fcrich Open Government Data; Geomatik + Vermessung; Tiefbau- und Entsorgungsdepartement"}}, {"type": "way", "id": 285188846, "nodes": [2888659462, 2888659451, 2888659450, 2888659447, 2888659446, 2888659456, 2888659461, 2888659464, 2888659460, 2888659462], "tags": {"addr:housenumber": "5b", "addr:street": "Steinbockgasse", "building": "yes", "source": "Stadt Z\u00fcrich Open Government Data; Geomatik + Vermessung; Tiefbau- und Entsorgungsdepartement"}}, {"type": "way", "id": 285188847, "nodes": [2888659487, 2888659488, 2888659479, 2888659475, 2888659485, 2888659484, 2888659487], "tags": {"addr:city": "Z\u00fcrich", "addr:country": "CH", "addr:housenumber": "10", "addr:postcode": "8001", "addr:street": "Steinbockgasse", "building": "yes", "source": "Stadt Z\u00fcrich Open Government Data; Geomatik + Vermessung; Tiefbau- und Entsorgungsdepartement"}}, {"type": "way", "id": 285188848, "nodes": [2888659486, 2888659483, 2888659484, 2888659487, 2888659489, 2888659486], "tags": {"addr:city": "Z\u00fcrich", "addr:country": "CH", "addr:housenumber": "12", "addr:postcode": "8001", "addr:street": "Steinbockgasse", "building": "yes", "source": "Stadt Z\u00fcrich Open Government Data; Geomatik + Vermessung; Tiefbau- und Entsorgungsdepartement"}}, {"type": "way", "id": 285188849, "nodes": [2888659483, 2888659484, 2888659485, 2888659475, 2888659473, 2888659471, 2888659469, 2888659468, 2888659483], "tags": {"addr:city": "Z\u00fcrich", "addr:country": "CH", "addr:housenumber": "14", "addr:postcode": "8001", "addr:street": "Steinbockgasse", "building": "yes", "source": "Stadt Z\u00fcrich Open Government Data; Geomatik + Vermessung; Tiefbau- und Entsorgungsdepartement"}}, {"type": "way", "id": 285188850, "nodes": [2888659465, 2888659462, 2888659460, 2888659464, 2888659477, 2888659478, 1965809780, 2888659465], "tags": {"addr:city": "Z\u00fcrich", "addr:country": "CH", "addr:housenumber": "5", "addr:postcode": "8001", "addr:street": "Steinbockgasse", "building": "yes", "source": "Stadt Z\u00fcrich Open Government Data; Geomatik + Vermessung; Tiefbau- und Entsorgungsdepartement"}}, {"type": "way", "id": 285188851, "nodes": [2888659449, 2888659448, 2888659454, 2888659457, 2888659463, 2888659469, 2888659471, 2888659470, 2888659466, 2888659467, 2888659472, 2888659474, 2888659480, 2888659481, 2888659478, 2888659477, 2888659464, 2888659461, 2888659458, 2888659452, 2888659449], "tags": {"addr:city": "Z\u00fcrich", "addr:country": "CH", "addr:housenumber": "7", "addr:postcode": "8001", "addr:street": "Steinbockgasse", "building": "yes", "source": "Stadt Z\u00fcrich Open Government Data; Geomatik + Vermessung; Tiefbau- und Entsorgungsdepartement"}}, {"type": "way", "id": 285188852, "nodes": [791378604, 2888659492, 2888659491, 2888659490, 791378577, 791378554, 791378620, 2888659480, 2888659481, 2888659482, 791378604], "tags": {"addr:city": "Z\u00fcrich", "addr:country": "CH", "addr:housenumber": "8", "addr:postcode": "8001", "addr:street": "Steinbockgasse", "building": "yes", "source": "Stadt Z\u00fcrich Open Government Data; Geomatik + Vermessung; Tiefbau- und Entsorgungsdepartement"}}, {"type": "way", "id": 285232584, "nodes": [2889160951, 2889160957, 2889160958, 791378541, 2889160953, 2889160951], "tags": {"addr:city": "Z\u00fcrich", "addr:country": "CH", "addr:housenumber": "10", "addr:postcode": "8001", "addr:street": "Brunngasse", "building": "yes", "source": "Stadt Z\u00fcrich Open Government Data; Geomatik + Vermessung; Tiefbau- und Entsorgungsdepartement"}}, {"type": "way", "id": 285609758, "nodes": [2892776816, 2892776804, 2892776805, 2892776809, 2892776811, 2892776818, 2892776817, 2892776816], "tags": {"addr:city": "Z\u00fcrich", "addr:country": "CH", "addr:housenumber": "1", "addr:postcode": "8001", "addr:street": "Brunngasse", "building": "yes", "source": "Stadt Z\u00fcrich Open Government Data; Geomatik + Vermessung; Tiefbau- und Entsorgungsdepartement"}}, {"type": "way", "id": 285609759, "nodes": [2892776830, 2892776834, 2892776837, 2892776841, 2892776838, 2892776839, 2892776846, 2892776851, 2892776860, 2892776856, 2892776836, 2892776835, 2892776830], "tags": {"addr:city": "Z\u00fcrich", "addr:country": "CH", "addr:housenumber": "10", "addr:postcode": "8001", "addr:street": "Spitalgasse", "building": "yes", "source": "Stadt Z\u00fcrich Open Government Data; Geomatik + Vermessung; Tiefbau- und Entsorgungsdepartement"}}, {"type": "way", "id": 285609760, "nodes": [2892776814, 2892776821, 2892776828, 2892776833, 2892776831, 2892776834, 2892776830, 2892776827, 2892776814], "tags": {"addr:city": "Z\u00fcrich", "addr:country": "CH", "addr:housenumber": "11", "addr:postcode": "8001", "addr:street": "Brunngasse", "building": "yes", "source": "Stadt Z\u00fcrich Open Government Data; Geomatik + Vermessung; Tiefbau- und Entsorgungsdepartement"}}, {"type": "way", "id": 285609762, "nodes": [2892776851, 2892776855, 2892776861, 2892776860, 2892776851], "tags": {"addr:city": "Z\u00fcrich", "addr:country": "CH", "addr:housenumber": "12", "addr:postcode": "8001", "addr:street": "Spitalgasse", "building": "yes", "source": "Stadt Z\u00fcrich Open Government Data; Geomatik + Vermessung; Tiefbau- und Entsorgungsdepartement"}}, {"type": "way", "id": 285609763, "nodes": [2892776821, 2892776824, 2892776840, 2892776847, 2892776852, 2892776846, 2892776839, 2892776833, 2892776828, 2892776821], "tags": {"addr:city": "Z\u00fcrich", "addr:country": "CH", "addr:housenumber": "13", "addr:postcode": "8001", "addr:street": "Brunngasse", "building": "yes", "source": "Stadt Z\u00fcrich Open Government Data; Geomatik + Vermessung; Tiefbau- und Entsorgungsdepartement"}}, {"type": "way", "id": 285609764, "nodes": [2892776847, 2892776854, 2892776857, 2892776859, 2892776862, 2892776861, 2892776855, 2892776852, 2892776847], "tags": {"addr:city": "Z\u00fcrich", "addr:country": "CH", "addr:housenumber": "14", "addr:postcode": "8001", "addr:street": "Spitalgasse", "building": "yes", "source": "Stadt Z\u00fcrich Open Government Data; Geomatik + Vermessung; Tiefbau- und Entsorgungsdepartement"}}, {"type": "way", "id": 285609765, "nodes": [2892776824, 2892776832, 2892776848, 2892776845, 2892776854, 2892776847, 2892776840, 2892776824], "tags": {"addr:city": "Z\u00fcrich", "addr:country": "CH", "addr:housenumber": "15", "addr:postcode": "8001", "addr:street": "Brunngasse", "building": "yes", "source": "Stadt Z\u00fcrich Open Government Data; Geomatik + Vermessung; Tiefbau- und Entsorgungsdepartement"}}, {"type": "way", "id": 285609766, "nodes": [2892776842, 2892776829, 2892776816, 2892776817, 2892776818, 2892776820, 2892776842], "tags": {"addr:city": "Z\u00fcrich", "addr:country": "CH", "addr:housenumber": "2", "addr:postcode": "8001", "addr:street": "Spitalgasse", "building": "yes", "source": "Stadt Z\u00fcrich Open Government Data; Geomatik + Vermessung; Tiefbau- und Entsorgungsdepartement"}}, {"type": "way", "id": 285609767, "nodes": [2892776805, 2892776803, 2892776806, 2892776807, 2892776819, 2892776812, 2892776813, 2892776811, 2892776809, 2892776805], "tags": {"addr:city": "Z\u00fcrich", "addr:country": "CH", "addr:housenumber": "3", "addr:postcode": "8001", "addr:street": "Brunngasse", "building": "yes", "source": "Stadt Z\u00fcrich Open Government Data; Geomatik + Vermessung; Tiefbau- und Entsorgungsdepartement"}}, {"type": "way", "id": 285609768, "nodes": [2892776842, 2892776820, 2892776823, 2892776843, 2892776842], "tags": {"addr:city": "Z\u00fcrich", "addr:country": "CH", "addr:housenumber": "4", "addr:postcode": "8001", "addr:street": "Spitalgasse", "building": "yes", "source": "Stadt Z\u00fcrich Open Government Data; Geomatik + Vermessung; Tiefbau- und Entsorgungsdepartement"}}, {"type": "way", "id": 285609769, "nodes": [2892776807, 2892776808, 2892776822, 2892776819, 2892776807], "tags": {"addr:city": "Z\u00fcrich", "addr:country": "CH", "addr:housenumber": "5", "addr:postcode": "8001", "addr:street": "Brunngasse", "building": "yes", "source": "Stadt Z\u00fcrich Open Government Data; Geomatik + Vermessung; Tiefbau- und Entsorgungsdepartement"}}, {"type": "way", "id": 285609770, "nodes": [2892776843, 2892776823, 2892776826, 2892776849, 2892776843], "tags": {"addr:city": "Z\u00fcrich", "addr:country": "CH", "addr:housenumber": "6", "addr:postcode": "8001", "addr:street": "Spitalgasse", "building": "yes", "source": "Stadt Z\u00fcrich Open Government Data; Geomatik + Vermessung; Tiefbau- und Entsorgungsdepartement"}}, {"type": "way", "id": 285609771, "nodes": [2892776808, 2892776810, 2892776825, 2892776822, 2892776808], "tags": {"addr:city": "Z\u00fcrich", "addr:country": "CH", "addr:housenumber": "7", "addr:postcode": "8001", "addr:street": "Brunngasse", "building": "yes", "source": "Stadt Z\u00fcrich Open Government Data; Geomatik + Vermessung; Tiefbau- und Entsorgungsdepartement"}}, {"type": "way", "id": 285609772, "nodes": [2892776849, 2892776826, 2892776835, 2892776836, 2892776856, 2892776849], "tags": {"addr:city": "Z\u00fcrich", "addr:country": "CH", "addr:housenumber": "8", "addr:postcode": "8001", "addr:street": "Spitalgasse", "building": "yes", "source": "Stadt Z\u00fcrich Open Government Data; Geomatik + Vermessung; Tiefbau- und Entsorgungsdepartement"}}, {"type": "way", "id": 285609773, "nodes": [2892776810, 2892776814, 2892776827, 2892776825, 2892776810], "tags": {"addr:city": "Z\u00fcrich", "addr:country": "CH", "addr:housenumber": "9", "addr:postcode": "8001", "addr:street": "Brunngasse", "building": "yes", "source": "Stadt Z\u00fcrich Open Government Data; Geomatik + Vermessung; Tiefbau- und Entsorgungsdepartement"}}, {"type": "way", "id": 285611272, "nodes": [2892837835, 2892837830, 2892837842, 2892837841, 2892837835], "tags": {"addr:city": "Z\u00fcrich", "addr:country": "CH", "addr:housenumber": "6", "addr:postcode": "8001", "addr:street": "Rosengasse", "building": "yes", "source": "Stadt Z\u00fcrich Open Government Data; Geomatik + Vermessung; Tiefbau- und Entsorgungsdepartement"}}, {"type": "way", "id": 285611273, "nodes": [2892837837, 471592602, 638984363, 638984369, 2892837837], "tags": {"addr:city": "Z\u00fcrich", "addr:country": "CH", "addr:housenumber": "7", "addr:postcode": "8001", "addr:street": "Niederdorfstrasse", "building": "yes", "source": "Stadt Z\u00fcrich Open Government Data; Geomatik + Vermessung; Tiefbau- und Entsorgungsdepartement"}}, {"type": "way", "id": 285611274, "nodes": [2892837832, 2892837828, 2892837827, 2892837833, 2892837838, 2892837832], "tags": {"addr:city": "Z\u00fcrich", "addr:country": "CH", "addr:housenumber": "74", "addr:postcode": "8001", "addr:street": "Limmatquai", "building": "yes", "source": "Stadt Z\u00fcrich Open Government Data; Geomatik + Vermessung; Tiefbau- und Entsorgungsdepartement"}}, {"type": "way", "id": 285611275, "nodes": [2892837839, 2892837834, 2892837832, 2892837838, 2892837833, 2892837835, 2892837841, 2892837840, 2892837839], "tags": {"addr:city": "Z\u00fcrich", "addr:country": "CH", "addr:housenumber": "76", "addr:postcode": "8001", "addr:street": "Limmatquai", "building": "yes", "source": "Stadt Z\u00fcrich Open Government Data; Geomatik + Vermessung; Tiefbau- und Entsorgungsdepartement"}}, {"type": "way", "id": 285612557, "nodes": [2892887135, 2892887134, 2892887152, 2892887151, 2892887147, 2892887150, 2892887140, 2892887138, 2892887139, 2892887137, 2892887136, 2892887135], "tags": {"addr:city": "Z\u00fcrich", "addr:country": "CH", "addr:housenumber": "11", "addr:postcode": "8001", "addr:street": "Niederdorfstrasse", "building": "apartments", "source": "Stadt Z\u00fcrich Open Government Data; Geomatik + Vermessung; Tiefbau- und Entsorgungsdepartement"}}, {"type": "way", "id": 285612559, "nodes": [2892887152, 2892887155, 2892887153, 2892887148, 2892887142, 2892887141, 2892887140, 2892887150, 2892887147, 2892887151, 2892887152], "tags": {"addr:city": "Z\u00fcrich", "addr:country": "CH", "addr:housenumber": "13", "addr:postcode": "8001", "addr:street": "Niederdorfstrasse", "building": "yes", "source": "Stadt Z\u00fcrich Open Government Data; Geomatik + Vermessung; Tiefbau- und Entsorgungsdepartement"}}, {"type": "way", "id": 285612561, "nodes": [2892887127, 2892887128, 2892887144, 2892887145, 2892887127], "tags": {"addr:city": "Z\u00fcrich", "addr:country": "CH", "addr:housenumber": "3", "addr:postcode": "8001", "addr:street": "Rosengasse", "building": "yes", "source": "Stadt Z\u00fcrich Open Government Data; Geomatik + Vermessung; Tiefbau- und Entsorgungsdepartement"}}, {"type": "way", "id": 285612563, "nodes": [2892887128, 2892887129, 2892887141, 2892887142, 2892887143, 2892887144, 2892887128], "tags": {"addr:city": "Z\u00fcrich", "addr:country": "CH", "addr:housenumber": "5", "addr:postcode": "8001", "addr:street": "Rosengasse", "building": "yes", "source": "Stadt Z\u00fcrich Open Government Data; Geomatik + Vermessung; Tiefbau- und Entsorgungsdepartement"}}, {"type": "way", "id": 285612565, "nodes": [2892887129, 2892887130, 2892887131, 2892887135, 2892887136, 2892887137, 2892887139, 2892887138, 2892887140, 2892887141, 2892887129], "tags": {"addr:city": "Z\u00fcrich", "addr:country": "CH", "addr:housenumber": "7", "addr:postcode": "8001", "addr:street": "Rosengasse", "building": "yes", "source": "Stadt Z\u00fcrich Open Government Data; Geomatik + Vermessung; Tiefbau- und Entsorgungsdepartement"}}, {"type": "way", "id": 285612567, "nodes": [2892887146, 2892887133, 2892887132, 2892887126, 2892887127, 2892887145, 2892887146], "tags": {"addr:city": "Z\u00fcrich", "addr:country": "CH", "addr:housenumber": "78", "addr:postcode": "8001", "addr:street": "Limmatquai", "building": "yes", "source": "Stadt Z\u00fcrich Open Government Data; Geomatik + Vermessung; Tiefbau- und Entsorgungsdepartement"}}, {"type": "way", "id": 285612569, "nodes": [2892887154, 2892887146, 2892887145, 2892887144, 2892887143, 2892887149, 2892887148, 2892887153, 2892887154], "tags": {"addr:city": "Z\u00fcrich", "addr:country": "CH", "addr:housenumber": "80", "addr:postcode": "8001", "addr:street": "Limmatquai", "building": "yes", "name": "Zur Gerwe", "source": "Stadt Z\u00fcrich Open Government Data; Geomatik + Vermessung; Tiefbau- und Entsorgungsdepartement"}}, {"type": "way", "id": 285620172, "nodes": [638966006, 2892940684, 633678282, 2892940681, 2892940678, 638966007, 2892940683, 638966006], "tags": {"addr:city": "Z\u00fcrich", "addr:country": "CH", "addr:postcode": "8001", "building": "yes", "source": "Stadt Z\u00fcrich Open Government Data; Geomatik + Vermessung; Tiefbau- und Entsorgungsdepartement"}}, {"type": "way", "id": 285940473, "nodes": [2895820209, 2895820208, 2895820213, 2895820214, 2895820209], "tags": {"addr:city": "Z\u00fcrich", "addr:country": "CH", "addr:housenumber": "19", "addr:postcode": "8001", "addr:street": "Niederdorfstrasse", "building": "yes"}}, {"type": "way", "id": 285940476, "nodes": [2895820211, 2895820210, 2895820215, 2895820218, 2895820211], "tags": {"addr:city": "Z\u00fcrich", "addr:country": "CH", "addr:postcode": "8001", "building": "yes", "source": "Stadt Z\u00fcrich Open Government Data; Geomatik + Vermessung; Tiefbau- und Entsorgungsdepartement"}}, {"type": "way", "id": 285940477, "nodes": [2895820226, 693318682, 2895820224, 2895820223, 2895820222, 2895820231, 2895820207, 2895820232, 2895820226], "tags": {"addr:city": "Z\u00fcrich", "addr:country": "CH", "addr:postcode": "8001", "building": "yes", "source": "Stadt Z\u00fcrich Open Government Data; Geomatik + Vermessung; Tiefbau- und Entsorgungsdepartement"}}, {"type": "way", "id": 285940479, "nodes": [2895820221, 693318685, 2895820217, 2895820216, 2895820205, 2895820228, 2895820229, 2895820230, 2895820221], "tags": {"addr:city": "Z\u00fcrich", "addr:country": "CH", "addr:postcode": "8001", "building": "yes", "source": "Stadt Z\u00fcrich Open Government Data; Geomatik + Vermessung; Tiefbau- und Entsorgungsdepartement"}}, {"type": "way", "id": 285940480, "nodes": [2895820210, 2895820209, 2895820214, 2895820215, 2895820210], "tags": {"addr:city": "Z\u00fcrich", "addr:country": "CH", "addr:housenumber": "6", "addr:postcode": "8001", "addr:street": "Badergasse", "building": "yes", "source": "Stadt Z\u00fcrich Open Government Data; Geomatik + Vermessung; Tiefbau- und Entsorgungsdepartement"}}, {"type": "way", "id": 285940482, "nodes": [2895820222, 2895820221, 2895820230, 2895820231, 2895820222], "tags": {"addr:city": "Z\u00fcrich", "addr:country": "CH", "addr:housenumber": "8", "addr:postcode": "8001", "addr:street": "Preyergasse", "building": "yes", "source": "Stadt Z\u00fcrich Open Government Data; Geomatik + Vermessung; Tiefbau- und Entsorgungsdepartement"}}, {"type": "way", "id": 285940484, "nodes": [2895820225, 2895820212, 2895820211, 2895820218, 2895820219, 2895820220, 2895820225], "tags": {"addr:city": "Z\u00fcrich", "addr:country": "CH", "addr:housenumber": "88", "addr:postcode": "8001", "addr:street": "Limmatquai", "building": "yes", "source": "Stadt Z\u00fcrich Open Government Data; Geomatik + Vermessung; Tiefbau- und Entsorgungsdepartement"}}, {"type": "way", "id": 285940485, "nodes": [2895820233, 2895820227, 2895820226, 2895820232, 2895820233], "tags": {"addr:city": "Z\u00fcrich", "addr:country": "CH", "addr:housenumber": "92", "addr:postcode": "8001", "addr:street": "Limmatquai", "building": "apartments", "source": "Stadt Z\u00fcrich Open Government Data; Geomatik + Vermessung; Tiefbau- und Entsorgungsdepartement"}}, {"type": "way", "id": 285944475, "nodes": [637820281, 637820282, 2895850940, 2895850939, 660831159, 2895850936, 2895850937, 637820281], "tags": {"addr:city": "Z\u00fcrich", "addr:country": "CH", "addr:housenumber": "18", "addr:postcode": "8001", "addr:street": "M\u00fchlegasse", "building": "yes", "source": "Stadt Z\u00fcrich Open Government Data; Geomatik + Vermessung; Tiefbau- und Entsorgungsdepartement"}}, {"type": "way", "id": 285944476, "nodes": [637820248, 2895850907, 2895850906, 2895850910, 2895850912, 2895850913, 2895850914, 2895850918, 637820248], "tags": {"addr:city": "Z\u00fcrich", "addr:country": "CH", "addr:housenumber": "18", "addr:postcode": "8001", "addr:street": "Niederdorfstrasse", "building": "yes", "source": "Stadt Z\u00fcrich Open Government Data; Geomatik + Vermessung; Tiefbau- und Entsorgungsdepartement"}}, {"type": "way", "id": 285944477, "nodes": [2895850906, 2895850905, 2895850908, 660831130, 660831133, 2895850916, 2895850912, 2895850910, 2895850906], "tags": {"addr:city": "Z\u00fcrich", "addr:country": "CH", "addr:housenumber": "3", "addr:postcode": "8001", "addr:street": "Spitalgasse", "building": "yes", "source": "Stadt Z\u00fcrich Open Government Data; Geomatik + Vermessung; Tiefbau- und Entsorgungsdepartement"}}, {"type": "way", "id": 706159620, "nodes": [6635185169, 6635185167, 6635185166, 6635185168, 6635185169], "tags": {"building": "roof"}}, {"type": "way", "id": 706159621, "nodes": [2883853049, 6635185173, 6635185172, 6635185171, 6635185170, 1968663680, 331180643, 759987277, 2883853049], "tags": {"building": "roof"}}]}