{"version": 0.6, "generator": "Overpass API 0.7.60.6 e2dc3e5b", "osm3s": {"timestamp_osm_base": "2023-06-29T15:18:01Z", "copyright": "The data included in this document is from www.openstreetmap.org. The data is made available under ODbL."}, "elements": [{"type": "node", "id": 358130562, "lat": 47.3680467, "lon": 8.5400664}, {"type": "node", "id": 358130641, "lat": 47.3682043, "lon": 8.5402149}, {"type": "node", "id": 358130643, "lat": 47.36827, "lon": 8.540704}, {"type": "node", "id": 2938529543, "lat": 47.3681254, "lon": 8.5400375, "tags": {"addr:city": "Z\u00fcrich", "addr:country": "CH", "addr:housenumber": "10", "addr:postcode": "8001", "addr:street": "Bahnhofstrasse"}}, {"type": "node", "id": 2938529546, "lat": 47.3681488, "lon": 8.5408154, "tags": {"addr:city": "Z\u00fcrich", "addr:country": "CH", "addr:housenumber": "12", "addr:postcode": "8001", "addr:street": "B\u00f6rsenstrasse"}}, {"type": "node", "id": 2938529552, "lat": 47.3680633, "lon": 8.5401901, "tags": {"addr:city": "Z\u00fcrich", "addr:country": "CH", "addr:housenumber": "18", "addr:postcode": "8001", "addr:street": "B\u00f6rsenstrasse"}}, {"type": "node", "id": 2938529555, "lat": 47.3682843, "lon": 8.5409027, "tags": {"addr:city": "Z\u00fcrich", "addr:country": "CH", "addr:housenumber": "9", "addr:postcode": "8001", "addr:street": "Fraum\u00fcnsterstrasse"}}, {"type": "node", "id": 2938530114, "lat": 47.3680799, "lon": 8.5403138}, {"type": "node", "id": 2938530115, "lat": 47.3680878, "lon": 8.5404168}, {"type": "node", "id": 2938530116, "lat": 47.3680915, "lon": 8.5404454}, {"type": "node", "id": 2938530117, "lat": 47.368093, "lon": 8.5404098}, {"type": "node", "id": 2938530118, "lat": 47.3680957, "lon": 8.5404764}, {"type": "node", "id": 2938530119, "lat": 47.3680995, "lon": 8.5404512}, {"type": "node", "id": 2938530120, "lat": 47.3680997, "lon": 8.5405019}, {"type": "node", "id": 2938530122, "lat": 47.3681015, "lon": 8.5404663}, {"type": "node", "id": 2938530124, "lat": 47.3681026, "lon": 8.540528}, {"type": "node", "id": 2938530125, "lat": 47.3681046, "lon": 8.5405391}, {"type": "node", "id": 2938530126, "lat": 47.3681086, "lon": 8.5405685}, {"type": "node", "id": 2938530127, "lat": 47.3681104, "lon": 8.5405442}, {"type": "node", "id": 2938530128, "lat": 47.3681117, "lon": 8.5405916}, {"type": "node", "id": 2938530129, "lat": 47.3681127, "lon": 8.5405622}, {"type": "node", "id": 2938530130, "lat": 47.368119, "lon": 8.5405972}, {"type": "node", "id": 2938530131, "lat": 47.3681315, "lon": 8.5406922}, {"type": "node", "id": 2938530133, "lat": 47.3681657, "lon": 8.5409394}, {"type": "node", "id": 2938530135, "lat": 47.3682037, "lon": 8.5400076}, {"type": "node", "id": 2938530136, "lat": 47.368212, "lon": 8.5402734}, {"type": "node", "id": 2938530137, "lat": 47.3682262, "lon": 8.5403811}, {"type": "node", "id": 2938530138, "lat": 47.3682325, "lon": 8.540386}, {"type": "node", "id": 2938530139, "lat": 47.3682383, "lon": 8.5402019}, {"type": "node", "id": 2938530140, "lat": 47.368243, "lon": 8.540458}, {"type": "node", "id": 2938530141, "lat": 47.3682459, "lon": 8.5404841}, {"type": "node", "id": 2938530142, "lat": 47.3682485, "lon": 8.5405475}, {"type": "node", "id": 2938530143, "lat": 47.3682533, "lon": 8.5405382}, {"type": "node", "id": 2938530144, "lat": 47.3682626, "lon": 8.5406503}, {"type": "node", "id": 2938530146, "lat": 47.3683767, "lon": 8.5406716}, {"type": "node", "id": 2938530148, "lat": 47.3684031, "lon": 8.5408661}, {"type": "node", "id": 2938530149, "lat": 47.3684807, "lon": 8.54064}, {"type": "node", "id": 2938530151, "lat": 47.3685092, "lon": 8.5408348}, {"type": "node", "id": 2938530153, "lat": 47.3685343, "lon": 8.5406238}, {"type": "node", "id": 2938530155, "lat": 47.3685624, "lon": 8.5408186}, {"type": "node", "id": 2938530158, "lat": 47.3685888, "lon": 8.5406072}, {"type": "node", "id": 2938530160, "lat": 47.3686165, "lon": 8.5408018}, {"type": "node", "id": 2938530163, "lat": 47.3686924, "lon": 8.5405758}, {"type": "node", "id": 2938530164, "lat": 47.368713, "lon": 8.54019}, {"type": "node", "id": 2938530165, "lat": 47.3687217, "lon": 8.540769}, {"type": "node", "id": 2938530166, "lat": 47.3687263, "lon": 8.5402842}, {"type": "node", "id": 2938530167, "lat": 47.3687306, "lon": 8.5403152}, {"type": "node", "id": 2938530168, "lat": 47.3687483, "lon": 8.5404401}, {"type": "node", "id": 2938530169, "lat": 47.3687614, "lon": 8.5405549}, {"type": "node", "id": 2938530170, "lat": 47.3687689, "lon": 8.5405972}, {"type": "node", "id": 2938530172, "lat": 47.3688027, "lon": 8.5405861}, {"type": "node", "id": 2938530173, "lat": 47.3688235, "lon": 8.5407396}, {"type": "node", "id": 2938530174, "lat": 47.3688481, "lon": 8.5401535}, {"type": "node", "id": 2938530175, "lat": 47.36886, "lon": 8.5402452}, {"type": "node", "id": 2938530176, "lat": 47.3688638, "lon": 8.5402751}, {"type": "node", "id": 2938530177, "lat": 47.3688806, "lon": 8.5403974}, {"type": "way", "id": 290296832, "nodes": [2938530144, 2938530131, 2938529546, 2938530133, 2938529555, 2938530148, 2938530146, 358130643, 2938530144], "tags": {"addr:city": "Z\u00fcrich", "addr:country": "CH", "addr:postcode": "8001", "building": "yes", "name": "Zum L\u00f6wensteig", "source": "Stadt Z\u00fcrich Open Government Data; Geomatik + Vermessung; Tiefbau- und Entsorgungsdepartement"}}, {"type": "way", "id": 290296834, "nodes": [2938530135, 2938529543, 358130562, 2938529552, 2938530114, 2938530136, 358130641, 2938530139, 2938530135], "tags": {"addr:city": "Z\u00fcrich", "addr:country": "CH", "addr:postcode": "8001", "building": "commercial", "name": "Zum Gryffenberg", "owner": "PSP Swiss Property", "source": "Stadt Z\u00fcrich Open Government Data; Geomatik + Vermessung; Tiefbau- und Entsorgungsdepartement", "start_date": "1886"}}, {"type": "way", "id": 290296835, "nodes": [2938530148, 2938530151, 2938530149, 2938530146, 2938530148], "tags": {"addr:city": "Z\u00fcrich", "addr:country": "CH", "addr:housenumber": "11", "addr:postcode": "8001", "addr:street": "Fraum\u00fcnsterstrasse", "building": "yes", "source": "Stadt Z\u00fcrich Open Government Data; Geomatik + Vermessung; Tiefbau- und Entsorgungsdepartement"}}, {"type": "way", "id": 290296838, "nodes": [2938530151, 2938530155, 2938530160, 2938530158, 2938530153, 2938530149, 2938530151], "tags": {"addr:city": "Z\u00fcrich", "addr:country": "CH", "addr:housenumber": "13", "addr:postcode": "8001", "addr:street": "Fraum\u00fcnsterstrasse", "building": "yes", "source": "Stadt Z\u00fcrich Open Government Data; Geomatik + Vermessung; Tiefbau- und Entsorgungsdepartement"}}, {"type": "way", "id": 290296839, "nodes": [2938530177, 2938530176, 2938530167, 2938530168, 2938530177], "tags": {"addr:city": "Z\u00fcrich", "addr:country": "CH", "addr:housenumber": "13", "addr:postcode": "8001", "addr:street": "Kappelergasse", "building": "yes", "source": "Stadt Z\u00fcrich Open Government Data; Geomatik + Vermessung; Tiefbau- und Entsorgungsdepartement"}}, {"type": "way", "id": 290296841, "nodes": [2938530141, 2938530124, 2938530125, 2938530127, 2938530129, 2938530126, 2938530128, 2938530130, 2938530131, 2938530144, 2938530142, 2938530143, 2938530141], "tags": {"addr:city": "Z\u00fcrich", "addr:country": "CH", "addr:housenumber": "14", "addr:postcode": "8001", "addr:street": "B\u00f6rsenstrasse", "building": "yes", "source": "Stadt Z\u00fcrich Open Government Data; Geomatik + Vermessung; Tiefbau- und Entsorgungsdepartement"}}, {"type": "way", "id": 290296842, "nodes": [2938530160, 2938530165, 2938530163, 2938530158, 2938530160], "tags": {"addr:city": "Z\u00fcrich", "addr:country": "CH", "addr:housenumber": "15", "addr:postcode": "8001", "addr:street": "Fraum\u00fcnsterstrasse", "building": "yes", "source": "Stadt Z\u00fcrich Open Government Data; Geomatik + Vermessung; Tiefbau- und Entsorgungsdepartement"}}, {"type": "way", "id": 290296843, "nodes": [2938530176, 2938530175, 2938530174, 2938530164, 2938530166, 2938530167, 2938530176], "tags": {"addr:city": "Z\u00fcrich", "addr:country": "CH", "addr:housenumber": "15", "addr:postcode": "8001", "addr:street": "Kappelergasse", "building": "yes", "source": "Stadt Z\u00fcrich Open Government Data; Geomatik + Vermessung; Tiefbau- und Entsorgungsdepartement"}}, {"type": "way", "id": 290296845, "nodes": [2938530114, 2938530117, 2938530115, 2938530116, 2938530119, 2938530122, 2938530118, 2938530120, 2938530124, 2938530141, 2938530140, 2938530138, 2938530137, 2938530136, 2938530114], "tags": {"addr:city": "Z\u00fcrich", "addr:country": "CH", "addr:housenumber": "16", "addr:postcode": "8001", "addr:street": "B\u00f6rsenstrasse", "building": "yes", "source": "Stadt Z\u00fcrich Open Government Data; Geomatik + Vermessung; Tiefbau- und Entsorgungsdepartement"}}, {"type": "way", "id": 290296846, "nodes": [2938530165, 2938530173, 2938530172, 2938530170, 2938530169, 2938530163, 2938530165], "tags": {"addr:city": "Z\u00fcrich", "addr:country": "CH", "addr:housenumber": "17", "addr:postcode": "8001", "addr:street": "Fraum\u00fcnsterstrasse", "building": "yes", "source": "Stadt Z\u00fcrich Open Government Data; Geomatik + Vermessung; Tiefbau- und Entsorgungsdepartement"}}]}