{"version": 0.6, "generator": "Overpass API 0.7.60.6 e2dc3e5b", "osm3s": {"timestamp_osm_base": "2023-06-29T15:25:05Z", "copyright": "The data included in this document is from www.openstreetmap.org. The data is made available under ODbL."}, "elements": [{"type": "node", "id": 26888817, "lat": 47.3699734, "lon": 8.5390427}, {"type": "node", "id": 300837805, "lat": 47.370221, "lon": 8.5389425}, {"type": "node", "id": 357501055, "lat": 47.3701093, "lon": 8.5364032}, {"type": "node", "id": 357501056, "lat": 47.3698226, "lon": 8.5369714}, {"type": "node", "id": 357501058, "lat": 47.3699029, "lon": 8.5370811}, {"type": "node", "id": 357501061, "lat": 47.3699163, "lon": 8.5371639}, {"type": "node", "id": 357501062, "lat": 47.3701604, "lon": 8.5375305}, {"type": "node", "id": 357501063, "lat": 47.3704462, "lon": 8.5370293}, {"type": "node", "id": 357501065, "lat": 47.3702465, "lon": 8.5366673}, {"type": "node", "id": 357501068, "lat": 47.3701645, "lon": 8.5364049}, {"type": "node", "id": 358133820, "lat": 47.3701405, "lon": 8.5378125}, {"type": "node", "id": 358133821, "lat": 47.3697741, "lon": 8.5383249}, {"type": "node", "id": 358133825, "lat": 47.3706332, "lon": 8.538795}, {"type": "node", "id": 358133923, "lat": 47.3691422, "lon": 8.5379894}, {"type": "node", "id": 358133925, "lat": 47.3694498, "lon": 8.5384098}, {"type": "node", "id": 358133927, "lat": 47.3700375, "lon": 8.5376288}, {"type": "node", "id": 358134202, "lat": 47.3697123, "lon": 8.5373742}, {"type": "node", "id": 358134204, "lat": 47.3695766, "lon": 8.5375884}, {"type": "node", "id": 358134206, "lat": 47.3697013, "lon": 8.5377838}, {"type": "node", "id": 358134208, "lat": 47.3698387, "lon": 8.5375915}, {"type": "node", "id": 358143680, "lat": 47.3717343, "lon": 8.5365604}, {"type": "node", "id": 358143682, "lat": 47.3715861, "lon": 8.5363243}, {"type": "node", "id": 358143684, "lat": 47.3715841, "lon": 8.5358207}, {"type": "node", "id": 358143685, "lat": 47.3718058, "lon": 8.5355193}, {"type": "node", "id": 358143688, "lat": 47.3721029, "lon": 8.536068}, {"type": "node", "id": 361475947, "lat": 47.3706254, "lon": 8.5365362}, {"type": "node", "id": 361475948, "lat": 47.3703633, "lon": 8.5369005}, {"type": "node", "id": 361475949, "lat": 47.3704709, "lon": 8.5370694}, {"type": "node", "id": 361475950, "lat": 47.3707331, "lon": 8.5367051}, {"type": "node", "id": 361476040, "lat": 47.3702459, "lon": 8.5362393}, {"type": "node", "id": 361476041, "lat": 47.3703553, "lon": 8.5363917}, {"type": "node", "id": 361476042, "lat": 47.3707352, "lon": 8.5357968}, {"type": "node", "id": 361476044, "lat": 47.3708991, "lon": 8.5362682}, {"type": "node", "id": 361476045, "lat": 47.3706979, "lon": 8.5365096}, {"type": "node", "id": 361476046, "lat": 47.3708027, "lon": 8.5366655}, {"type": "node", "id": 361476047, "lat": 47.3710183, "lon": 8.5362672}, {"type": "node", "id": 361476048, "lat": 47.3710173, "lon": 8.5359441}, {"type": "node", "id": 361476049, "lat": 47.3707222, "lon": 8.5354889}, {"type": "node", "id": 361476502, "lat": 47.3706433, "lon": 8.538115}, {"type": "node", "id": 361476503, "lat": 47.3705508, "lon": 8.5382238}, {"type": "node", "id": 739966940, "lat": 47.3711565, "lon": 8.537686}, {"type": "node", "id": 739966944, "lat": 47.3717553, "lon": 8.5383727}, {"type": "node", "id": 739966956, "lat": 47.371485, "lon": 8.5374831}, {"type": "node", "id": 739967523, "lat": 47.3716312, "lon": 8.5376276}, {"type": "node", "id": 739967524, "lat": 47.3717327, "lon": 8.5368983}, {"type": "node", "id": 739967526, "lat": 47.3720696, "lon": 8.537431}, {"type": "node", "id": 739967531, "lat": 47.3713831, "lon": 8.5379208}, {"type": "node", "id": 739967532, "lat": 47.371914, "lon": 8.5374419}, {"type": "node", "id": 739967534, "lat": 47.3722279, "lon": 8.5382025}, {"type": "node", "id": 739967536, "lat": 47.3717196, "lon": 8.5371595}, {"type": "node", "id": 921511955, "lat": 47.3714351, "lon": 8.5375531}, {"type": "node", "id": 921511974, "lat": 47.3721512, "lon": 8.5376278}, {"type": "node", "id": 921511977, "lat": 47.3712019, "lon": 8.5379194}, {"type": "node", "id": 921511994, "lat": 47.3709696, "lon": 8.5359486}, {"type": "node", "id": 921511995, "lat": 47.3718372, "lon": 8.5374638}, {"type": "node", "id": 921512014, "lat": 47.3716777, "lon": 8.5374041}, {"type": "node", "id": 921512017, "lat": 47.3711061, "lon": 8.5382905}, {"type": "node", "id": 921512038, "lat": 47.3711718, "lon": 8.5382652}, {"type": "node", "id": 921512050, "lat": 47.3710173, "lon": 8.5360008}, {"type": "node", "id": 921512059, "lat": 47.3717689, "lon": 8.5373841}, {"type": "node", "id": 921512082, "lat": 47.3713996, "lon": 8.5373484}, {"type": "node", "id": 921512084, "lat": 47.3716321, "lon": 8.5374776}, {"type": "node", "id": 921512086, "lat": 47.3710422, "lon": 8.5379221}, {"type": "node", "id": 921512119, "lat": 47.37097, "lon": 8.5360012}, {"type": "node", "id": 921512122, "lat": 47.3721166, "lon": 8.5375261}, {"type": "node", "id": 921512135, "lat": 47.3712567, "lon": 8.5378426}, {"type": "node", "id": 921512140, "lat": 47.3717092, "lon": 8.5373839}, {"type": "node", "id": 921512197, "lat": 47.3706258, "lon": 8.5356445}, {"type": "node", "id": 921512216, "lat": 47.3716318, "lon": 8.5370273}, {"type": "node", "id": 921512228, "lat": 47.3715066, "lon": 8.5378632}, {"type": "node", "id": 921512232, "lat": 47.3718189, "lon": 8.5375468}, {"type": "node", "id": 921512261, "lat": 47.3712927, "lon": 8.5378932}, {"type": "node", "id": 937612857, "lat": 47.3720252, "lon": 8.5359269}, {"type": "node", "id": 937612886, "lat": 47.372444, "lon": 8.5356287}, {"type": "node", "id": 937612905, "lat": 47.3724594, "lon": 8.5353631}, {"type": "node", "id": 937612912, "lat": 47.3718912, "lon": 8.5356757}, {"type": "node", "id": 937615510, "lat": 47.3725471, "lon": 8.5369286}, {"type": "node", "id": 937615513, "lat": 47.3725075, "lon": 8.5366151}, {"type": "node", "id": 937615514, "lat": 47.3722368, "lon": 8.5368484}, {"type": "node", "id": 937615515, "lat": 47.3725338, "lon": 8.5365809}, {"type": "node", "id": 937615516, "lat": 47.37234, "lon": 8.5365865}, {"type": "node", "id": 937615517, "lat": 47.3726834, "lon": 8.5360455}, {"type": "node", "id": 937615518, "lat": 47.3718512, "lon": 8.5367267}, {"type": "node", "id": 937615519, "lat": 47.3728866, "lon": 8.5367615}, {"type": "node", "id": 937615520, "lat": 47.3727857, "lon": 8.5366121}, {"type": "node", "id": 937615523, "lat": 47.3726013, "lon": 8.5371752}, {"type": "node", "id": 937615525, "lat": 47.372491, "lon": 8.5370105}, {"type": "node", "id": 937615526, "lat": 47.3723721, "lon": 8.5375027}, {"type": "node", "id": 937615527, "lat": 47.3728005, "lon": 8.5359345}, {"type": "node", "id": 937615528, "lat": 47.3725491, "lon": 8.5372469}, {"type": "node", "id": 937615529, "lat": 47.372083, "lon": 8.5370737}, {"type": "node", "id": 937615530, "lat": 47.3729884, "lon": 8.5366135}, {"type": "node", "id": 937615532, "lat": 47.3726282, "lon": 8.5368266}, {"type": "node", "id": 937615533, "lat": 47.372732, "lon": 8.536986}, {"type": "node", "id": 937615534, "lat": 47.3720347, "lon": 8.5370041}, {"type": "node", "id": 937615535, "lat": 47.3724564, "lon": 8.536449}, {"type": "node", "id": 937615536, "lat": 47.3719782, "lon": 8.5365503}, {"type": "node", "id": 937615538, "lat": 47.3721687, "lon": 8.5368107}, {"type": "node", "id": 937615539, "lat": 47.3728201, "lon": 8.5365629}, {"type": "node", "id": 937615540, "lat": 47.3720689, "lon": 8.536693}, {"type": "node", "id": 937801734, "lat": 47.3727353, "lon": 8.5375808}, {"type": "node", "id": 937801742, "lat": 47.3726031, "lon": 8.5373928}, {"type": "node", "id": 937801745, "lat": 47.3727969, "lon": 8.5378813}, {"type": "node", "id": 937801747, "lat": 47.3727986, "lon": 8.537665}, {"type": "node", "id": 937801755, "lat": 47.372681, "lon": 8.5375112}, {"type": "node", "id": 937801780, "lat": 47.3724018, "lon": 8.5381511}, {"type": "node", "id": 937801783, "lat": 47.372801, "lon": 8.5381372}, {"type": "node", "id": 937801790, "lat": 47.372353, "lon": 8.5377519}, {"type": "node", "id": 1037402761, "lat": 47.3706088, "lon": 8.5386405}, {"type": "node", "id": 1041911454, "lat": 47.3713665, "lon": 8.5379234}, {"type": "node", "id": 1041911544, "lat": 47.3712029, "lon": 8.5380918}, {"type": "node", "id": 1041911763, "lat": 47.3711521, "lon": 8.5381485}, {"type": "node", "id": 1041911785, "lat": 47.3713502, "lon": 8.5379099}, {"type": "node", "id": 1041911955, "lat": 47.3712047, "lon": 8.5380995}, {"type": "node", "id": 1041912153, "lat": 47.3710501, "lon": 8.5378327}, {"type": "node", "id": 1041912168, "lat": 47.3715169, "lon": 8.5378138}, {"type": "node", "id": 1041912348, "lat": 47.3713392, "lon": 8.5378777}, {"type": "node", "id": 1041912610, "lat": 47.3711737, "lon": 8.5381121}, {"type": "node", "id": 1041912633, "lat": 47.3714922, "lon": 8.5378794}, {"type": "node", "id": 1041912720, "lat": 47.3710352, "lon": 8.5378669}, {"type": "node", "id": 1041912746, "lat": 47.3712235, "lon": 8.538084}, {"type": "node", "id": 1041912966, "lat": 47.371178, "lon": 8.5381384}, {"type": "node", "id": 1042029187, "lat": 47.3696074, "lon": 8.5382185}, {"type": "node", "id": 1042029203, "lat": 47.3702751, "lon": 8.537371}, {"type": "node", "id": 1042029227, "lat": 47.370013, "lon": 8.5365537}, {"type": "node", "id": 1042029254, "lat": 47.3702889, "lon": 8.5373292}, {"type": "node", "id": 1042029267, "lat": 47.370005, "lon": 8.5366186}, {"type": "node", "id": 1042029275, "lat": 47.3703639, "lon": 8.537217}, {"type": "node", "id": 1042029313, "lat": 47.3703895, "lon": 8.5371047}, {"type": "node", "id": 1043021530, "lat": 47.3701529, "lon": 8.5355978}, {"type": "node", "id": 1043021535, "lat": 47.3702098, "lon": 8.5359457}, {"type": "node", "id": 1043021639, "lat": 47.3708989, "lon": 8.5361983}, {"type": "node", "id": 1043021769, "lat": 47.3696559, "lon": 8.5363557}, {"type": "node", "id": 1043021799, "lat": 47.3708611, "lon": 8.5361344}, {"type": "node", "id": 1043022124, "lat": 47.3695907, "lon": 8.5364363}, {"type": "node", "id": 1043022228, "lat": 47.3702838, "lon": 8.5357934}, {"type": "node", "id": 1043022466, "lat": 47.3708964, "lon": 8.5361341}, {"type": "node", "id": 1043022521, "lat": 47.3697201, "lon": 8.5366643}, {"type": "node", "id": 1043022534, "lat": 47.3700617, "lon": 8.5357513}, {"type": "node", "id": 1043022597, "lat": 47.3697853, "lon": 8.5365837}, {"type": "node", "id": 1043022652, "lat": 47.3708613, "lon": 8.5361987}, {"type": "node", "id": 1110775372, "lat": 47.3721606, "lon": 8.5382263, "tags": {"addr:city": "Z\u00fcrich", "addr:country": "CH", "addr:housenumber": "47", "addr:postcode": "8001", "addr:street": "Bahnhofstrasse"}}, {"type": "node", "id": 1110775503, "lat": 47.3719906, "lon": 8.5382867, "tags": {"addr:city": "Z\u00fcrich", "addr:country": "CH", "addr:housenumber": "45", "addr:postcode": "8001", "addr:street": "Bahnhofstrasse"}}, {"type": "node", "id": 1115159293, "lat": 47.3701766, "lon": 8.5389597, "tags": {"addr:city": "Z\u00fcrich", "addr:country": "CH", "addr:housenumber": "25", "addr:postcode": "8001", "addr:street": "Bahnhofstrasse"}}, {"type": "node", "id": 1115159533, "lat": 47.3695277, "lon": 8.5383146, "tags": {"addr:city": "Z\u00fcrich", "addr:country": "CH", "addr:housenumber": "6", "addr:place": "Paradeplatz", "addr:postcode": "8001"}}, {"type": "node", "id": 1929709427, "lat": 47.3696468, "lon": 8.5381631}, {"type": "node", "id": 2309829496, "lat": 47.3706731, "lon": 8.5355672, "tags": {"addr:city": "Z\u00fcrich", "addr:country": "CH", "addr:housenumber": "64", "addr:postcode": "8001", "addr:street": "Talstrasse"}}, {"type": "node", "id": 3251866812, "lat": 47.3728187, "lon": 8.5360002, "tags": {"addr:city": "Z\u00fcrich", "addr:country": "CH", "addr:housenumber": "35", "addr:postcode": "8001", "addr:street": "Sihlstrasse"}}, {"type": "node", "id": 3251866818, "lat": 47.3714695, "lon": 8.5376198}, {"type": "node", "id": 3251866819, "lat": 47.3715149, "lon": 8.5378407}, {"type": "node", "id": 3251866820, "lat": 47.3716219, "lon": 8.5375293}, {"type": "node", "id": 3251866821, "lat": 47.3716516, "lon": 8.5374361}, {"type": "node", "id": 3251866823, "lat": 47.3717404, "lon": 8.5373787}, {"type": "node", "id": 3251866825, "lat": 47.3717974, "lon": 8.5374027}, {"type": "node", "id": 3251866826, "lat": 47.3718171, "lon": 8.537425}, {"type": "node", "id": 3251866831, "lat": 47.3720799, "lon": 8.5374132}, {"type": "node", "id": 3251866833, "lat": 47.3720967, "lon": 8.5374721}, {"type": "node", "id": 3251866834, "lat": 47.3721384, "lon": 8.53716}, {"type": "node", "id": 3251866835, "lat": 47.372142, "lon": 8.5371818}, {"type": "node", "id": 3251866836, "lat": 47.3721511, "lon": 8.5371945}, {"type": "node", "id": 3251866837, "lat": 47.3721635, "lon": 8.537198, "tags": {"addr:city": "Z\u00fcrich", "addr:country": "CH", "addr:housenumber": "8", "addr:postcode": "8001", "addr:street": "Pelikanstrasse"}}, {"type": "node", "id": 3251866838, "lat": 47.3721847, "lon": 8.5378702, "tags": {"addr:city": "Z\u00fcrich", "addr:country": "CH", "addr:housenumber": "5", "addr:postcode": "8001", "addr:street": "Pelikanstrasse"}}, {"type": "node", "id": 3251866840, "lat": 47.3722759, "lon": 8.5373762}, {"type": "node", "id": 3251866841, "lat": 47.3722729, "lon": 8.5373556}, {"type": "node", "id": 3251866842, "lat": 47.3722832, "lon": 8.5373853}, {"type": "node", "id": 3251866843, "lat": 47.3722921, "lon": 8.5373861, "tags": {"addr:city": "Z\u00fcrich", "addr:country": "CH", "addr:housenumber": "6", "addr:postcode": "8001", "addr:street": "Pelikanstrasse"}}, {"type": "node", "id": 3251866847, "lat": 47.3723879, "lon": 8.536672}, {"type": "node", "id": 3251866848, "lat": 47.3723982, "lon": 8.5370792}, {"type": "node", "id": 3251866849, "lat": 47.3724006, "lon": 8.5366579}, {"type": "node", "id": 3251866850, "lat": 47.372418, "lon": 8.5370518}, {"type": "node", "id": 3251866857, "lat": 47.3726823, "lon": 8.5375831}, {"type": "node", "id": 3251897925, "lat": 47.3708333, "lon": 8.5382167}, {"type": "node", "id": 3251897926, "lat": 47.3708451, "lon": 8.5382869}, {"type": "node", "id": 3251897929, "lat": 47.3709631, "lon": 8.5382476}, {"type": "node", "id": 3336760530, "lat": 47.3696908, "lon": 8.5366117, "tags": {"addr:city": "Z\u00fcrich", "addr:country": "CH", "addr:housenumber": "20", "addr:postcode": "8001", "addr:street": "B\u00e4rengasse"}}, {"type": "node", "id": 3336760531, "lat": 47.3696939, "lon": 8.5364226, "tags": {"addr:city": "Z\u00fcrich", "addr:country": "CH", "addr:housenumber": "22", "addr:postcode": "8001", "addr:street": "B\u00e4rengasse", "entrance": "yes"}}, {"type": "node", "id": 3336760551, "lat": 47.3696205, "lon": 8.5358249}, {"type": "node", "id": 3336760558, "lat": 47.3696762, "lon": 8.535734}, {"type": "node", "id": 3336760561, "lat": 47.3696913, "lon": 8.5357541}, {"type": "node", "id": 3336760562, "lat": 47.3696938, "lon": 8.5357007}, {"type": "node", "id": 3336760563, "lat": 47.3697063, "lon": 8.5357298}, {"type": "node", "id": 3336760564, "lat": 47.3697108, "lon": 8.5357223}, {"type": "node", "id": 3336760565, "lat": 47.3697143, "lon": 8.53595}, {"type": "node", "id": 3336760567, "lat": 47.3697709, "lon": 8.5355724}, {"type": "node", "id": 3336760568, "lat": 47.3697855, "lon": 8.5358348}, {"type": "node", "id": 3336760573, "lat": 47.3698669, "lon": 8.5357007}, {"type": "node", "id": 3340272371, "lat": 47.370393, "lon": 8.5379449, "tags": {"addr:city": "Z\u00fcrich", "addr:country": "CH", "addr:housenumber": "10", "addr:postcode": "8001", "addr:street": "B\u00e4rengasse"}}, {"type": "node", "id": 3340272372, "lat": 47.3704344, "lon": 8.5374534, "tags": {"addr:city": "Z\u00fcrich", "addr:country": "CH", "addr:housenumber": "16", "addr:postcode": "8001", "addr:street": "Talacker"}}, {"type": "node", "id": 3340272373, "lat": 47.3708642, "lon": 8.5377636, "tags": {"addr:city": "Z\u00fcrich", "addr:country": "CH", "addr:housenumber": "17", "addr:postcode": "8001", "addr:street": "St. Peterstrasse"}}, {"type": "node", "id": 3340272374, "lat": 47.3699602, "lon": 8.5374907, "tags": {"addr:city": "Z\u00fcrich", "addr:country": "CH", "addr:housenumber": "19", "addr:postcode": "8001", "addr:street": "B\u00e4rengasse"}}, {"type": "node", "id": 3340272375, "lat": 47.3707636, "lon": 8.5375495, "tags": {"addr:city": "Z\u00fcrich", "addr:country": "CH", "addr:housenumber": "19", "addr:postcode": "8001", "addr:street": "St. Peterstrasse"}}, {"type": "node", "id": 3340272376, "lat": 47.3692847, "lon": 8.5381809, "tags": {"addr:city": "Z\u00fcrich", "addr:country": "CH", "addr:housenumber": "2", "addr:postcode": "8001", "addr:street": "Bleicherweg"}}, {"type": "node", "id": 3340272377, "lat": 47.3704663, "lon": 8.5388536, "tags": {"addr:city": "Z\u00fcrich", "addr:country": "CH", "addr:housenumber": "27", "addr:postcode": "8001", "addr:street": "Bahnhofstrasse"}}, {"type": "node", "id": 3340272379, "lat": 47.3703713, "lon": 8.5382253, "tags": {"addr:city": "Z\u00fcrich", "addr:country": "CH", "addr:housenumber": "5", "addr:postcode": "8001", "addr:street": "B\u00e4rengasse"}}, {"type": "node", "id": 3340272380, "lat": 47.3698694, "lon": 8.5386807, "tags": {"addr:city": "Z\u00fcrich", "addr:country": "CH", "addr:housenumber": "8", "addr:place": "Paradeplatz", "addr:postcode": "8001"}}, {"type": "node", "id": 3340272381, "lat": 47.3701974, "lon": 8.5379152, "tags": {"addr:city": "Z\u00fcrich", "addr:country": "CH", "addr:housenumber": "9", "addr:postcode": "8001", "addr:street": "B\u00e4rengasse"}}, {"type": "node", "id": 3340272382, "lat": 47.3697221, "lon": 8.5370591}, {"type": "node", "id": 3340272383, "lat": 47.3697342, "lon": 8.5376893}, {"type": "node", "id": 3340272384, "lat": 47.3697487, "lon": 8.5377152}, {"type": "node", "id": 3340272385, "lat": 47.3697633, "lon": 8.5376487}, {"type": "node", "id": 3340272386, "lat": 47.3697803, "lon": 8.5376712}, {"type": "node", "id": 3340273795, "lat": 47.370254, "lon": 8.5376991}, {"type": "node", "id": 3340273799, "lat": 47.3705868, "lon": 8.5380169}, {"type": "node", "id": 3340273800, "lat": 47.3705935, "lon": 8.5380104}, {"type": "node", "id": 3340273801, "lat": 47.370606, "lon": 8.5372142}, {"type": "node", "id": 3340273803, "lat": 47.3706179, "lon": 8.5380639}, {"type": "node", "id": 3340273805, "lat": 47.3706282, "lon": 8.5372546}, {"type": "node", "id": 3340273806, "lat": 47.3706665, "lon": 8.5381666}, {"type": "node", "id": 3340273807, "lat": 47.3706136, "lon": 8.5375576}, {"type": "node", "id": 3340273808, "lat": 47.3704562, "lon": 8.537777}, {"type": "node", "id": 3340273809, "lat": 47.3707244, "lon": 8.5377996}, {"type": "node", "id": 3340273810, "lat": 47.370737, "lon": 8.5378662}, {"type": "node", "id": 3340273812, "lat": 47.3707481, "lon": 8.5378509}, {"type": "node", "id": 3340273813, "lat": 47.3707525, "lon": 8.5379012}, {"type": "node", "id": 3340273814, "lat": 47.3707865, "lon": 8.5379383}, {"type": "node", "id": 3340273815, "lat": 47.3707954, "lon": 8.5379839}, {"type": "node", "id": 3340273817, "lat": 47.3708878, "lon": 8.5378203}, {"type": "node", "id": 3340359635, "lat": 47.3715287, "lon": 8.536897, "tags": {"addr:city": "Z\u00fcrich", "addr:country": "CH", "addr:housenumber": "11", "addr:postcode": "8001", "addr:street": "N\u00fcschelerstrasse"}}, {"type": "node", "id": 3340359637, "lat": 47.3699675, "lon": 8.5372509, "tags": {"addr:city": "Z\u00fcrich", "addr:country": "CH", "addr:housenumber": "16", "addr:postcode": "8001", "addr:street": "B\u00e4rengasse"}}, {"type": "node", "id": 3340359638, "lat": 47.3715786, "lon": 8.5366032, "tags": {"addr:city": "Z\u00fcrich", "addr:country": "CH", "addr:housenumber": "19", "addr:postcode": "8001", "addr:street": "Pelikanstrasse"}}, {"type": "node", "id": 3340359639, "lat": 47.3708947, "lon": 8.5355978, "tags": {"addr:city": "Z\u00fcrich", "addr:country": "CH", "addr:housenumber": "37", "addr:postcode": "8001", "addr:street": "Pelikanstrasse"}}, {"type": "node", "id": 3340359640, "lat": 47.3699619, "lon": 8.5366874, "tags": {"addr:city": "Z\u00fcrich", "addr:country": "CH", "addr:housenumber": "40", "addr:postcode": "8001", "addr:street": "Talstrasse"}}, {"type": "node", "id": 3340359641, "lat": 47.3714188, "lon": 8.5379073, "tags": {"addr:city": "Z\u00fcrich", "addr:country": "CH", "addr:housenumber": "41", "addr:postcode": "8001", "addr:street": "Bahnhofstrasse"}}, {"type": "node", "id": 3340359642, "lat": 47.3703496, "lon": 8.5360792, "tags": {"addr:city": "Z\u00fcrich", "addr:country": "CH", "addr:housenumber": "58", "addr:postcode": "8001", "addr:street": "Talstrasse"}}, {"type": "node", "id": 3340359643, "lat": 47.3712767, "lon": 8.5375229, "tags": {"addr:city": "Z\u00fcrich", "addr:country": "CH", "addr:housenumber": "6", "addr:postcode": "8001", "addr:street": "N\u00fcschelerstrasse"}}, {"type": "node", "id": 3340359644, "lat": 47.3705451, "lon": 8.5357687, "tags": {"addr:city": "Z\u00fcrich", "addr:country": "CH", "addr:housenumber": "62", "addr:postcode": "8001", "addr:street": "Talstrasse"}}, {"type": "node", "id": 3340359645, "lat": 47.3698111, "lon": 8.5369462}, {"type": "node", "id": 3340359646, "lat": 47.3698154, "lon": 8.5369155}, {"type": "node", "id": 3340359647, "lat": 47.369913, "lon": 8.5371211}, {"type": "node", "id": 3340359648, "lat": 47.3701265, "lon": 8.536395}, {"type": "node", "id": 3340359649, "lat": 47.3701189, "lon": 8.5375242}, {"type": "node", "id": 3340359650, "lat": 47.3701402, "lon": 8.5364058}, {"type": "node", "id": 3340359651, "lat": 47.3701405, "lon": 8.5375398}, {"type": "node", "id": 3340359652, "lat": 47.3701513, "lon": 8.5364205}, {"type": "node", "id": 3340359653, "lat": 47.3701605, "lon": 8.5363868}, {"type": "node", "id": 3340359654, "lat": 47.3701633, "lon": 8.5363714}, {"type": "node", "id": 3340359655, "lat": 47.3702755, "lon": 8.5367653}, {"type": "node", "id": 3340359656, "lat": 47.3702935, "lon": 8.5367359}, {"type": "node", "id": 3340359657, "lat": 47.3702904, "lon": 8.5358035}, {"type": "node", "id": 3340359658, "lat": 47.3703196, "lon": 8.536559}, {"type": "node", "id": 3340359659, "lat": 47.3703444, "lon": 8.5364252}, {"type": "node", "id": 3340359660, "lat": 47.3703452, "lon": 8.5364086}, {"type": "node", "id": 3340359661, "lat": 47.3703508, "lon": 8.5364394}, {"type": "node", "id": 3340359662, "lat": 47.3703719, "lon": 8.5364792}, {"type": "node", "id": 3340359663, "lat": 47.3704179, "lon": 8.5365494}, {"type": "node", "id": 3340359664, "lat": 47.3707082, "lon": 8.5370691}, {"type": "node", "id": 3340359665, "lat": 47.3707481, "lon": 8.5355209}, {"type": "node", "id": 3340359666, "lat": 47.3707774, "lon": 8.5357255}, {"type": "node", "id": 3340359667, "lat": 47.3707918, "lon": 8.5357717}, {"type": "node", "id": 3340359668, "lat": 47.3707966, "lon": 8.5354493}, {"type": "node", "id": 3340359669, "lat": 47.3707994, "lon": 8.5357592}, {"type": "node", "id": 3340359670, "lat": 47.3707998, "lon": 8.5362868}, {"type": "node", "id": 3340359671, "lat": 47.3708283, "lon": 8.5363294}, {"type": "node", "id": 3340359672, "lat": 47.3708421, "lon": 8.5373621}, {"type": "node", "id": 3340359673, "lat": 47.3708431, "lon": 8.5363483}, {"type": "node", "id": 3340359674, "lat": 47.3708775, "lon": 8.5359112}, {"type": "node", "id": 3340359675, "lat": 47.3708815, "lon": 8.5359065}, {"type": "node", "id": 3340359676, "lat": 47.3708864, "lon": 8.5371055}, {"type": "node", "id": 3340359677, "lat": 47.3708892, "lon": 8.5368217}, {"type": "node", "id": 3340359678, "lat": 47.3708931, "lon": 8.535955}, {"type": "node", "id": 3340359679, "lat": 47.3708959, "lon": 8.5360018}, {"type": "node", "id": 3340359680, "lat": 47.3709548, "lon": 8.5372504}, {"type": "node", "id": 3340359681, "lat": 47.3709604, "lon": 8.5376136}, {"type": "node", "id": 3340359682, "lat": 47.3709839, "lon": 8.5369707}, {"type": "node", "id": 3340359683, "lat": 47.370989, "lon": 8.5373257}, {"type": "node", "id": 3340359684, "lat": 47.3709933, "lon": 8.5358113}, {"type": "node", "id": 3340359685, "lat": 47.3709957, "lon": 8.5373141}, {"type": "node", "id": 3340359686, "lat": 47.3710058, "lon": 8.5376186}, {"type": "node", "id": 3340359687, "lat": 47.3710119, "lon": 8.5373182}, {"type": "node", "id": 3340359688, "lat": 47.3710136, "lon": 8.5369822}, {"type": "node", "id": 3340359689, "lat": 47.3710161, "lon": 8.5358793}, {"type": "node", "id": 3340359690, "lat": 47.3710165, "lon": 8.5357776}, {"type": "node", "id": 3340359691, "lat": 47.3710181, "lon": 8.5363667}, {"type": "node", "id": 3340359692, "lat": 47.3710192, "lon": 8.5373281}, {"type": "node", "id": 3340360093, "lat": 47.3710284, "lon": 8.5369089}, {"type": "node", "id": 3340360094, "lat": 47.3710293, "lon": 8.5372851}, {"type": "node", "id": 3340360095, "lat": 47.3710388, "lon": 8.5373008}, {"type": "node", "id": 3340360096, "lat": 47.3710461, "lon": 8.5369384}, {"type": "node", "id": 3340360097, "lat": 47.3710613, "lon": 8.5372404}, {"type": "node", "id": 3340360098, "lat": 47.3710616, "lon": 8.5368628}, {"type": "node", "id": 3340360099, "lat": 47.3710714, "lon": 8.5372562}, {"type": "node", "id": 3340360100, "lat": 47.3710786, "lon": 8.5368904}, {"type": "node", "id": 3340360101, "lat": 47.3711156, "lon": 8.5371428}, {"type": "node", "id": 3340360102, "lat": 47.3711201, "lon": 8.5365006}, {"type": "node", "id": 3340360103, "lat": 47.3711226, "lon": 8.5371856}, {"type": "node", "id": 3340360104, "lat": 47.3711481, "lon": 8.5370973}, {"type": "node", "id": 3340360106, "lat": 47.3711655, "lon": 8.5371254}, {"type": "node", "id": 3340360107, "lat": 47.3711806, "lon": 8.5370526}, {"type": "node", "id": 3340360109, "lat": 47.371189, "lon": 8.536686}, {"type": "node", "id": 3340360110, "lat": 47.3711988, "lon": 8.5370786}, {"type": "node", "id": 3340360111, "lat": 47.3712098, "lon": 8.5367067}, {"type": "node", "id": 3340360112, "lat": 47.3712165, "lon": 8.5370278}, {"type": "node", "id": 3340360113, "lat": 47.3712166, "lon": 8.5373314}, {"type": "node", "id": 3340360114, "lat": 47.3712253, "lon": 8.5370414}, {"type": "node", "id": 3340360115, "lat": 47.3712339, "lon": 8.5367232}, {"type": "node", "id": 3340360118, "lat": 47.3712507, "lon": 8.5369798}, {"type": "node", "id": 3340360120, "lat": 47.3712602, "lon": 8.5369946}, {"type": "node", "id": 3340360121, "lat": 47.3712613, "lon": 8.5367514}, {"type": "node", "id": 3340360122, "lat": 47.3712636, "lon": 8.5369359}, {"type": "node", "id": 3340360123, "lat": 47.3712821, "lon": 8.5367811}, {"type": "node", "id": 3340360124, "lat": 47.3712823, "lon": 8.5369636}, {"type": "node", "id": 3340360125, "lat": 47.3712832, "lon": 8.5369069}, {"type": "node", "id": 3340360127, "lat": 47.3713011, "lon": 8.5368234}, {"type": "node", "id": 3340360128, "lat": 47.3713033, "lon": 8.5369341}, {"type": "node", "id": 3340360129, "lat": 47.3713118, "lon": 8.536868}, {"type": "node", "id": 3340360133, "lat": 47.3713615, "lon": 8.5368523}, {"type": "node", "id": 3340360134, "lat": 47.3713619, "lon": 8.5366851}, {"type": "node", "id": 3340360135, "lat": 47.3713628, "lon": 8.5365031}, {"type": "node", "id": 3340360140, "lat": 47.3714547, "lon": 8.5369969}, {"type": "node", "id": 3340360142, "lat": 47.3715135, "lon": 8.5365039}, {"type": "node", "id": 3340360144, "lat": 47.3716559, "lon": 8.5367216}, {"type": "node", "id": 3344237837, "lat": 47.3719615, "lon": 8.5368935, "tags": {"addr:city": "Z\u00fcrich", "addr:country": "CH", "addr:housenumber": "10", "addr:postcode": "8001", "addr:street": "Pelikanstrasse"}}, {"type": "node", "id": 3344237838, "lat": 47.3718153, "lon": 8.5370184, "tags": {"addr:city": "Z\u00fcrich", "addr:country": "CH", "addr:housenumber": "11", "addr:postcode": "8001", "addr:street": "Pelikanstrasse"}}, {"type": "node", "id": 3344237839, "lat": 47.3719047, "lon": 8.5366495, "tags": {"addr:city": "Z\u00fcrich", "addr:country": "CH", "addr:housenumber": "22", "addr:postcode": "8001", "addr:street": "N\u00fcschelerstrasse"}}, {"type": "node", "id": 3344237840, "lat": 47.3720352, "lon": 8.5364714, "tags": {"addr:city": "Z\u00fcrich", "addr:country": "CH", "addr:housenumber": "24", "addr:postcode": "8001", "addr:street": "N\u00fcschelerstrasse"}}, {"type": "node", "id": 3344237841, "lat": 47.3721567, "lon": 8.536303, "tags": {"addr:city": "Z\u00fcrich", "addr:country": "CH", "addr:housenumber": "26", "addr:postcode": "8001", "addr:street": "N\u00fcschelerstrasse"}}, {"type": "node", "id": 3344237842, "lat": 47.3729614, "lon": 8.5365218, "tags": {"addr:city": "Z\u00fcrich", "addr:country": "CH", "addr:housenumber": "31", "addr:postcode": "8001", "addr:street": "Sihlstrasse"}}, {"type": "node", "id": 3344237843, "lat": 47.3729132, "lon": 8.5363448, "tags": {"addr:city": "Z\u00fcrich", "addr:country": "CH", "addr:housenumber": "33", "addr:postcode": "8001", "addr:street": "Sihlstrasse"}}, {"type": "node", "id": 3344237844, "lat": 47.3720255, "lon": 8.5373293, "tags": {"addr:city": "Z\u00fcrich", "addr:country": "CH", "addr:housenumber": "9a", "addr:postcode": "8001", "addr:street": "Pelikanstrasse"}}, {"type": "node", "id": 3344237845, "lat": 47.3716274, "lon": 8.5375951}, {"type": "node", "id": 3344237846, "lat": 47.371663, "lon": 8.5375797}, {"type": "node", "id": 3344237847, "lat": 47.3716681, "lon": 8.5376119}, {"type": "node", "id": 3344237848, "lat": 47.3717072, "lon": 8.538099}, {"type": "node", "id": 3344237849, "lat": 47.3717119, "lon": 8.5380973}, {"type": "node", "id": 3344237850, "lat": 47.3718139, "lon": 8.5375155}, {"type": "node", "id": 3344237851, "lat": 47.3718498, "lon": 8.5375001}, {"type": "node", "id": 3344237852, "lat": 47.3718549, "lon": 8.5375229}, {"type": "node", "id": 3344237853, "lat": 47.3718558, "lon": 8.5375327}, {"type": "node", "id": 3344237854, "lat": 47.3718773, "lon": 8.5374911}, {"type": "node", "id": 3344237855, "lat": 47.3718804, "lon": 8.5375136}, {"type": "node", "id": 3344237856, "lat": 47.3719247, "lon": 8.5374992}, {"type": "node", "id": 3344237857, "lat": 47.37203, "lon": 8.5374609}, {"type": "node", "id": 3344237858, "lat": 47.3720389, "lon": 8.5374781}, {"type": "node", "id": 3344237859, "lat": 47.3721166, "lon": 8.5367605}, {"type": "node", "id": 3344237860, "lat": 47.3721263, "lon": 8.5367465}, {"type": "node", "id": 3344237861, "lat": 47.3722142, "lon": 8.5362234}, {"type": "node", "id": 3344237863, "lat": 47.3723049, "lon": 8.5363662}, {"type": "node", "id": 3344237865, "lat": 47.3723317, "lon": 8.536407}, {"type": "node", "id": 3344237867, "lat": 47.3723957, "lon": 8.5362652}, {"type": "node", "id": 3344237868, "lat": 47.3724133, "lon": 8.5362925}, {"type": "node", "id": 3344237869, "lat": 47.3724519, "lon": 8.5358894}, {"type": "node", "id": 3344237870, "lat": 47.372474, "lon": 8.5361553}, {"type": "node", "id": 3344237871, "lat": 47.3724925, "lon": 8.536184}, {"type": "node", "id": 3344237872, "lat": 47.3725399, "lon": 8.5357667}, {"type": "node", "id": 3344237873, "lat": 47.372545, "lon": 8.5360342}, {"type": "node", "id": 3344237874, "lat": 47.3725708, "lon": 8.5360743}, {"type": "node", "id": 3344237875, "lat": 47.3725756, "lon": 8.5357351}, {"type": "node", "id": 3344237876, "lat": 47.3726136, "lon": 8.5359293}, {"type": "node", "id": 3344237877, "lat": 47.3726402, "lon": 8.5362237}, {"type": "node", "id": 3344237878, "lat": 47.3726443, "lon": 8.5359096}, {"type": "node", "id": 3344237879, "lat": 47.3726911, "lon": 8.536385}, {"type": "node", "id": 3344237880, "lat": 47.3727178, "lon": 8.5361789}, {"type": "node", "id": 3344237881, "lat": 47.3727245, "lon": 8.5356482}, {"type": "node", "id": 3344237882, "lat": 47.3727575, "lon": 8.535959}, {"type": "node", "id": 3344237883, "lat": 47.3727584, "lon": 8.536331}, {"type": "node", "id": 3344346794, "lat": 47.3719527, "lon": 8.5363125, "tags": {"addr:city": "Z\u00fcrich", "addr:country": "CH", "addr:housenumber": "15", "addr:postcode": "8001", "addr:street": "N\u00fcschelerstrasse"}}, {"type": "node", "id": 3344346795, "lat": 47.3723786, "lon": 8.5379643, "tags": {"addr:city": "Z\u00fcrich", "addr:country": "CH", "addr:housenumber": "2", "addr:postcode": "8001", "addr:street": "Pelikanstrasse"}}, {"type": "node", "id": 3344346796, "lat": 47.3716931, "lon": 8.535668, "tags": {"addr:city": "Z\u00fcrich", "addr:country": "CH", "addr:housenumber": "34", "addr:postcode": "8001", "addr:street": "Talacker"}}, {"type": "node", "id": 3344346797, "lat": 47.3725097, "lon": 8.5375268, "tags": {"addr:city": "Z\u00fcrich", "addr:country": "CH", "addr:housenumber": "4", "addr:postcode": "8001", "addr:street": "St. Annagasse"}}, {"type": "node", "id": 3344346798, "lat": 47.3726182, "lon": 8.5381436, "tags": {"addr:city": "Z\u00fcrich", "addr:country": "CH", "addr:housenumber": "53", "addr:postcode": "8001", "addr:street": "Bahnhofstrasse"}}, {"type": "node", "id": 3344346799, "lat": 47.3727995, "lon": 8.5377191, "tags": {"addr:city": "Z\u00fcrich", "addr:country": "CH", "addr:housenumber": "55", "addr:postcode": "8001", "addr:street": "Bahnhofstrasse"}}, {"type": "node", "id": 3344346801, "lat": 47.3717645, "lon": 8.535844}, {"type": "node", "id": 3344346802, "lat": 47.3717693, "lon": 8.5365604}, {"type": "node", "id": 3344346803, "lat": 47.3718043, "lon": 8.5359013}, {"type": "node", "id": 3344346805, "lat": 47.3718393, "lon": 8.5358521}, {"type": "node", "id": 3344346807, "lat": 47.371873, "lon": 8.5359055}, {"type": "node", "id": 3344346808, "lat": 47.3719006, "lon": 8.5356937}, {"type": "node", "id": 3344346809, "lat": 47.3719511, "lon": 8.535613}, {"type": "node", "id": 3344346810, "lat": 47.371988, "lon": 8.5358601}, {"type": "node", "id": 3344346811, "lat": 47.3719702, "lon": 8.5357369}, {"type": "node", "id": 3344346812, "lat": 47.3719827, "lon": 8.5357174}, {"type": "node", "id": 3344346814, "lat": 47.3719984, "lon": 8.5358519}, {"type": "node", "id": 3344346819, "lat": 47.3723563, "lon": 8.5354667}, {"type": "node", "id": 3344346822, "lat": 47.372514, "lon": 8.5355557}, {"type": "node", "id": 4295330499, "lat": 47.3701697, "lon": 8.5387365}, {"type": "node", "id": 4295330500, "lat": 47.3699644, "lon": 8.5384084}, {"type": "node", "id": 4295330501, "lat": 47.3699717, "lon": 8.5384486}, {"type": "node", "id": 4295330502, "lat": 47.3700098, "lon": 8.5385085}, {"type": "node", "id": 4295330503, "lat": 47.3699953, "lon": 8.5384594}, {"type": "node", "id": 4295330504, "lat": 47.3701697, "lon": 8.5387517}, {"type": "node", "id": 4295330505, "lat": 47.3704446, "lon": 8.5386498}, {"type": "node", "id": 4295330506, "lat": 47.3699693, "lon": 8.5383744}, {"type": "node", "id": 4295330507, "lat": 47.3700305, "lon": 8.538656}, {"type": "node", "id": 4295330508, "lat": 47.3700759, "lon": 8.5387249}, {"type": "node", "id": 4295330509, "lat": 47.3701485, "lon": 8.5381348}, {"type": "node", "id": 4295330510, "lat": 47.3700613, "lon": 8.5387687}, {"type": "node", "id": 4295330511, "lat": 47.3700014, "lon": 8.5385506}, {"type": "node", "id": 4295330512, "lat": 47.3700625, "lon": 8.5386713}, {"type": "node", "id": 4295340062, "lat": 47.3693408, "lon": 8.5379357}, {"type": "node", "id": 4295340063, "lat": 47.3694595, "lon": 8.5381082}, {"type": "node", "id": 4295340064, "lat": 47.3695744, "lon": 8.5379358}, {"type": "node", "id": 4295340065, "lat": 47.3694557, "lon": 8.5377633}, {"type": "node", "id": 4295396165, "lat": 47.3705875, "lon": 8.5386056}, {"type": "node", "id": 4295396166, "lat": 47.3706241, "lon": 8.5379433}, {"type": "node", "id": 4295396168, "lat": 47.3701817, "lon": 8.5378881}, {"type": "node", "id": 4295396170, "lat": 47.3708166, "lon": 8.538114}, {"type": "node", "id": 4295396172, "lat": 47.3705321, "lon": 8.5377841}, {"type": "node", "id": 4295396174, "lat": 47.3703206, "lon": 8.5378169}, {"type": "node", "id": 4295396177, "lat": 47.3702901, "lon": 8.5377629}, {"type": "node", "id": 4295396180, "lat": 47.3707064, "lon": 8.5378574}, {"type": "node", "id": 4295396181, "lat": 47.3706119, "lon": 8.5376553}, {"type": "node", "id": 4295396182, "lat": 47.3705725, "lon": 8.5385793}, {"type": "node", "id": 4295396183, "lat": 47.3702129, "lon": 8.5379428}, {"type": "node", "id": 5777113793, "lat": 47.3719352, "lon": 8.5357552}, {"type": "node", "id": 5777113794, "lat": 47.3719477, "lon": 8.5358021}, {"type": "node", "id": 5777113795, "lat": 47.371786, "lon": 8.5358122}, {"type": "node", "id": 5777113796, "lat": 47.3717919, "lon": 8.5358186}, {"type": "node", "id": 5777113799, "lat": 47.3718017, "lon": 8.5355125}, {"type": "node", "id": 5777113802, "lat": 47.3721134, "lon": 8.5360866}, {"type": "node", "id": 5777113803, "lat": 47.3721072, "lon": 8.5360636}, {"type": "node", "id": 5777113804, "lat": 47.3721188, "lon": 8.5360799}, {"type": "node", "id": 5777113805, "lat": 47.3724785, "lon": 8.5355883}, {"type": "node", "id": 5777113806, "lat": 47.3724118, "lon": 8.5354056}, {"type": "node", "id": 7781215709, "lat": 47.3702838, "lon": 8.5358148}, {"type": "node", "id": 7781215710, "lat": 47.3702869, "lon": 8.5358198}, {"type": "node", "id": 7781215711, "lat": 47.3701978, "lon": 8.5356792}, {"type": "node", "id": 7781215717, "lat": 47.3702011, "lon": 8.5356691}, {"type": "node", "id": 9665793658, "lat": 47.371673, "lon": 8.5369787}, {"type": "node", "id": 9665793659, "lat": 47.3715767, "lon": 8.5368309}, {"type": "node", "id": 9665793660, "lat": 47.3715979, "lon": 8.5368016}, {"type": "node", "id": 9665793661, "lat": 47.3716943, "lon": 8.5369501}, {"type": "node", "id": 9702329022, "lat": 47.3716666, "lon": 8.5364483, "tags": {"addr:city": "Z\u00fcrich", "addr:country": "CH", "addr:housenumber": "18", "addr:postcode": "8001", "addr:street": "Pelikanstrasse"}}, {"type": "node", "id": 9702329023, "lat": 47.3719307, "lon": 8.5357608}, {"type": "node", "id": 9702329024, "lat": 47.3719421, "lon": 8.5357825}, {"type": "node", "id": 9706102311, "lat": 47.3716939, "lon": 8.537195, "tags": {"access": "private", "amenity": "parking_entrance", "parking": "underground"}}, {"type": "node", "id": 9706102312, "lat": 47.3716054, "lon": 8.5370638}, {"type": "node", "id": 9706166194, "lat": 47.3718736, "lon": 8.535701}, {"type": "node", "id": 9706166195, "lat": 47.3717808, "lon": 8.5355425}, {"type": "node", "id": 9706185917, "lat": 47.3715223, "lon": 8.5374317}, {"type": "node", "id": 9706185918, "lat": 47.3714393, "lon": 8.5372934}, {"type": "node", "id": 9706185920, "lat": 47.3708928, "lon": 8.5378488}, {"type": "node", "id": 9706185945, "lat": 47.372556, "lon": 8.5360188}, {"type": "node", "id": 9706185946, "lat": 47.3724643, "lon": 8.5358721}, {"type": "node", "id": 9706185949, "lat": 47.3726147, "lon": 8.5359362}, {"type": "node", "id": 9706185961, "lat": 47.3724346, "lon": 8.5353852}, {"type": "node", "id": 9706185964, "lat": 47.3724881, "lon": 8.5355795}, {"type": "node", "id": 9706185966, "lat": 47.372462, "lon": 8.5353613}, {"type": "node", "id": 9706185967, "lat": 47.3724974, "lon": 8.5355121}, {"type": "node", "id": 9706185968, "lat": 47.3723779, "lon": 8.5354405}, {"type": "node", "id": 9706185972, "lat": 47.3721374, "lon": 8.5360536}, {"type": "node", "id": 9706185973, "lat": 47.3720477, "lon": 8.5358951}, {"type": "node", "id": 9706186019, "lat": 47.3708262, "lon": 8.5373274}, {"type": "node", "id": 9706186021, "lat": 47.370938, "lon": 8.5372148}, {"type": "node", "id": 9706186027, "lat": 47.3702807, "lon": 8.5373517}, {"type": "node", "id": 9706186028, "lat": 47.3702842, "lon": 8.53734}, {"type": "node", "id": 9706186031, "lat": 47.3698112, "lon": 8.53693}, {"type": "node", "id": 9706186032, "lat": 47.3698151, "lon": 8.5369602}, {"type": "node", "id": 9706186033, "lat": 47.3699454, "lon": 8.5367135}, {"type": "node", "id": 9706186034, "lat": 47.3701285, "lon": 8.5375353}, {"type": "node", "id": 9706186035, "lat": 47.370151, "lon": 8.5375377}, {"type": "node", "id": 9706186135, "lat": 47.3716427, "lon": 8.5367398}, {"type": "node", "id": 9706186136, "lat": 47.3714893, "lon": 8.5365038}, {"type": "node", "id": 9706186162, "lat": 47.3709985, "lon": 8.5369504}, {"type": "node", "id": 9706186163, "lat": 47.3709052, "lon": 8.5367994}, {"type": "node", "id": 10716770158, "lat": 47.3725774, "lon": 8.5374298}, {"type": "node", "id": 10716770166, "lat": 47.3725628, "lon": 8.5374506}, {"type": "node", "id": 10716770167, "lat": 47.3725924, "lon": 8.5374081}, {"type": "node", "id": 10716770170, "lat": 47.3726818, "lon": 8.5375526, "tags": {"access": "private", "barrier": "gate"}}, {"type": "node", "id": 10716770172, "lat": 47.3726822, "lon": 8.5375782}, {"type": "node", "id": 10716770174, "lat": 47.3726813, "lon": 8.5375262}, {"type": "node", "id": 10716791710, "lat": 47.3727834, "lon": 8.5376656}, {"type": "node", "id": 10716791711, "lat": 47.3727356, "lon": 8.537599}, {"type": "node", "id": 10716791712, "lat": 47.3727882, "lon": 8.5377695}, {"type": "node", "id": 10716791713, "lat": 47.37279, "lon": 8.5378815}, {"type": "node", "id": 10716791714, "lat": 47.3728003, "lon": 8.5377691}, {"type": "way", "id": 31916983, "nodes": [357501055, 1042029227, 1042029267, 3340359640, 9706186033, 3340359646, 9706186031, 3340359645, 9706186032, 357501056, 357501058, 3340359647, 357501061, 3340359637, 3340359649, 9706186034, 3340359651, 9706186035, 357501062, 1042029203, 9706186027, 9706186028, 1042029254, 1042029275, 1042029313, 357501063, 361475948, 3340359655, 3340359656, 357501065, 3340359658, 3340359662, 3340359661, 3340359659, 3340359660, 361476041, 361476040, 3340359654, 3340359653, 357501068, 3340359652, 3340359650, 3340359648, 357501055], "tags": {"addr:city": "Z\u00fcrich", "addr:country": "CH", "addr:postcode": "8001", "building": "commercial", "building:levels": "5", "source": "Stadt Z\u00fcrich Open Government Data; Geomatik + Vermessung; Tiefbau- und Entsorgungsdepartement"}}, {"type": "way", "id": 31967842, "nodes": [358133820, 358133821, 3340272380, 26888817, 1115159293, 300837805, 3340272377, 358133825, 1037402761, 4295396165, 4295396182, 3340272379, 4295396183, 3340272381, 4295396168, 358133820], "tags": {"source": "Stadt Z\u00fcrich Open Government Data; Geomatik + Vermessung; Tiefbau- und Entsorgungsdepartement"}}, {"type": "way", "id": 31967846, "nodes": [3340272374, 358133927, 1929709427, 1042029187, 1115159533, 358133925, 3340272376, 358133923, 3340272382, 3340272374]}, {"type": "way", "id": 31967859, "nodes": [358134202, 358134204, 358134206, 3340272384, 3340272383, 3340272385, 3340272386, 358134208, 358134202]}, {"type": "way", "id": 31968366, "nodes": [358143680, 9702329022, 358143682, 358143684, 3344346796, 9706166195, 5777113799, 358143685, 937612912, 9706166194, 5777113796, 5777113795, 3344346801, 3344346803, 3344346805, 3344346807, 5777113794, 9702329024, 9702329023, 5777113793, 3344346810, 937612857, 358143688, 5777113802, 3344346794, 3344346802, 358143680], "tags": {"addr:city": "Z\u00fcrich", "addr:country": "CH", "addr:postcode": "8001", "addr:street": "Pelikanplatz", "building": "yes", "building:levels": "6", "name": "Kaufleuten", "source": "Stadt Z\u00fcrich Open Government Data;Geomatik + Vermessung;Tiefbau- und Entsorgungsdepartement", "website": "https://kaufleuten.ch/", "wikidata": "Q60635988"}}, {"type": "way", "id": 32233998, "nodes": [361475947, 361475948, 357501063, 361475949, 361475950, 361475947], "tags": {"addr:city": "Z\u00fcrich", "addr:country": "CH", "addr:housenumber": "21", "addr:postcode": "8001", "addr:street": "Talacker", "building": "commercial", "building:levels": "6", "owner": "Swiss Prime Site (SPS)", "source": "Stadt Z\u00fcrich Open Government Data; Geomatik + Vermessung; Tiefbau- und Entsorgungsdepartement", "start_date": "1965"}}, {"type": "way", "id": 59650551, "nodes": [739967526, 3251866831, 3344237844, 3344237838, 739967524, 9665793661, 9665793658, 921512216, 739967536, 739967532, 3344237856, 3344237857, 3344237858, 739967526], "tags": {"building": "office", "building:levels": "6", "owner": "UBS"}}, {"type": "way", "id": 78532956, "nodes": [361476048, 3340359689, 3340359684, 3340359690, 3340359639, 3340359668, 3340359665, 361476049, 2309829496, 921512197, 361476042, 3340359666, 3340359669, 3340359667, 3340359675, 3340359674, 3340359678, 921511994, 361476048], "tags": {"addr:city": "Z\u00fcrich", "addr:country": "CH", "addr:postcode": "8001", "building": "apartments", "building:levels": "4", "source": "Stadt Z\u00fcrich Open Government Data; Geomatik + Vermessung; Tiefbau- und Entsorgungsdepartement"}}, {"type": "way", "id": 78532958, "nodes": [921512197, 3340359644, 3340359642, 361476040, 361476041, 361476042, 921512197], "tags": {"addr:city": "Z\u00fcrich", "addr:country": "CH", "addr:postcode": "8001", "building": "commercial", "building:levels": "6", "source": "Stadt Z\u00fcrich Open Government Data; Geomatik + Vermessung; Tiefbau- und Entsorgungsdepartement"}}, {"type": "way", "id": 78532960, "nodes": [1043021799, 1043022466, 3340359679, 921512119, 921512050, 361476047, 361476044, 1043021639, 1043022652, 1043021799], "tags": {"addr:city": "Z\u00fcrich", "addr:country": "CH", "addr:housenumber": "5", "addr:postcode": "8001", "addr:street": "Pelikanplatz", "building": "yes", "source": "Stadt Z\u00fcrich Open Government Data; Geomatik + Vermessung; Tiefbau- und Entsorgungsdepartement"}}, {"type": "way", "id": 78532964, "nodes": [739966956, 9706185917, 9706102311, 739967536, 921512216, 9706102312, 9706185918, 921512082, 739966956], "tags": {"addr:city": "Z\u00fcrich", "addr:country": "CH", "addr:housenumber": "10", "addr:postcode": "8001", "addr:street": "N\u00fcschelerstrasse", "building": "office", "building:levels": "6", "owner": "UBS", "source": "Stadt Z\u00fcrich Open Government Data; Geomatik + Vermessung; Tiefbau- und Entsorgungsdepartement"}}, {"type": "way", "id": 78532965, "nodes": [921512082, 3340359643, 739966940, 921512135, 921512261, 1041912348, 1041911785, 1041911454, 739967531, 3340359641, 1041912633, 921512228, 3251866819, 1041912168, 3251866818, 921511955, 739966956, 921512082], "tags": {"addr:city": "Z\u00fcrich", "addr:country": "CH", "addr:postcode": "8001", "building": "commercial", "building:levels": "4", "owner": "UBS", "roof:levels": "1", "roof:shape": "onion", "source": "Stadt Z\u00fcrich Open Government Data; Geomatik + Vermessung; Tiefbau- und Entsorgungsdepartement"}}, {"type": "way", "id": 78532966, "nodes": [921512135, 739966940, 1041912153, 1041912720, 921512086, 921512017, 921512038, 1041911763, 1041912966, 1041912610, 1041911955, 1041911544, 1041912746, 921511977, 921512135], "tags": {"building": "office", "building:levels": "4", "roof:levels": "1", "roof:shape": "gabled"}}, {"type": "way", "id": 78532972, "nodes": [921512050, 361476048, 921511994, 921512119, 921512050], "tags": {"building": "retail"}}, {"type": "way", "id": 78532973, "nodes": [361476047, 361476044, 3340359673, 3340359671, 361476045, 361476046, 3340359691, 361476047], "tags": {"addr:city": "Z\u00fcrich", "addr:country": "CH", "addr:housenumber": "29", "addr:postcode": "8001", "addr:street": "Talacker", "building": "office", "building:levels": "3", "roof:levels": "2", "roof:shape": "gabled", "source": "Stadt Z\u00fcrich Open Government Data; Geomatik + Vermessung; Tiefbau- und Entsorgungsdepartement"}}, {"type": "way", "id": 80340628, "nodes": [358143688, 5777113803, 5777113804, 9706185972, 937612886, 5777113805, 9706185964, 3344346822, 9706185967, 9706185966, 937612905, 9706185961, 5777113806, 9706185968, 3344346819, 9706185973, 937612857, 358143688], "tags": {"addr:city": "Z\u00fcrich", "addr:country": "CH", "addr:housenumber": "31", "addr:postcode": "8001", "addr:street": "N\u00fcschelerstrasse", "building": "yes", "source": "Stadt Z\u00fcrich Open Government Data; Geomatik + Vermessung; Tiefbau- und Entsorgungsdepartement"}}, {"type": "way", "id": 80340829, "nodes": [937615534, 3344237837, 937615518, 3344237839, 937615536, 937615540, 3344237859, 3344237860, 937615538, 937615534], "tags": {"addr:city": "Z\u00fcrich", "addr:country": "CH", "addr:postcode": "8001", "building": "commercial", "building:levels": "5", "name": "Zum Neuen Froschauer", "source": "Stadt Z\u00fcrich Open Government Data; Geomatik + Vermessung; Tiefbau- und Entsorgungsdepartement"}}, {"type": "way", "id": 80340832, "nodes": [937615533, 937615523, 937615525, 937615510, 3251866849, 3251866847, 937615516, 937615535, 937615515, 937615513, 937615532, 937615533], "tags": {"addr:city": "Z\u00fcrich", "addr:country": "CH", "addr:housenumber": "9", "addr:postcode": "8001", "addr:street": "St. Annagasse", "building": "yes", "source": "Stadt Z\u00fcrich Open Government Data; Geomatik + Vermessung; Tiefbau- und Entsorgungsdepartement"}}, {"type": "way", "id": 80340833, "nodes": [937615529, 3251866834, 3251866835, 3251866836, 3251866837, 3251866841, 3251866840, 3251866842, 3251866843, 937615526, 937615528, 3251866850, 3251866848, 937615514, 937615529], "tags": {"addr:city": "Z\u00fcrich", "addr:country": "CH", "addr:postcode": "8001", "building": "yes", "building:levels": "6", "source": "Stadt Z\u00fcrich Open Government Data; Geomatik + Vermessung; Tiefbau- und Entsorgungsdepartement"}}, {"type": "way", "id": 80340835, "nodes": [937615517, 3344237882, 937615527, 3251866812, 3344237843, 3344237842, 937615530, 937615519, 937615520, 937615539, 3344237883, 3344237879, 937615515, 937615535, 3344237877, 3344237880, 937615517], "tags": {"addr:city": "Z\u00fcrich", "addr:country": "CH", "addr:postcode": "8001", "building": "yes", "name": "Glockenhof", "source": "Stadt Z\u00fcrich Open Government Data;Geomatik + Vermessung;Tiefbau- und Entsorgungsdepartement", "tourism": "hotel", "website": "https://www.glockenhof.ch/"}}, {"type": "way", "id": 80359858, "nodes": [937801790, 3344346795, 937801780, 3344346798, 937801783, 937801745, 10716791713, 10716791712, 10716791714, 3344346799, 937801747, 10716791710, 10716791711, 937801734, 3251866857, 10716770172, 10716770170, 10716770174, 937801755, 937801742, 10716770167, 10716770158, 10716770166, 3344346797, 937801790], "tags": {"building": "commercial", "building:levels": "5", "note": "formerly Credit Suisse, now AXA", "old_name": "SVB Bahnhofstrasse", "owner": "AXA Winterthur", "roof:levels": "1", "survey:date": "2017-12-05"}}, {"type": "way", "id": 89976916, "nodes": [1043022124, 1043021769, 3336760531, 1043022597, 1043022521, 3336760530, 1043022124], "tags": {"building": "yes", "building:levels": "4", "source": "Bing"}}, {"type": "way", "id": 89976952, "nodes": [1043021530, 7781215717, 7781215711, 1043022228, 3340359657, 7781215709, 7781215710, 1043021535, 1043022534, 1043021530], "tags": {"addr:city": "Z\u00fcrich", "addr:country": "CH", "addr:housenumber": "59", "addr:postcode": "8001", "addr:street": "Talstrasse", "building": "yes", "building:levels": "15", "source": "Stadt Z\u00fcrich Open Government Data; Geomatik + Vermessung; Tiefbau- und Entsorgungsdepartement"}}, {"type": "way", "id": 326969823, "nodes": [3336760568, 3336760573, 3336760567, 3336760562, 3336760564, 3336760563, 3336760568], "tags": {"addr:city": "Z\u00fcrich", "addr:country": "CH", "addr:housenumber": "7", "addr:postcode": "8001", "addr:street": "Balderngasse", "building": "yes", "source": "Stadt Z\u00fcrich Open Government Data; Geomatik + Vermessung; Tiefbau- und Entsorgungsdepartement"}}, {"type": "way", "id": 326969824, "nodes": [3336760565, 3336760568, 3336760563, 3336760561, 3336760558, 3336760551, 3336760565], "tags": {"addr:city": "Z\u00fcrich", "addr:country": "CH", "addr:housenumber": "7", "addr:postcode": "8001", "addr:street": "Basteiplatz", "building": "yes", "source": "Stadt Z\u00fcrich Open Government Data; Geomatik + Vermessung; Tiefbau- und Entsorgungsdepartement"}}, {"type": "way", "id": 327295747, "nodes": [3340273803, 3340273813, 3340273810, 3340273812, 3340273809, 3340273807, 3340273808, 3340273800, 3340273799, 3340273803]}, {"type": "way", "id": 327295748, "nodes": [361476503, 3340272371, 4295396174, 4295396177, 3340273795, 3340272372, 3340273801, 3340273805, 3340272375, 3340272373, 3340273817, 3340273814, 3340273815, 3340273806, 361476502, 361476503]}, {"type": "way", "id": 327295749, "nodes": [3251897925, 4295396170, 3340273815, 3340273814, 3340273817, 9706185920, 3251897929, 3251897926, 3251897925], "tags": {"addr:city": "Z\u00fcrich", "addr:country": "CH", "addr:housenumber": "11", "addr:postcode": "8001", "addr:street": "St. Peterstrasse", "building": "yes", "owner": "Credit Suisse", "source": "Stadt Z\u00fcrich Open Government Data; Geomatik + Vermessung; Tiefbau- und Entsorgungsdepartement"}}, {"type": "way", "id": 327298864, "nodes": [3340360135, 9706186136, 3340360142, 3340359638, 3340360144, 9706186135, 9665793660, 9665793659, 3340359635, 3340360140, 3340360133, 3340360134, 3340360135], "tags": {"addr:city": "Z\u00fcrich", "addr:country": "CH", "addr:postcode": "8001", "building": "yes", "building:levels": "6", "source": "Stadt Z\u00fcrich Open Government Data; Geomatik + Vermessung; Tiefbau- und Entsorgungsdepartement"}}, {"type": "way", "id": 327298865, "nodes": [3340360113, 3340359686, 3340359681, 3340359672, 3340359680, 3340359683, 3340359685, 3340359687, 3340359692, 3340360095, 3340360094, 3340360097, 3340360099, 3340360103, 3340360113], "tags": {"addr:city": "Z\u00fcrich", "addr:country": "CH", "addr:housenumber": "1", "addr:postcode": "8001", "addr:street": "N\u00fcschelerstrasse", "building": "yes", "source": "Stadt Z\u00fcrich Open Government Data; Geomatik + Vermessung; Tiefbau- und Entsorgungsdepartement"}}, {"type": "way", "id": 327298866, "nodes": [3340359656, 3340359663, 3340359662, 3340359658, 357501065, 3340359656], "tags": {"addr:city": "Z\u00fcrich", "addr:country": "CH", "addr:housenumber": "23", "addr:postcode": "8001", "addr:street": "Talacker", "building": "yes", "source": "Stadt Z\u00fcrich Open Government Data; Geomatik + Vermessung; Tiefbau- und Entsorgungsdepartement"}}, {"type": "way", "id": 327298867, "nodes": [3340359672, 9706186019, 3340359664, 3340359677, 3340359682, 3340359676, 9706186021, 3340359680, 3340359672], "tags": {"addr:city": "Z\u00fcrich", "addr:country": "CH", "addr:housenumber": "24", "addr:postcode": "8001", "addr:street": "Talacker", "building": "office", "building:levels": "7", "source": "Stadt Z\u00fcrich Open Government Data; Geomatik + Vermessung; Tiefbau- und Entsorgungsdepartement"}}, {"type": "way", "id": 327298868, "nodes": [1043022652, 3340359670, 3340359671, 3340359673, 361476044, 1043021639, 1043022652], "tags": {"addr:city": "Z\u00fcrich", "addr:country": "CH", "addr:housenumber": "29a", "addr:postcode": "8001", "addr:street": "Talacker", "building": "yes", "source": "Stadt Z\u00fcrich Open Government Data; Geomatik + Vermessung; Tiefbau- und Entsorgungsdepartement"}}, {"type": "way", "id": 327298869, "nodes": [3340359677, 9706186163, 3340360102, 3340360135, 3340360134, 3340360109, 3340360098, 3340360093, 9706186162, 3340359682, 3340359677], "tags": {"addr:city": "Z\u00fcrich", "addr:country": "CH", "addr:housenumber": "30", "addr:postcode": "8001", "addr:street": "Talacker", "building": "office", "building:levels": "6", "source": "Stadt Z\u00fcrich Open Government Data; Geomatik + Vermessung; Tiefbau- und Entsorgungsdepartement"}}, {"type": "way", "id": 327298873, "nodes": [3340360101, 3340359688, 3340360096, 3340360093, 3340360098, 3340360100, 3340360111, 3340360115, 3340360121, 3340360123, 3340360127, 3340360129, 3340360125, 3340360128, 3340360124, 3340360122, 3340360107, 3340360110, 3340360106, 3340360104, 3340360101], "tags": {"addr:city": "Z\u00fcrich", "addr:country": "CH", "addr:housenumber": "7", "addr:postcode": "8001", "addr:street": "N\u00fcschelerstrasse", "building": "office", "source": "Stadt Z\u00fcrich Open Government Data; Geomatik + Vermessung; Tiefbau- und Entsorgungsdepartement"}}, {"type": "way", "id": 327298874, "nodes": [3340360140, 3340360113, 3340360103, 3340360106, 3340360110, 3340360114, 3340360112, 3340360118, 3340360120, 3340360124, 3340360128, 3340360133, 3340360140], "tags": {"addr:city": "Z\u00fcrich", "addr:country": "CH", "addr:housenumber": "9", "addr:postcode": "8001", "addr:street": "N\u00fcschelerstrasse", "building": "commercial", "building:levels": "4", "source": "Stadt Z\u00fcrich Open Government Data; Geomatik + Vermessung; Tiefbau- und Entsorgungsdepartement"}}, {"type": "way", "id": 327613478, "nodes": [739967526, 3344237858, 3344237857, 3344237856, 739967532, 3344237854, 3344237855, 3344237852, 3344237853, 921512232, 3344237850, 3344237851, 921511995, 3251866826, 3251866825, 921512059, 3251866823, 921512140, 921512014, 3251866821, 921512084, 3251866820, 3344237845, 3344237846, 3344237847, 739967523, 3344237849, 3344237848, 739966944, 1110775503, 1110775372, 739967534, 3251866838, 921511974, 921512122, 3251866833, 739967526], "tags": {"addr:city": "Z\u00fcrich", "addr:country": "CH", "addr:postcode": "8001", "building": "commercial", "construction": "yes", "note": "UBS Headquarters under reconstruction until 2018", "old_name": "SBG Bahnhofstrasse", "owner": "UBS", "source": "Stadt Z\u00fcrich Open Government Data; Geomatik + Vermessung; Tiefbau- und Entsorgungsdepartement", "survey:date": "2017-05-11"}}, {"type": "way", "id": 327613479, "nodes": [3344237863, 937615540, 937615536, 3344237840, 3344237841, 3344237861, 3344237863], "tags": {"addr:city": "Z\u00fcrich", "addr:country": "CH", "addr:postcode": "8001", "building": "yes", "source": "Stadt Z\u00fcrich Open Government Data; Geomatik + Vermessung; Tiefbau- und Entsorgungsdepartement"}}, {"type": "way", "id": 327613480, "nodes": [3344237873, 3344237874, 3344237871, 3344237870, 3344237867, 3344237868, 3344237865, 3344237863, 3344237861, 3344237869, 3344237873], "tags": {"addr:city": "Z\u00fcrich", "addr:country": "CH", "addr:housenumber": "30", "addr:postcode": "8001", "addr:street": "N\u00fcschelerstrasse", "building": "yes", "source": "Stadt Z\u00fcrich Open Government Data; Geomatik + Vermessung; Tiefbau- und Entsorgungsdepartement"}}, {"type": "way", "id": 327613481, "nodes": [937615517, 3344237878, 3344237876, 9706185949, 9706185945, 3344237873, 3344237869, 9706185946, 3344237872, 3344237875, 3344237881, 937615527, 3344237882, 937615517], "tags": {"addr:city": "Z\u00fcrich", "addr:country": "CH", "addr:housenumber": "32", "addr:postcode": "8001", "addr:street": "N\u00fcschelerstrasse", "building": "apartments", "source": "Stadt Z\u00fcrich Open Government Data; Geomatik + Vermessung; Tiefbau- und Entsorgungsdepartement"}}, {"type": "way", "id": 327627321, "nodes": [3344346808, 5777113793, 3344346810, 3344346814, 3344346811, 3344346812, 3344346809, 3344346808], "tags": {"addr:city": "Z\u00fcrich", "addr:country": "CH", "addr:housenumber": "31a", "addr:postcode": "8001", "addr:street": "N\u00fcschelerstrasse", "building": "yes", "source": "Stadt Z\u00fcrich Open Government Data; Geomatik + Vermessung; Tiefbau- und Entsorgungsdepartement"}}, {"type": "way", "id": 430261248, "nodes": [4295340062, 4295340063, 4295340064, 4295340065, 4295340062]}, {"type": "way", "id": 430263408, "nodes": [4295330500, 4295330501, 4295330503, 4295330502, 4295330511, 4295330507, 4295330512, 4295330508, 4295330510, 4295330499, 4295330504, 4295330505, 4295330509, 4295330506, 4295330500]}, {"type": "way", "id": 430264400, "nodes": [4295396172, 4295396166, 4295396180, 4295396181, 4295396172], "tags": {"building": "yes"}}, {"type": "way", "id": 430264403, "nodes": [4295396168, 4295396183, 4295396174, 4295396177, 4295396168], "tags": {"building": "yes", "building:levels": "2", "building:min_level": "1", "building:part": "yes", "layer": "1", "roof:shape": "flat"}}, {"type": "way", "id": 1040469247, "nodes": [4295330505, 4295330509, 4295330506, 4295330500, 4295330501, 4295330503, 4295330502, 4295330511, 4295330507, 4295330512, 4295330508, 4295330510, 4295330499, 4295330504, 4295330505], "tags": {"building:part": "yes", "fixme": "I'm not sure if this is correctly related to the outer building"}}, {"type": "relation", "id": 4574143, "members": [{"type": "way", "ref": 327295748, "role": "outer"}, {"type": "way", "ref": 327295747, "role": "inner"}], "tags": {"addr:city": "Z\u00fcrich", "addr:country": "CH", "addr:postcode": "8001", "building": "yes", "owner": "Credit Suisse", "source": "Stadt Z\u00fcrich Open Government Data; Geomatik + Vermessung; Tiefbau- und Entsorgungsdepartement", "type": "multipolygon"}}, {"type": "relation", "id": 6403475, "members": [{"type": "way", "ref": 31967846, "role": "outer"}, {"type": "way", "ref": 430261248, "role": "inner"}, {"type": "way", "ref": 31967859, "role": "inner"}], "tags": {"building": "commercial", "building:levels": "5", "name": "UBS Paradeplatz", "office": "bank", "old_name": "SBV Paradeplatz", "type": "multipolygon", "website": "https://www.ubs.com"}}, {"type": "relation", "id": 6403476, "members": [{"type": "way", "ref": 31967842, "role": "outer"}, {"type": "way", "ref": 430263408, "role": "inner"}, {"type": "way", "ref": 1040469247, "role": "inner"}], "tags": {"addr:city": "Z\u00fcrich", "addr:country": "CH", "addr:postcode": "8001", "building": "office", "building:levels": "4", "old_name": "SKA Paradeplatz", "owner": "Credit Suisse", "roof:levels": "1", "type": "multipolygon"}}]}