{"version": 0.6, "generator": "Overpass API 0.7.60.6 e2dc3e5b", "osm3s": {"timestamp_osm_base": "2023-06-29T15:25:05Z", "copyright": "The data included in this document is from www.openstreetmap.org. The data is made available under ODbL."}, "elements": [{"type": "node", "id": 28137444, "lat": 47.3764183, "lon": 8.5265679}, {"type": "node", "id": 29039089, "lat": 47.3740393, "lon": 8.5263307}, {"type": "node", "id": 29039090, "lat": 47.3745664, "lon": 8.5255663}, {"type": "node", "id": 29039091, "lat": 47.3753115, "lon": 8.5266831}, {"type": "node", "id": 29039092, "lat": 47.3747722, "lon": 8.5274667}, {"type": "node", "id": 150504880, "lat": 47.3777154, "lon": 8.5250934}, {"type": "node", "id": 150504883, "lat": 47.3772729, "lon": 8.5247159}, {"type": "node", "id": 150504884, "lat": 47.3771745, "lon": 8.524969}, {"type": "node", "id": 150504885, "lat": 47.3776156, "lon": 8.5253475}, {"type": "node", "id": 150505469, "lat": 47.3772375, "lon": 8.5241809}, {"type": "node", "id": 150505471, "lat": 47.3769972, "lon": 8.524917}, {"type": "node", "id": 150505472, "lat": 47.376883, "lon": 8.5248184}, {"type": "node", "id": 150505473, "lat": 47.3771189, "lon": 8.5240957}, {"type": "node", "id": 157374998, "lat": 47.3742349, "lon": 8.5260471}, {"type": "node", "id": 157375148, "lat": 47.3743703, "lon": 8.525851}, {"type": "node", "id": 157375645, "lat": 47.3743276, "lon": 8.5262135}, {"type": "node", "id": 157375646, "lat": 47.3742449, "lon": 8.5263244}, {"type": "node", "id": 157375648, "lat": 47.374561, "lon": 8.5267678}, {"type": "node", "id": 157375649, "lat": 47.3748805, "lon": 8.5263016}, {"type": "node", "id": 157375650, "lat": 47.374584, "lon": 8.5258495}, {"type": "node", "id": 157375651, "lat": 47.3744692, "lon": 8.5260025}, {"type": "node", "id": 157375652, "lat": 47.3745353, "lon": 8.5261061}, {"type": "node", "id": 157375653, "lat": 47.3743965, "lon": 8.5263139}, {"type": "node", "id": 157376001, "lat": 47.3743587, "lon": 8.5258336}, {"type": "node", "id": 157376417, "lat": 47.3742234, "lon": 8.5260299}, {"type": "node", "id": 301223443, "lat": 47.3756088, "lon": 8.525822}, {"type": "node", "id": 301223444, "lat": 47.3754919, "lon": 8.5256003}, {"type": "node", "id": 301223445, "lat": 47.3754069, "lon": 8.5259375}, {"type": "node", "id": 301223446, "lat": 47.3756189, "lon": 8.5258943}, {"type": "node", "id": 312224769, "lat": 47.376059, "lon": 8.5246472}, {"type": "node", "id": 312224770, "lat": 47.3760958, "lon": 8.5245369}, {"type": "node", "id": 312224773, "lat": 47.3760259, "lon": 8.5244961}, {"type": "node", "id": 312224775, "lat": 47.3759734, "lon": 8.524585}, {"type": "node", "id": 312225197, "lat": 47.3761151, "lon": 8.5244422, "tags": {"entrance": "yes"}}, {"type": "node", "id": 312225199, "lat": 47.3760269, "lon": 8.5243632}, {"type": "node", "id": 312225201, "lat": 47.3759915, "lon": 8.5244717}, {"type": "node", "id": 312225482, "lat": 47.3759465, "lon": 8.524306}, {"type": "node", "id": 312225484, "lat": 47.3759048, "lon": 8.5244337}, {"type": "node", "id": 312458293, "lat": 47.3756793, "lon": 8.5242733}, {"type": "node", "id": 312458294, "lat": 47.375721, "lon": 8.5241456}, {"type": "node", "id": 442148723, "lat": 47.3747984, "lon": 8.5261724}, {"type": "node", "id": 442148724, "lat": 47.374497, "lon": 8.5266781}, {"type": "node", "id": 442148725, "lat": 47.3743895, "lon": 8.5268384, "tags": {"barrier": "gate"}}, {"type": "node", "id": 446305375, "lat": 47.3752512, "lon": 8.52598}, {"type": "node", "id": 446305376, "lat": 47.3753791, "lon": 8.5262048}, {"type": "node", "id": 480426249, "lat": 47.3771194, "lon": 8.5263117}, {"type": "node", "id": 480426250, "lat": 47.3770744, "lon": 8.5265848}, {"type": "node", "id": 480426252, "lat": 47.3763431, "lon": 8.5263876}, {"type": "node", "id": 480426254, "lat": 47.3765089, "lon": 8.5258712}, {"type": "node", "id": 702999082, "lat": 47.3756407, "lon": 8.5258211}, {"type": "node", "id": 702999083, "lat": 47.3755561, "lon": 8.5260194}, {"type": "node", "id": 702999084, "lat": 47.3756609, "lon": 8.5259394}, {"type": "node", "id": 702999085, "lat": 47.3756436, "lon": 8.5256836}, {"type": "node", "id": 702999086, "lat": 47.3753516, "lon": 8.5264622}, {"type": "node", "id": 702999087, "lat": 47.375404, "lon": 8.5262997}, {"type": "node", "id": 702999088, "lat": 47.3751328, "lon": 8.526048}, {"type": "node", "id": 702999089, "lat": 47.3753131, "lon": 8.5263003}, {"type": "node", "id": 702999090, "lat": 47.3755879, "lon": 8.5266286}, {"type": "node", "id": 702999091, "lat": 47.3756404, "lon": 8.5264661}, {"type": "node", "id": 734228381, "lat": 47.3766337, "lon": 8.52483}, {"type": "node", "id": 734228382, "lat": 47.3763484, "lon": 8.524595}, {"type": "node", "id": 734228384, "lat": 47.3763063, "lon": 8.5247229}, {"type": "node", "id": 734228385, "lat": 47.3765271, "lon": 8.5248677}, {"type": "node", "id": 734228387, "lat": 47.3763567, "lon": 8.5253501}, {"type": "node", "id": 808458800, "lat": 47.3757473, "lon": 8.5249062}, {"type": "node", "id": 808458804, "lat": 47.3758873, "lon": 8.5248373}, {"type": "node", "id": 808458805, "lat": 47.3757693, "lon": 8.5243372}, {"type": "node", "id": 808458808, "lat": 47.3758428, "lon": 8.5250005}, {"type": "node", "id": 808458829, "lat": 47.3754976, "lon": 8.5249008}, {"type": "node", "id": 808458842, "lat": 47.3756331, "lon": 8.5248242}, {"type": "node", "id": 808458843, "lat": 47.3759777, "lon": 8.524901}, {"type": "node", "id": 808458845, "lat": 47.3757755, "lon": 8.524954}, {"type": "node", "id": 808458858, "lat": 47.3757399, "lon": 8.5250664}, {"type": "node", "id": 808458863, "lat": 47.375702, "lon": 8.5250424}, {"type": "node", "id": 813914170, "lat": 47.3762377, "lon": 8.5248122}, {"type": "node", "id": 813914196, "lat": 47.3761879, "lon": 8.5249884}, {"type": "node", "id": 813914209, "lat": 47.3761293, "lon": 8.5247939}, {"type": "node", "id": 813914226, "lat": 47.3760433, "lon": 8.5246987}, {"type": "node", "id": 813914241, "lat": 47.3762764, "lon": 8.5246854}, {"type": "node", "id": 813914247, "lat": 47.3760745, "lon": 8.5249647}, {"type": "node", "id": 813914266, "lat": 47.3760887, "lon": 8.5249172}, {"type": "node", "id": 813914278, "lat": 47.3762191, "lon": 8.5245227}, {"type": "node", "id": 813914299, "lat": 47.375949, "lon": 8.5249899, "tags": {"entrance": "yes"}}, {"type": "node", "id": 813914348, "lat": 47.3759972, "lon": 8.52484}, {"type": "node", "id": 813914353, "lat": 47.3762284, "lon": 8.5248651}, {"type": "node", "id": 813914365, "lat": 47.3760462, "lon": 8.5250533, "tags": {"addr:city": "Z\u00fcrich", "addr:country": "CH", "addr:housenumber": "2", "addr:postcode": "8004", "addr:street": "Anwandstrasse"}}, {"type": "node", "id": 813914394, "lat": 47.3758529, "lon": 8.5247391}, {"type": "node", "id": 813914434, "lat": 47.3758974, "lon": 8.5245969}, {"type": "node", "id": 813914443, "lat": 47.3763164, "lon": 8.5245647}, {"type": "node", "id": 813914457, "lat": 47.3761112, "lon": 8.5251923}, {"type": "node", "id": 813914516, "lat": 47.376164, "lon": 8.5250269}, {"type": "node", "id": 845207213, "lat": 47.376587, "lon": 8.5245769, "tags": {"addr:city": "Z\u00fcrich", "addr:country": "CH", "addr:housenumber": "37", "addr:postcode": "8004", "addr:street": "Kernstrasse"}}, {"type": "node", "id": 845207229, "lat": 47.3766947, "lon": 8.5239182, "tags": {"addr:city": "Z\u00fcrich", "addr:country": "CH", "addr:housenumber": "62", "addr:postcode": "8004", "addr:street": "Engelstrasse"}}, {"type": "node", "id": 845207267, "lat": 47.3768446, "lon": 8.5241679, "tags": {"addr:city": "Z\u00fcrich", "addr:country": "CH", "addr:housenumber": "119", "addr:postcode": "8004", "addr:street": "Stauffacherstrasse"}}, {"type": "node", "id": 845207380, "lat": 47.3766265, "lon": 8.5247948}, {"type": "node", "id": 845207387, "lat": 47.3767916, "lon": 8.5239865, "tags": {"addr:city": "Z\u00fcrich", "addr:country": "CH", "addr:housenumber": "64", "addr:postcode": "8004", "addr:street": "Engelstrasse"}}, {"type": "node", "id": 845207437, "lat": 47.3768022, "lon": 8.5242991, "tags": {"addr:city": "Z\u00fcrich", "addr:country": "CH", "addr:housenumber": "117", "addr:postcode": "8004", "addr:street": "Stauffacherstrasse"}}, {"type": "node", "id": 845207539, "lat": 47.3765988, "lon": 8.5238506, "tags": {"addr:city": "Z\u00fcrich", "addr:country": "CH", "addr:housenumber": "60", "addr:postcode": "8004", "addr:street": "Engelstrasse"}}, {"type": "node", "id": 845207559, "lat": 47.3764564, "lon": 8.5241709, "tags": {"addr:city": "Z\u00fcrich", "addr:country": "CH", "addr:housenumber": "35", "addr:postcode": "8004", "addr:street": "Kernstrasse"}}, {"type": "node", "id": 848938621, "lat": 47.375795, "lon": 8.524773}, {"type": "node", "id": 848938624, "lat": 47.3748216, "lon": 8.5256646}, {"type": "node", "id": 848938627, "lat": 47.3751454, "lon": 8.5251285}, {"type": "node", "id": 848938637, "lat": 47.375505, "lon": 8.5248093, "tags": {"entrance": "yes"}}, {"type": "node", "id": 848938644, "lat": 47.3747852, "lon": 8.5254013}, {"type": "node", "id": 848938649, "lat": 47.3749628, "lon": 8.5256055}, {"type": "node", "id": 848938696, "lat": 47.3748734, "lon": 8.5248957}, {"type": "node", "id": 848938704, "lat": 47.3751917, "lon": 8.5249443, "tags": {"addr:city": "Z\u00fcrich", "addr:country": "CH", "addr:housenumber": "20", "addr:postcode": "8004", "addr:street": "Langstrasse"}}, {"type": "node", "id": 848938722, "lat": 47.3757128, "lon": 8.5248231}, {"type": "node", "id": 848938741, "lat": 47.3749736, "lon": 8.5249751}, {"type": "node", "id": 848938766, "lat": 47.3749728, "lon": 8.525889}, {"type": "node", "id": 848938769, "lat": 47.3752272, "lon": 8.5251929, "tags": {"addr:city": "Z\u00fcrich", "addr:country": "CH", "addr:housenumber": "63", "addr:postcode": "8004", "addr:street": "Kanzleistrasse"}}, {"type": "node", "id": 848938789, "lat": 47.3747181, "lon": 8.5255019}, {"type": "node", "id": 848938796, "lat": 47.3756473, "lon": 8.5243721, "tags": {"entrance": "yes"}}, {"type": "node", "id": 848938814, "lat": 47.3757233, "lon": 8.5249781, "tags": {"entrance": "yes"}}, {"type": "node", "id": 848938822, "lat": 47.3749372, "lon": 8.5256388}, {"type": "node", "id": 848938826, "lat": 47.3748934, "lon": 8.5247289, "tags": {"addr:city": "Z\u00fcrich", "addr:country": "CH", "addr:housenumber": "12", "addr:postcode": "8004", "addr:street": "Langstrasse"}}, {"type": "node", "id": 848938848, "lat": 47.375061, "lon": 8.5256028}, {"type": "node", "id": 848938878, "lat": 47.3748654, "lon": 8.5255212}, {"type": "node", "id": 848938905, "lat": 47.3755589, "lon": 8.5246472, "tags": {"entrance": "yes"}}, {"type": "node", "id": 848938955, "lat": 47.3751245, "lon": 8.5251567}, {"type": "node", "id": 848938961, "lat": 47.375273, "lon": 8.525005}, {"type": "node", "id": 848938963, "lat": 47.3757664, "lon": 8.5248585}, {"type": "node", "id": 848938973, "lat": 47.3751233, "lon": 8.5244301}, {"type": "node", "id": 848938976, "lat": 47.3751566, "lon": 8.5253199}, {"type": "node", "id": 848938983, "lat": 47.3748469, "lon": 8.5249761}, {"type": "node", "id": 848938992, "lat": 47.3750957, "lon": 8.5248506, "tags": {"addr:city": "Z\u00fcrich", "addr:country": "CH", "addr:housenumber": "18", "addr:postcode": "8004", "addr:street": "Langstrasse"}}, {"type": "node", "id": 848938998, "lat": 47.3757175, "lon": 8.5247166}, {"type": "node", "id": 848939006, "lat": 47.3751571, "lon": 8.525088}, {"type": "node", "id": 848939019, "lat": 47.3748905, "lon": 8.5255623}, {"type": "node", "id": 848939033, "lat": 47.3750497, "lon": 8.5257367}, {"type": "node", "id": 848939034, "lat": 47.3748698, "lon": 8.5257327}, {"type": "node", "id": 848939045, "lat": 47.3750092, "lon": 8.5255331}, {"type": "node", "id": 848939062, "lat": 47.3749491, "lon": 8.5250495}, {"type": "node", "id": 848939070, "lat": 47.375209, "lon": 8.5252539}, {"type": "node", "id": 848939090, "lat": 47.3750607, "lon": 8.5243394}, {"type": "node", "id": 848939092, "lat": 47.3756016, "lon": 8.5245144, "tags": {"entrance": "yes"}}, {"type": "node", "id": 848939095, "lat": 47.3750038, "lon": 8.5251752}, {"type": "node", "id": 848939117, "lat": 47.375033, "lon": 8.525787}, {"type": "node", "id": 848939128, "lat": 47.3749627, "lon": 8.524839, "tags": {"addr:city": "Z\u00fcrich", "addr:country": "CH", "addr:housenumber": "14", "addr:postcode": "8004", "addr:street": "Langstrasse"}}, {"type": "node", "id": 869269126, "lat": 47.3766139, "lon": 8.5255795, "tags": {"addr:city": "Z\u00fcrich", "addr:country": "CH", "addr:housenumber": "98", "addr:postcode": "8004", "addr:street": "Stauffacherstrasse"}}, {"type": "node", "id": 869269127, "lat": 47.3765691, "lon": 8.5250179, "tags": {"addr:city": "Z\u00fcrich", "addr:country": "CH", "addr:housenumber": "105", "addr:postcode": "8004", "addr:street": "Stauffacherstrasse"}}, {"type": "node", "id": 869269130, "lat": 47.3764659, "lon": 8.5253108}, {"type": "node", "id": 869269134, "lat": 47.3762192, "lon": 8.5252429, "tags": {"addr:city": "Z\u00fcrich", "addr:country": "CH", "addr:housenumber": "99", "addr:postcode": "8004", "addr:street": "Stauffacherstrasse"}}, {"type": "node", "id": 869269142, "lat": 47.3765989, "lon": 8.5256184, "tags": {"amenity": "cafe", "name": "Treff-Point Kiosk", "wheelchair": "no"}}, {"type": "node", "id": 869269143, "lat": 47.376691, "lon": 8.5253378, "tags": {"addr:city": "Z\u00fcrich", "addr:country": "CH", "addr:housenumber": "102", "addr:postcode": "8004", "addr:street": "Stauffacherstrasse"}}, {"type": "node", "id": 869269151, "lat": 47.3767906, "lon": 8.5250335, "tags": {"addr:city": "Z\u00fcrich", "addr:country": "CH", "addr:housenumber": "106", "addr:postcode": "8004", "addr:street": "Stauffacherstrasse"}}, {"type": "node", "id": 869269162, "lat": 47.3766604, "lon": 8.5254315, "tags": {"addr:city": "Z\u00fcrich", "addr:country": "CH", "addr:housenumber": "100", "addr:postcode": "8004", "addr:street": "Stauffacherstrasse"}}, {"type": "node", "id": 869269165, "lat": 47.3765094, "lon": 8.5252091, "tags": {"addr:city": "Z\u00fcrich", "addr:country": "CH", "addr:housenumber": "101", "addr:postcode": "8004", "addr:street": "Stauffacherstrasse"}}, {"type": "node", "id": 869269167, "lat": 47.3763278, "lon": 8.5252167}, {"type": "node", "id": 869269168, "lat": 47.376746, "lon": 8.5251692, "tags": {"addr:city": "Z\u00fcrich", "addr:country": "CH", "addr:housenumber": "104", "addr:postcode": "8004", "addr:street": "Stauffacherstrasse"}}, {"type": "node", "id": 869460854, "lat": 47.377287, "lon": 8.5258746}, {"type": "node", "id": 869460857, "lat": 47.3775583, "lon": 8.5265589}, {"type": "node", "id": 869460960, "lat": 47.3772404, "lon": 8.5256164}, {"type": "node", "id": 869460962, "lat": 47.3773928, "lon": 8.5268204}, {"type": "node", "id": 869461050, "lat": 47.377589, "lon": 8.5257103}, {"type": "node", "id": 869461080, "lat": 47.37734, "lon": 8.5259273}, {"type": "node", "id": 869461087, "lat": 47.3775306, "lon": 8.5266731}, {"type": "node", "id": 869461177, "lat": 47.3773453, "lon": 8.5256165}, {"type": "node", "id": 869461179, "lat": 47.377308, "lon": 8.5267313}, {"type": "node", "id": 869461290, "lat": 47.3775031, "lon": 8.5256164}, {"type": "node", "id": 869461312, "lat": 47.3776917, "lon": 8.5267728}, {"type": "node", "id": 869461355, "lat": 47.3772567, "lon": 8.5253633}, {"type": "node", "id": 869461367, "lat": 47.377444, "lon": 8.5264894}, {"type": "node", "id": 869461402, "lat": 47.3777238, "lon": 8.5266557}, {"type": "node", "id": 869461430, "lat": 47.3772883, "lon": 8.5259994}, {"type": "node", "id": 869461456, "lat": 47.3774059, "lon": 8.5255008}, {"type": "node", "id": 869461482, "lat": 47.3775255, "lon": 8.5265367}, {"type": "node", "id": 869461496, "lat": 47.3776141, "lon": 8.5262435}, {"type": "node", "id": 869461534, "lat": 47.3774818, "lon": 8.5262923}, {"type": "node", "id": 869461556, "lat": 47.3773517, "lon": 8.5257328}, {"type": "node", "id": 869461674, "lat": 47.3771016, "lon": 8.5258821}, {"type": "node", "id": 871794825, "lat": 47.3775058, "lon": 8.525921, "tags": {"addr:city": "Z\u00fcrich", "addr:country": "CH", "addr:housenumber": "47", "addr:postcode": "8004", "addr:street": "Hohlstrasse"}}, {"type": "node", "id": 871794827, "lat": 47.3775506, "lon": 8.525669}, {"type": "node", "id": 871794830, "lat": 47.3769647, "lon": 8.5262004, "tags": {"addr:city": "Z\u00fcrich", "addr:country": "CH", "addr:housenumber": "64", "addr:postcode": "8004", "addr:street": "Langstrasse"}}, {"type": "node", "id": 871794832, "lat": 47.3772108, "lon": 8.5258193, "tags": {"addr:city": "Z\u00fcrich", "addr:country": "CH", "addr:housenumber": "8", "addr:postcode": "8004", "addr:street": "Marmorgasse"}}, {"type": "node", "id": 871794835, "lat": 47.3770649, "lon": 8.5255558, "tags": {"addr:city": "Z\u00fcrich", "addr:country": "CH", "addr:housenumber": "9", "addr:postcode": "8004", "addr:street": "Marmorgasse"}}, {"type": "node", "id": 871794837, "lat": 47.3773466, "lon": 8.5260505}, {"type": "node", "id": 871794845, "lat": 47.3774042, "lon": 8.5261115, "tags": {"addr:city": "Z\u00fcrich", "addr:country": "CH", "addr:housenumber": "43", "addr:postcode": "8004", "addr:street": "Hohlstrasse"}}, {"type": "node", "id": 871794846, "lat": 47.3771634, "lon": 8.5252363, "tags": {"addr:city": "Z\u00fcrich", "addr:country": "CH", "addr:housenumber": "50", "addr:postcode": "8004", "addr:street": "Kernstrasse"}}, {"type": "node", "id": 871794848, "lat": 47.3773718, "lon": 8.5254619, "tags": {"addr:city": "Z\u00fcrich", "addr:country": "CH", "addr:housenumber": "52", "addr:postcode": "8004", "addr:street": "Kernstrasse"}}, {"type": "node", "id": 871794849, "lat": 47.3768196, "lon": 8.5260968, "tags": {"addr:city": "Z\u00fcrich", "addr:country": "CH", "addr:housenumber": "62", "addr:postcode": "8004", "addr:street": "Langstrasse"}}, {"type": "node", "id": 871794852, "lat": 47.3774424, "lon": 8.5260702}, {"type": "node", "id": 871794853, "lat": 47.3772198, "lon": 8.5261165, "tags": {"addr:city": "Z\u00fcrich", "addr:country": "CH", "addr:housenumber": "69", "addr:postcode": "8004", "addr:street": "Langstrasse"}}, {"type": "node", "id": 871794854, "lat": 47.3775089, "lon": 8.5262157, "tags": {"addr:city": "Z\u00fcrich", "addr:country": "CH", "addr:housenumber": "44", "addr:postcode": "8004", "addr:street": "Hohlstrasse"}}, {"type": "node", "id": 871794856, "lat": 47.3774251, "lon": 8.5261234}, {"type": "node", "id": 871794858, "lat": 47.3775692, "lon": 8.5257718, "tags": {"addr:city": "Z\u00fcrich", "addr:country": "CH", "addr:housenumber": "49", "addr:postcode": "8004", "addr:street": "Hohlstrasse"}}, {"type": "node", "id": 871794861, "lat": 47.3770426, "lon": 8.5259963, "tags": {"addr:city": "Z\u00fcrich", "addr:country": "CH", "addr:housenumber": "65", "addr:postcode": "8004", "addr:street": "Langstrasse"}}, {"type": "node", "id": 871794866, "lat": 47.3769443, "lon": 8.5257794, "tags": {"addr:city": "Z\u00fcrich", "addr:country": "CH", "addr:housenumber": "63", "addr:postcode": "8004", "addr:street": "Langstrasse"}}, {"type": "node", "id": 871794867, "lat": 47.3773615, "lon": 8.5259952}, {"type": "node", "id": 871794868, "lat": 47.3770974, "lon": 8.5260337, "tags": {"addr:city": "Z\u00fcrich", "addr:country": "CH", "addr:housenumber": "67", "addr:postcode": "8004", "addr:street": "Langstrasse"}}, {"type": "node", "id": 920508304, "lat": 47.3766291, "lon": 8.526574, "tags": {"addr:city": "Z\u00fcrich", "addr:country": "CH", "addr:housenumber": "17", "addr:postcode": "8004", "addr:street": "Molkenstrasse"}}, {"type": "node", "id": 920508326, "lat": 47.3771666, "lon": 8.5263923}, {"type": "node", "id": 920508356, "lat": 47.3771421, "lon": 8.5265446, "tags": {"entrance": "yes"}}, {"type": "node", "id": 920508413, "lat": 47.3764971, "lon": 8.5265695, "tags": {"addr:city": "Z\u00fcrich", "addr:country": "CH", "addr:housenumber": "15", "addr:postcode": "8004", "addr:street": "Molkenstrasse"}}, {"type": "node", "id": 920508460, "lat": 47.3771086, "lon": 8.5265749}, {"type": "node", "id": 920508463, "lat": 47.3768877, "lon": 8.5265817, "tags": {"addr:city": "Z\u00fcrich", "addr:country": "CH", "addr:housenumber": "21", "addr:postcode": "8004", "addr:street": "Molkenstrasse"}}, {"type": "node", "id": 920508521, "lat": 47.3771714, "lon": 8.5264745, "tags": {"addr:city": "Z\u00fcrich", "addr:country": "CH", "addr:housenumber": "35", "addr:postcode": "8004", "addr:street": "Hohlstrasse"}}, {"type": "node", "id": 920552760, "lat": 47.3774119, "lon": 8.5267819, "tags": {"addr:city": "Z\u00fcrich", "addr:country": "CH", "addr:housenumber": "36", "addr:postcode": "8004", "addr:street": "Hohlstrasse"}}, {"type": "node", "id": 1241219735, "lat": 47.3776681, "lon": 8.5263035}, {"type": "node", "id": 1417968679, "lat": 47.3763362, "lon": 8.5244002, "tags": {"addr:city": "Z\u00fcrich", "addr:country": "CH", "addr:housenumber": "31", "addr:postcode": "8004", "addr:street": "Kernstrasse"}}, {"type": "node", "id": 1486118351, "lat": 47.3765627, "lon": 8.5263963}, {"type": "node", "id": 1486118355, "lat": 47.3765627, "lon": 8.5261075}, {"type": "node", "id": 1486118357, "lat": 47.3766007, "lon": 8.526283}, {"type": "node", "id": 1486118366, "lat": 47.3769732, "lon": 8.5263613}, {"type": "node", "id": 1584002010, "lat": 47.376274, "lon": 8.5243563}, {"type": "node", "id": 1584002017, "lat": 47.3763918, "lon": 8.5239919}, {"type": "node", "id": 1584002018, "lat": 47.3764232, "lon": 8.5238939}, {"type": "node", "id": 1584002019, "lat": 47.376404, "lon": 8.5243023}, {"type": "node", "id": 1584002021, "lat": 47.3764672, "lon": 8.5237578}, {"type": "node", "id": 1584002022, "lat": 47.3764915, "lon": 8.5240622}, {"type": "node", "id": 1584002024, "lat": 47.3766337, "lon": 8.5244621}, {"type": "node", "id": 1584002027, "lat": 47.3766891, "lon": 8.5246489}, {"type": "node", "id": 1584002028, "lat": 47.3766964, "lon": 8.5243002}, {"type": "node", "id": 1584002030, "lat": 47.3767699, "lon": 8.5241059}, {"type": "node", "id": 1584002037, "lat": 47.3768825, "lon": 8.5240506}, {"type": "node", "id": 1584034577, "lat": 47.376592, "lon": 8.5256437}, {"type": "node", "id": 1584034601, "lat": 47.3767126, "lon": 8.5255843}, {"type": "node", "id": 1584034620, "lat": 47.3768372, "lon": 8.5249567}, {"type": "node", "id": 1584034630, "lat": 47.3768566, "lon": 8.5251548}, {"type": "node", "id": 1584034632, "lat": 47.3768731, "lon": 8.5251674}, {"type": "node", "id": 1584034633, "lat": 47.3768728, "lon": 8.5257217}, {"type": "node", "id": 1584034644, "lat": 47.376901, "lon": 8.525874}, {"type": "node", "id": 1584034647, "lat": 47.3768997, "lon": 8.5253306}, {"type": "node", "id": 1584034656, "lat": 47.3769348, "lon": 8.5250429}, {"type": "node", "id": 1584034685, "lat": 47.3769999, "lon": 8.5254362}, {"type": "node", "id": 1584034704, "lat": 47.3769931, "lon": 8.5250953}, {"type": "node", "id": 1584034738, "lat": 47.3771211, "lon": 8.5252005}, {"type": "node", "id": 1584034741, "lat": 47.3771924, "lon": 8.5253029}, {"type": "node", "id": 1595200835, "lat": 47.3747984, "lon": 8.524396}, {"type": "node", "id": 1595200881, "lat": 47.3748413, "lon": 8.5242665}, {"type": "node", "id": 1595200901, "lat": 47.3748473, "lon": 8.524238}, {"type": "node", "id": 1595200941, "lat": 47.3748955, "lon": 8.5244617}, {"type": "node", "id": 1595200990, "lat": 47.3749953, "lon": 8.5243392}, {"type": "node", "id": 1595201050, "lat": 47.3750351, "lon": 8.5245663}, {"type": "node", "id": 1595201112, "lat": 47.3750918, "lon": 8.5244786}, {"type": "node", "id": 1595201201, "lat": 47.3751445, "lon": 8.5246414}, {"type": "node", "id": 1595201291, "lat": 47.3752049, "lon": 8.5244646}, {"type": "node", "id": 1595201418, "lat": 47.3752341, "lon": 8.5244839}, {"type": "node", "id": 1595201577, "lat": 47.3753495, "lon": 8.5243114}, {"type": "node", "id": 1595201603, "lat": 47.3753598, "lon": 8.5247953}, {"type": "node", "id": 1595201786, "lat": 47.3754868, "lon": 8.5244079}, {"type": "node", "id": 1595224464, "lat": 47.3760016, "lon": 8.5252608}, {"type": "node", "id": 1595224488, "lat": 47.3763151, "lon": 8.5254807}, {"type": "node", "id": 1595224503, "lat": 47.3763858, "lon": 8.5255339}, {"type": "node", "id": 1595224518, "lat": 47.3764448, "lon": 8.5254113}, {"type": "node", "id": 2015772161, "lat": 47.3766187, "lon": 8.5261475}, {"type": "node", "id": 2015772164, "lat": 47.3766249, "lon": 8.5261287}, {"type": "node", "id": 2015772171, "lat": 47.3769388, "lon": 8.5263527}, {"type": "node", "id": 2015772175, "lat": 47.376943, "lon": 8.5263398}, {"type": "node", "id": 2015772178, "lat": 47.3769595, "lon": 8.5264434}, {"type": "node", "id": 2015772181, "lat": 47.377148, "lon": 8.5263436, "tags": {"entrance": "main"}}, {"type": "node", "id": 2261078635, "lat": 47.3741363, "lon": 8.5264766}, {"type": "node", "id": 2261078639, "lat": 47.3741516, "lon": 8.5264544}, {"type": "node", "id": 2261078654, "lat": 47.3742664, "lon": 8.5263573}, {"type": "node", "id": 2261078656, "lat": 47.3742747, "lon": 8.5263445}, {"type": "node", "id": 2261078661, "lat": 47.3743224, "lon": 8.5267377}, {"type": "node", "id": 2261078662, "lat": 47.3743314, "lon": 8.5267246}, {"type": "node", "id": 2261078671, "lat": 47.3744315, "lon": 8.5265816}, {"type": "node", "id": 2261078673, "lat": 47.3744506, "lon": 8.5266112}, {"type": "node", "id": 2261078674, "lat": 47.3744659, "lon": 8.5266337}, {"type": "node", "id": 2261078698, "lat": 47.3746512, "lon": 8.5257406}, {"type": "node", "id": 2261078703, "lat": 47.3746671, "lon": 8.5257175}, {"type": "node", "id": 2261078724, "lat": 47.3748236, "lon": 8.5259992}, {"type": "node", "id": 2261078726, "lat": 47.3748279, "lon": 8.5259928}, {"type": "node", "id": 2261078808, "lat": 47.376959, "lon": 8.5245202}, {"type": "node", "id": 2261078809, "lat": 47.3769752, "lon": 8.5245318}, {"type": "node", "id": 2261078810, "lat": 47.3770051, "lon": 8.5243776}, {"type": "node", "id": 2261078811, "lat": 47.3770215, "lon": 8.5243896}, {"type": "node", "id": 2261078814, "lat": 47.3770959, "lon": 8.5246165}, {"type": "node", "id": 2261078816, "lat": 47.3771128, "lon": 8.5246294}, {"type": "node", "id": 2261078818, "lat": 47.3771423, "lon": 8.5244744}, {"type": "node", "id": 2261078820, "lat": 47.3771593, "lon": 8.5244878}, {"type": "node", "id": 2261078824, "lat": 47.3773174, "lon": 8.5248368}, {"type": "node", "id": 2261078825, "lat": 47.3773401, "lon": 8.5247746}, {"type": "node", "id": 2261078827, "lat": 47.3773973, "lon": 8.5249061}, {"type": "node", "id": 2261078829, "lat": 47.3774203, "lon": 8.5248502}, {"type": "node", "id": 2261078831, "lat": 47.3775426, "lon": 8.5250301}, {"type": "node", "id": 2261078833, "lat": 47.3775656, "lon": 8.5249736}, {"type": "node", "id": 2261078837, "lat": 47.377623, "lon": 8.5250976}, {"type": "node", "id": 2261078838, "lat": 47.3776477, "lon": 8.5250368}, {"type": "node", "id": 2953842462, "lat": 47.3747422, "lon": 8.5265099}, {"type": "node", "id": 2953842463, "lat": 47.37467, "lon": 8.5265712}, {"type": "node", "id": 2953842464, "lat": 47.3748122, "lon": 8.5270366}, {"type": "node", "id": 2953842465, "lat": 47.3746608, "lon": 8.5268837}, {"type": "node", "id": 2953842466, "lat": 47.374633, "lon": 8.5268406}, {"type": "node", "id": 2953842467, "lat": 47.37484, "lon": 8.5270783}, {"type": "node", "id": 2953842468, "lat": 47.3747039, "lon": 8.5267293}, {"type": "node", "id": 2953842469, "lat": 47.3752068, "lon": 8.5265594}, {"type": "node", "id": 2953842470, "lat": 47.3749963, "lon": 8.5268583}, {"type": "node", "id": 2953842471, "lat": 47.3751661, "lon": 8.5268581}, {"type": "node", "id": 2953842472, "lat": 47.3747057, "lon": 8.5268236}, {"type": "node", "id": 2953842473, "lat": 47.3746529, "lon": 8.5268034}, {"type": "node", "id": 2953842474, "lat": 47.374709, "lon": 8.5265158}, {"type": "node", "id": 2953842475, "lat": 47.3746702, "lon": 8.5266138}, {"type": "node", "id": 2953842477, "lat": 47.3746398, "lon": 8.5269132}, {"type": "node", "id": 2953842478, "lat": 47.3748303, "lon": 8.5270104}, {"type": "node", "id": 2953842479, "lat": 47.3748119, "lon": 8.526578}, {"type": "node", "id": 2953842480, "lat": 47.374782, "lon": 8.5270638}, {"type": "node", "id": 2953842481, "lat": 47.3748649, "lon": 8.526325, "tags": {"barrier": "gate"}}, {"type": "node", "id": 2953842482, "lat": 47.3746763, "lon": 8.5272628}, {"type": "node", "id": 2953842483, "lat": 47.3748977, "lon": 8.5272519}, {"type": "node", "id": 2953842484, "lat": 47.3749079, "lon": 8.527267}, {"type": "node", "id": 2953842485, "lat": 47.3747583, "lon": 8.5270972}, {"type": "node", "id": 2953842487, "lat": 47.3751789, "lon": 8.5268771}, {"type": "node", "id": 2953842488, "lat": 47.3745868, "lon": 8.5269054}, {"type": "node", "id": 2953842489, "lat": 47.3746553, "lon": 8.5272936}, {"type": "node", "id": 2953842490, "lat": 47.3748891, "lon": 8.527007}, {"type": "node", "id": 2953842491, "lat": 47.3746857, "lon": 8.5268526}, {"type": "node", "id": 2953842492, "lat": 47.3747691, "lon": 8.5271886}, {"type": "node", "id": 2953842493, "lat": 47.375128, "lon": 8.5266693}, {"type": "node", "id": 2953842494, "lat": 47.3752178, "lon": 8.5265434}, {"type": "node", "id": 2953842495, "lat": 47.3748181, "lon": 8.5271198}, {"type": "node", "id": 2956813595, "lat": 47.3758688, "lon": 8.5255656}, {"type": "node", "id": 2956813596, "lat": 47.3758958, "lon": 8.5254718}, {"type": "node", "id": 2956813598, "lat": 47.3759233, "lon": 8.5256037}, {"type": "node", "id": 2956813599, "lat": 47.3759513, "lon": 8.5255163}, {"type": "node", "id": 2956815183, "lat": 47.3756082, "lon": 8.5265658}, {"type": "node", "id": 2956815314, "lat": 47.3755073, "lon": 8.5251646}, {"type": "node", "id": 2956815315, "lat": 47.375774, "lon": 8.5255174}, {"type": "node", "id": 2956815316, "lat": 47.3756788, "lon": 8.5254556}, {"type": "node", "id": 2956815318, "lat": 47.3757975, "lon": 8.5254387}, {"type": "node", "id": 2956815319, "lat": 47.3757022, "lon": 8.5253769}, {"type": "node", "id": 2956817195, "lat": 47.3755399, "lon": 8.5251868}, {"type": "node", "id": 2962270491, "lat": 47.3757913, "lon": 8.5255647}, {"type": "node", "id": 2962270492, "lat": 47.375821, "lon": 8.5255823}, {"type": "node", "id": 2962270493, "lat": 47.3757532, "lon": 8.5258312}, {"type": "node", "id": 2962270494, "lat": 47.3757235, "lon": 8.5258136}, {"type": "node", "id": 3477874404, "lat": 47.3769597, "lon": 8.5259362}, {"type": "node", "id": 3477874411, "lat": 47.3770926, "lon": 8.5256788}, {"type": "node", "id": 3477874412, "lat": 47.3770965, "lon": 8.5258168}, {"type": "node", "id": 3477874413, "lat": 47.3771194, "lon": 8.5258427}, {"type": "node", "id": 3477874414, "lat": 47.3771413, "lon": 8.5257378}, {"type": "node", "id": 3477874416, "lat": 47.3772045, "lon": 8.5259603}, {"type": "node", "id": 3477874418, "lat": 47.3772089, "lon": 8.5259429}, {"type": "node", "id": 3477874419, "lat": 47.3772803, "lon": 8.5255423}, {"type": "node", "id": 3477874420, "lat": 47.3772922, "lon": 8.5256772}, {"type": "node", "id": 3477874421, "lat": 47.37736, "lon": 8.52623}, {"type": "node", "id": 3477874423, "lat": 47.3774115, "lon": 8.5256473}, {"type": "node", "id": 3477874424, "lat": 47.3773881, "lon": 8.5265222}, {"type": "node", "id": 3477874425, "lat": 47.3773863, "lon": 8.526221}, {"type": "node", "id": 3477874426, "lat": 47.3774119, "lon": 8.5264916}, {"type": "node", "id": 3477874428, "lat": 47.3774552, "lon": 8.5255626}, {"type": "node", "id": 3477874429, "lat": 47.3774594, "lon": 8.5257011}, {"type": "node", "id": 3477874430, "lat": 47.3774782, "lon": 8.5257207}, {"type": "node", "id": 3477874431, "lat": 47.3774685, "lon": 8.5266708}, {"type": "node", "id": 3477874432, "lat": 47.3774896, "lon": 8.5263427}, {"type": "node", "id": 3477874433, "lat": 47.3774855, "lon": 8.5266756}, {"type": "node", "id": 3477874435, "lat": 47.3776438, "lon": 8.5262044}, {"type": "node", "id": 4005581156, "lat": 47.3765627, "lon": 8.5264179}, {"type": "node", "id": 4005581157, "lat": 47.3769264, "lon": 8.5264287}, {"type": "node", "id": 4005581158, "lat": 47.3769263, "lon": 8.5264424}, {"type": "node", "id": 4245900497, "lat": 47.3747739, "lon": 8.5253068}, {"type": "node", "id": 4245900498, "lat": 47.374781, "lon": 8.5248294}, {"type": "node", "id": 4245900499, "lat": 47.3748179, "lon": 8.5252432}, {"type": "node", "id": 4245900500, "lat": 47.3748204, "lon": 8.5253771}, {"type": "node", "id": 4245900501, "lat": 47.3748293, "lon": 8.5246828}, {"type": "node", "id": 4245900502, "lat": 47.3748414, "lon": 8.5253468}, {"type": "node", "id": 4245900503, "lat": 47.3748695, "lon": 8.5242508}, {"type": "node", "id": 4245900504, "lat": 47.3748911, "lon": 8.5254218}, {"type": "node", "id": 4245900505, "lat": 47.3749055, "lon": 8.524798}, {"type": "node", "id": 4245900506, "lat": 47.3749058, "lon": 8.5241905}, {"type": "node", "id": 4245900507, "lat": 47.3749094, "lon": 8.5255369}, {"type": "node", "id": 4245900508, "lat": 47.3749141, "lon": 8.5253886}, {"type": "node", "id": 4245900509, "lat": 47.3749216, "lon": 8.5247491}, {"type": "node", "id": 4245900510, "lat": 47.3749217, "lon": 8.5255504}, {"type": "node", "id": 4245900511, "lat": 47.3749312, "lon": 8.5254082}, {"type": "node", "id": 4245900512, "lat": 47.3749367, "lon": 8.5253827}, {"type": "node", "id": 4245900513, "lat": 47.3749399, "lon": 8.5254229}, {"type": "node", "id": 4245900514, "lat": 47.374943, "lon": 8.5253901}, {"type": "node", "id": 4245900515, "lat": 47.3749739, "lon": 8.5254813}, {"type": "node", "id": 4245900519, "lat": 47.3750003, "lon": 8.5258856}, {"type": "node", "id": 4245900520, "lat": 47.3750009, "lon": 8.5249947}, {"type": "node", "id": 4245900522, "lat": 47.375006, "lon": 8.5249794}, {"type": "node", "id": 4245900523, "lat": 47.3750077, "lon": 8.5248713}, {"type": "node", "id": 4245900524, "lat": 47.3750224, "lon": 8.5248268}, {"type": "node", "id": 4245900525, "lat": 47.3750719, "lon": 8.5248623}, {"type": "node", "id": 4245900527, "lat": 47.3750784, "lon": 8.52526}, {"type": "node", "id": 4245900528, "lat": 47.3750796, "lon": 8.524839}, {"type": "node", "id": 4245900529, "lat": 47.3750829, "lon": 8.5256375}, {"type": "node", "id": 4245900530, "lat": 47.375087, "lon": 8.5252339}, {"type": "node", "id": 4245900531, "lat": 47.3750916, "lon": 8.524293}, {"type": "node", "id": 4245900532, "lat": 47.3751043, "lon": 8.5248816}, {"type": "node", "id": 4245900534, "lat": 47.3751109, "lon": 8.5248615}, {"type": "node", "id": 4245900536, "lat": 47.3751136, "lon": 8.5250567}, {"type": "node", "id": 4245900537, "lat": 47.3751351, "lon": 8.5251205}, {"type": "node", "id": 4245900538, "lat": 47.3751379, "lon": 8.5246614}, {"type": "node", "id": 4245900539, "lat": 47.3751542, "lon": 8.5243837}, {"type": "node", "id": 4245900540, "lat": 47.3751584, "lon": 8.5249204}, {"type": "node", "id": 4245900541, "lat": 47.3751556, "lon": 8.5259787}, {"type": "node", "id": 4245900542, "lat": 47.3751603, "lon": 8.5250783}, {"type": "node", "id": 4245900543, "lat": 47.3751669, "lon": 8.5252265}, {"type": "node", "id": 4245900545, "lat": 47.3751797, "lon": 8.5261017}, {"type": "node", "id": 4245900546, "lat": 47.3752468, "lon": 8.5251404}, {"type": "node", "id": 4245900547, "lat": 47.3752647, "lon": 8.5260337}, {"type": "node", "id": 4245900548, "lat": 47.3752804, "lon": 8.5250367}, {"type": "node", "id": 4245900549, "lat": 47.3753532, "lon": 8.5248154}, {"type": "node", "id": 4245900550, "lat": 47.3753733, "lon": 8.524805}, {"type": "node", "id": 4245900554, "lat": 47.3754861, "lon": 8.5248577}, {"type": "node", "id": 4245900555, "lat": 47.3755004, "lon": 8.5244176}, {"type": "node", "id": 4245900556, "lat": 47.3755007, "lon": 8.5251856}, {"type": "node", "id": 4245900557, "lat": 47.3755204, "lon": 8.524763}, {"type": "node", "id": 4245900558, "lat": 47.3755333, "lon": 8.5252078}, {"type": "node", "id": 4245900559, "lat": 47.3755362, "lon": 8.5247177}, {"type": "node", "id": 4245900560, "lat": 47.3755483, "lon": 8.5247832}, {"type": "node", "id": 4245900561, "lat": 47.3755538, "lon": 8.5247667}, {"type": "node", "id": 4245900562, "lat": 47.3755832, "lon": 8.5245716}, {"type": "node", "id": 4245900563, "lat": 47.3755915, "lon": 8.5258792}, {"type": "node", "id": 4245900564, "lat": 47.3756141, "lon": 8.5259136}, {"type": "node", "id": 4245900565, "lat": 47.375615, "lon": 8.524811}, {"type": "node", "id": 4245900566, "lat": 47.3756151, "lon": 8.5249794}, {"type": "node", "id": 4245900567, "lat": 47.3756231, "lon": 8.5244477}, {"type": "node", "id": 4245900568, "lat": 47.3756267, "lon": 8.5247812}, {"type": "node", "id": 4245900569, "lat": 47.375636, "lon": 8.5248436}, {"type": "node", "id": 4245900570, "lat": 47.3756366, "lon": 8.5258373}, {"type": "node", "id": 4245900571, "lat": 47.3756407, "lon": 8.5248297}, {"type": "node", "id": 4245900572, "lat": 47.3756503, "lon": 8.5247078}, {"type": "node", "id": 4245900573, "lat": 47.3756556, "lon": 8.5248578}, {"type": "node", "id": 4245900574, "lat": 47.3756604, "lon": 8.5248432}, {"type": "node", "id": 4245900575, "lat": 47.3756676, "lon": 8.5247204}, {"type": "node", "id": 4245900576, "lat": 47.3756737, "lon": 8.524635}, {"type": "node", "id": 4245900577, "lat": 47.3756846, "lon": 8.5258453}, {"type": "node", "id": 4245900578, "lat": 47.375688, "lon": 8.524805}, {"type": "node", "id": 4245900579, "lat": 47.3757107, "lon": 8.5248293}, {"type": "node", "id": 4245900580, "lat": 47.3757139, "lon": 8.524511}, {"type": "node", "id": 4245900581, "lat": 47.375738, "lon": 8.5248492}, {"type": "node", "id": 4245900582, "lat": 47.3757407, "lon": 8.5244272, "tags": {"addr:city": "Z\u00fcrich", "addr:country": "CH", "addr:postcode": "8004"}}, {"type": "node", "id": 4245900583, "lat": 47.3757411, "lon": 8.52484}, {"type": "node", "id": 4245900584, "lat": 47.3757476, "lon": 8.5244051}, {"type": "node", "id": 4245900585, "lat": 47.3757549, "lon": 8.5261743}, {"type": "node", "id": 4245900586, "lat": 47.3757558, "lon": 8.5244377}, {"type": "node", "id": 4245900587, "lat": 47.3757624, "lon": 8.5261494}, {"type": "node", "id": 4245900588, "lat": 47.3757628, "lon": 8.5244158}, {"type": "node", "id": 4245900589, "lat": 47.3758023, "lon": 8.5262052}, {"type": "node", "id": 4245900590, "lat": 47.3758097, "lon": 8.5261803}, {"type": "node", "id": 4245900591, "lat": 47.3758526, "lon": 8.5249694}, {"type": "node", "id": 4245900592, "lat": 47.3758561, "lon": 8.5249338}, {"type": "node", "id": 4245900593, "lat": 47.3758626, "lon": 8.5249384}, {"type": "node", "id": 4245900595, "lat": 47.3758691, "lon": 8.5245407}, {"type": "node", "id": 4245900596, "lat": 47.3758694, "lon": 8.5251621}, {"type": "node", "id": 4245900597, "lat": 47.3758774, "lon": 8.5245135}, {"type": "node", "id": 4245900598, "lat": 47.3758948, "lon": 8.5251494}, {"type": "node", "id": 4245900599, "lat": 47.3759123, "lon": 8.5245691}, {"type": "node", "id": 4245900600, "lat": 47.3759205, "lon": 8.524542}, {"type": "node", "id": 4245900601, "lat": 47.3759365, "lon": 8.5250285}, {"type": "node", "id": 4245900602, "lat": 47.3759647, "lon": 8.5244762}, {"type": "node", "id": 4245900603, "lat": 47.375971, "lon": 8.524457}, {"type": "node", "id": 4245900606, "lat": 47.3759939, "lon": 8.5252174}, {"type": "node", "id": 4245900607, "lat": 47.3759962, "lon": 8.5245166}, {"type": "node", "id": 4245900608, "lat": 47.3760146, "lon": 8.5245299}, {"type": "node", "id": 4245900609, "lat": 47.3760286, "lon": 8.524488}, {"type": "node", "id": 4245900611, "lat": 47.3760746, "lon": 8.525313}, {"type": "node", "id": 4245900613, "lat": 47.3761109, "lon": 8.524424}, {"type": "node", "id": 4245900614, "lat": 47.3761193, "lon": 8.5244665}, {"type": "node", "id": 4245900615, "lat": 47.3761359, "lon": 8.5252111}, {"type": "node", "id": 4245900617, "lat": 47.3761428, "lon": 8.5247448}, {"type": "node", "id": 4245900619, "lat": 47.3761658, "lon": 8.5252303}, {"type": "node", "id": 4245900620, "lat": 47.3761722, "lon": 8.5252102}, {"type": "node", "id": 4245900621, "lat": 47.3761867, "lon": 8.5246206}, {"type": "node", "id": 4245900622, "lat": 47.376195, "lon": 8.5251192}, {"type": "node", "id": 4245900623, "lat": 47.3762164, "lon": 8.5254121}, {"type": "node", "id": 4245900624, "lat": 47.3762431, "lon": 8.5251494}, {"type": "node", "id": 4245900625, "lat": 47.3762435, "lon": 8.524512}, {"type": "node", "id": 4245900626, "lat": 47.3762528, "lon": 8.5252778}, {"type": "node", "id": 4245900627, "lat": 47.3762558, "lon": 8.5252683}, {"type": "node", "id": 4245900628, "lat": 47.3762685, "lon": 8.5250649}, {"type": "node", "id": 4245900629, "lat": 47.3762726, "lon": 8.5249831}, {"type": "node", "id": 4245900630, "lat": 47.3762776, "lon": 8.5250696}, {"type": "node", "id": 4245900631, "lat": 47.3762783, "lon": 8.5252955}, {"type": "node", "id": 4245900632, "lat": 47.3762971, "lon": 8.5250005}, {"type": "node", "id": 4245900633, "lat": 47.3763335, "lon": 8.5250246}, {"type": "node", "id": 4245900634, "lat": 47.3763371, "lon": 8.5248758}, {"type": "node", "id": 4245900635, "lat": 47.3763548, "lon": 8.5250132}, {"type": "node", "id": 4245900636, "lat": 47.3763561, "lon": 8.5251263}, {"type": "node", "id": 4245900637, "lat": 47.3763624, "lon": 8.5251306}, {"type": "node", "id": 4245900638, "lat": 47.3763724, "lon": 8.5250985}, {"type": "node", "id": 4245900639, "lat": 47.3763848, "lon": 8.5247792}, {"type": "node", "id": 4245900640, "lat": 47.3763871, "lon": 8.524912}, {"type": "node", "id": 4245900641, "lat": 47.3764066, "lon": 8.5255276}, {"type": "node", "id": 4245900642, "lat": 47.3764216, "lon": 8.5251361}, {"type": "node", "id": 4245900643, "lat": 47.3764226, "lon": 8.5251327}, {"type": "node", "id": 4245900644, "lat": 47.3764361, "lon": 8.5251459}, {"type": "node", "id": 4245900645, "lat": 47.3764381, "lon": 8.5251017}, {"type": "node", "id": 4245900646, "lat": 47.3764391, "lon": 8.5250708}, {"type": "node", "id": 4245900647, "lat": 47.3764463, "lon": 8.5250757}, {"type": "node", "id": 4245900648, "lat": 47.3764478, "lon": 8.5251083}, {"type": "node", "id": 4245900649, "lat": 47.3764524, "lon": 8.5246686}, {"type": "node", "id": 4245900650, "lat": 47.3764764, "lon": 8.5252773}, {"type": "node", "id": 4245900651, "lat": 47.3764784, "lon": 8.5248463}, {"type": "node", "id": 4245900652, "lat": 47.376486, "lon": 8.5252839}, {"type": "node", "id": 4245900653, "lat": 47.3764887, "lon": 8.5249122}, {"type": "node", "id": 4245900654, "lat": 47.3765028, "lon": 8.5248671}, {"type": "node", "id": 4245900655, "lat": 47.3765075, "lon": 8.524925}, {"type": "node", "id": 4245900656, "lat": 47.3765088, "lon": 8.5248523}, {"type": "node", "id": 4245900657, "lat": 47.3765204, "lon": 8.5247184}, {"type": "node", "id": 4245900658, "lat": 47.3765822, "lon": 8.5249759}, {"type": "node", "id": 4245900659, "lat": 47.3766034, "lon": 8.5256865}, {"type": "node", "id": 4245900660, "lat": 47.3766369, "lon": 8.5255033}, {"type": "node", "id": 4245900661, "lat": 47.3766783, "lon": 8.5253767}, {"type": "node", "id": 4245900662, "lat": 47.3766967, "lon": 8.5257529}, {"type": "node", "id": 4245900663, "lat": 47.3767211, "lon": 8.5255632}, {"type": "node", "id": 4245900664, "lat": 47.3767231, "lon": 8.5256188}, {"type": "node", "id": 4245900665, "lat": 47.3767255, "lon": 8.5252322}, {"type": "node", "id": 4245900666, "lat": 47.3767276, "lon": 8.5255953}, {"type": "node", "id": 4245900667, "lat": 47.3767376, "lon": 8.5256322}, {"type": "node", "id": 4245900668, "lat": 47.3767421, "lon": 8.5256214}, {"type": "node", "id": 4245900669, "lat": 47.3767624, "lon": 8.5254366}, {"type": "node", "id": 4245900670, "lat": 47.3767666, "lon": 8.5251062}, {"type": "node", "id": 4245900671, "lat": 47.3767706, "lon": 8.5254424}, {"type": "node", "id": 4245900672, "lat": 47.3767957, "lon": 8.5258246}, {"type": "node", "id": 4245900673, "lat": 47.3768107, "lon": 8.5249723}, {"type": "node", "id": 4245900674, "lat": 47.3768115, "lon": 8.5252934}, {"type": "node", "id": 4245900675, "lat": 47.3768178, "lon": 8.5252979}, {"type": "node", "id": 4245900676, "lat": 47.3768526, "lon": 8.5251675}, {"type": "node", "id": 4245900677, "lat": 47.3768593, "lon": 8.5257066}, {"type": "node", "id": 4245900678, "lat": 47.3768679, "lon": 8.5255141}, {"type": "node", "id": 4245900679, "lat": 47.3768795, "lon": 8.5258876}, {"type": "node", "id": 4245900680, "lat": 47.3768806, "lon": 8.5251487}, {"type": "node", "id": 4245900681, "lat": 47.3768906, "lon": 8.5251561}, {"type": "node", "id": 4245900682, "lat": 47.3769385, "lon": 8.5253716}, {"type": "node", "id": 4245900683, "lat": 47.3769447, "lon": 8.5256013}, {"type": "node", "id": 4245900684, "lat": 47.3770055, "lon": 8.5256684}, {"type": "node", "id": 4245900685, "lat": 47.3770198, "lon": 8.525395}, {"type": "node", "id": 4245900686, "lat": 47.3770388, "lon": 8.525415}, {"type": "node", "id": 4245900687, "lat": 47.3770525, "lon": 8.5253424}, {"type": "node", "id": 4245900688, "lat": 47.3770613, "lon": 8.5253671}, {"type": "node", "id": 4245900689, "lat": 47.3770666, "lon": 8.5253573}, {"type": "node", "id": 4245900690, "lat": 47.3771245, "lon": 8.5254404}, {"type": "node", "id": 4245900691, "lat": 47.3771903, "lon": 8.5252634}, {"type": "node", "id": 4245900692, "lat": 47.3771962, "lon": 8.5252855}, {"type": "node", "id": 4246049690, "lat": 47.3770586, "lon": 8.5260066}, {"type": "node", "id": 4246049691, "lat": 47.3771257, "lon": 8.5260545}, {"type": "node", "id": 4246049692, "lat": 47.3771865, "lon": 8.5259486}, {"type": "node", "id": 4246049693, "lat": 47.3771947, "lon": 8.5254906}, {"type": "node", "id": 4246049694, "lat": 47.3772301, "lon": 8.5257763}, {"type": "node", "id": 4246049695, "lat": 47.3772319, "lon": 8.5257897}, {"type": "node", "id": 4246049696, "lat": 47.3772501, "lon": 8.5257408}, {"type": "node", "id": 4246049697, "lat": 47.3772528, "lon": 8.5257548}, {"type": "node", "id": 4246049698, "lat": 47.3772528, "lon": 8.5261491}, {"type": "node", "id": 4246049699, "lat": 47.3772641, "lon": 8.5255731}, {"type": "node", "id": 4246049700, "lat": 47.3772669, "lon": 8.5257066}, {"type": "node", "id": 4246049701, "lat": 47.3772696, "lon": 8.5257193}, {"type": "node", "id": 4246049702, "lat": 47.3772828, "lon": 8.526017}, {"type": "node", "id": 4246049703, "lat": 47.377285, "lon": 8.5253585}, {"type": "node", "id": 4246049704, "lat": 47.3773059, "lon": 8.5260371}, {"type": "node", "id": 4246049705, "lat": 47.3773409, "lon": 8.5254266}, {"type": "node", "id": 4246049706, "lat": 47.3773413, "lon": 8.5260626}, {"type": "node", "id": 4246049707, "lat": 47.3773822, "lon": 8.5260968}, {"type": "node", "id": 4246049708, "lat": 47.3773881, "lon": 8.5260787}, {"type": "node", "id": 4246049709, "lat": 47.3774047, "lon": 8.5257854}, {"type": "node", "id": 4246049710, "lat": 47.3774625, "lon": 8.5257576}, {"type": "node", "id": 4246049711, "lat": 47.3775434, "lon": 8.5258326}, {"type": "node", "id": 4246061191, "lat": 47.3763513, "lon": 8.5264363}, {"type": "node", "id": 4246061192, "lat": 47.3763601, "lon": 8.5264282}, {"type": "node", "id": 4246061193, "lat": 47.3763919, "lon": 8.5265345}, {"type": "node", "id": 4246061194, "lat": 47.376401, "lon": 8.5265266}, {"type": "node", "id": 4246061196, "lat": 47.3765461, "lon": 8.5261581}, {"type": "node", "id": 4246061197, "lat": 47.3765606, "lon": 8.526572}, {"type": "node", "id": 4246061198, "lat": 47.3766702, "lon": 8.5259902}, {"type": "node", "id": 4246061199, "lat": 47.3766925, "lon": 8.5265759, "tags": {"barrier": "gate"}}, {"type": "node", "id": 4246061200, "lat": 47.3766946, "lon": 8.5264219}, {"type": "node", "id": 4246061201, "lat": 47.3768087, "lon": 8.5262599}, {"type": "node", "id": 4246061202, "lat": 47.376854, "lon": 8.5261214}, {"type": "node", "id": 4246061203, "lat": 47.3769575, "lon": 8.5265838}, {"type": "node", "id": 4246061204, "lat": 47.3770143, "lon": 8.5262358}, {"type": "node", "id": 4246061205, "lat": 47.3771733, "lon": 8.5264505}, {"type": "node", "id": 4246086942, "lat": 47.3775263, "lon": 8.5261757}, {"type": "node", "id": 4246086946, "lat": 47.3775503, "lon": 8.5261211}, {"type": "node", "id": 4246086948, "lat": 47.3775714, "lon": 8.5260693}, {"type": "node", "id": 4246086949, "lat": 47.3776048, "lon": 8.5259874}, {"type": "node", "id": 4246086950, "lat": 47.377616, "lon": 8.526414}, {"type": "node", "id": 4246086951, "lat": 47.3776275, "lon": 8.5267315}, {"type": "node", "id": 4246086952, "lat": 47.3776343, "lon": 8.526196}, {"type": "node", "id": 4246086953, "lat": 47.3776331, "lon": 8.5267088}, {"type": "node", "id": 4246086955, "lat": 47.3776984, "lon": 8.5260707}, {"type": "node", "id": 5082670666, "lat": 47.3748923, "lon": 8.5260891, "tags": {"barrier": "gate"}}, {"type": "node", "id": 5082670667, "lat": 47.374818, "lon": 8.5262032}, {"type": "node", "id": 5083782778, "lat": 47.3763782, "lon": 8.5239996}, {"type": "node", "id": 5083782779, "lat": 47.376366, "lon": 8.5240372}, {"type": "node", "id": 5083782780, "lat": 47.3763872, "lon": 8.524006}, {"type": "node", "id": 5083782781, "lat": 47.3763751, "lon": 8.5240436}, {"type": "node", "id": 5083782782, "lat": 47.3764336, "lon": 8.5242122}, {"type": "node", "id": 5083782783, "lat": 47.3764428, "lon": 8.5241837}, {"type": "node", "id": 5083782784, "lat": 47.3764505, "lon": 8.5241891}, {"type": "node", "id": 5083782785, "lat": 47.3764413, "lon": 8.5242176}, {"type": "node", "id": 5083782786, "lat": 47.3764105, "lon": 8.5242824}, {"type": "node", "id": 5083782787, "lat": 47.3764185, "lon": 8.5242881}, {"type": "node", "id": 5083782788, "lat": 47.376422, "lon": 8.524315}, {"type": "node", "id": 5083782789, "lat": 47.3764291, "lon": 8.5242931}, {"type": "node", "id": 5083782790, "lat": 47.376608, "lon": 8.524444}, {"type": "node", "id": 5083782791, "lat": 47.3766146, "lon": 8.5244238}, {"type": "node", "id": 5083782792, "lat": 47.376652, "lon": 8.5244052}, {"type": "node", "id": 5083782793, "lat": 47.3766606, "lon": 8.5244112}, {"type": "node", "id": 5083782794, "lat": 47.3766924, "lon": 8.5242974}, {"type": "node", "id": 5083782795, "lat": 47.3766692, "lon": 8.5243691}, {"type": "node", "id": 5083782796, "lat": 47.3766732, "lon": 8.524372}, {"type": "node", "id": 5083782797, "lat": 47.3767586, "lon": 8.5241409}, {"type": "node", "id": 5083782798, "lat": 47.3767499, "lon": 8.5241348}, {"type": "node", "id": 5083782799, "lat": 47.3765753, "lon": 8.5240097}, {"type": "node", "id": 5083782800, "lat": 47.3767188, "lon": 8.5241108}, {"type": "node", "id": 5083782801, "lat": 47.3765775, "lon": 8.5240028}, {"type": "node", "id": 5083782802, "lat": 47.3767296, "lon": 8.5240775}, {"type": "node", "id": 5083782803, "lat": 47.3767631, "lon": 8.5244199, "tags": {"addr:city": "Z\u00fcrich", "addr:country": "CH", "addr:housenumber": "115", "addr:postcode": "8004", "addr:street": "Stauffacherstrasse"}}, {"type": "node", "id": 5682255970, "lat": 47.3763768, "lon": 8.5265083}, {"type": "node", "id": 5682255971, "lat": 47.37636, "lon": 8.5264677}, {"type": "node", "id": 5682255972, "lat": 47.3763799, "lon": 8.5265055}, {"type": "node", "id": 5682255973, "lat": 47.3763631, "lon": 8.5264649}, {"type": "node", "id": 5682255974, "lat": 47.3765215, "lon": 8.526228}, {"type": "node", "id": 5682255975, "lat": 47.3764423, "lon": 8.526084}, {"type": "node", "id": 5682255976, "lat": 47.376544, "lon": 8.5261566}, {"type": "node", "id": 5682255977, "lat": 47.3765586, "lon": 8.5259066}, {"type": "node", "id": 5682255978, "lat": 47.3765575, "lon": 8.5259098}, {"type": "node", "id": 5682255979, "lat": 47.3764845, "lon": 8.5259458}, {"type": "node", "id": 5682255980, "lat": 47.3764869, "lon": 8.5259475}, {"type": "node", "id": 5682255981, "lat": 47.3771657, "lon": 8.5264979}, {"type": "node", "id": 6723089710, "lat": 47.3775543, "lon": 8.525278}, {"type": "node", "id": 6723089711, "lat": 47.3772464, "lon": 8.5250138}, {"type": "node", "id": 6723089712, "lat": 47.3772414, "lon": 8.5250264}, {"type": "node", "id": 6723089713, "lat": 47.3775493, "lon": 8.5252906}, {"type": "node", "id": 7574983735, "lat": 47.3749436, "lon": 8.526389}, {"type": "node", "id": 8921482202, "lat": 47.3762977, "lon": 8.5245511, "tags": {"entrance": "yes"}}, {"type": "node", "id": 8921609888, "lat": 47.3764913, "lon": 8.5246975, "tags": {"entrance": "yes"}}, {"type": "node", "id": 8921609889, "lat": 47.3764148, "lon": 8.5246426, "tags": {"entrance": "yes"}}, {"type": "way", "id": 4592658, "nodes": [157374998, 157376417, 157376001, 157375148, 29039090, 2261078703, 2261078698, 2261078724, 2261078726, 5082670666, 2953842469, 2953842494, 29039091, 2953842487, 2953842471, 2953842483, 2953842484, 29039092, 2953842489, 2953842482, 442148725, 2261078661, 2261078662, 2261078639, 2261078635, 29039089, 157374998]}, {"type": "way", "id": 15217376, "nodes": [2261078838, 2261078837, 2261078831, 2261078833, 2261078829, 2261078827, 2261078824, 2261078825, 150504883, 150504884, 6723089712, 6723089711, 6723089710, 6723089713, 150504885, 150504880, 2261078838], "tags": {"addr:city": "Z\u00fcrich", "addr:country": "CH", "addr:housename": "Schulhaus Kern", "addr:housenumber": "45", "addr:postcode": "8004", "addr:street": "Kernstrasse", "building": "school", "building:levels": "5"}}, {"type": "way", "id": 15217400, "nodes": [150505469, 2261078818, 2261078820, 2261078816, 2261078814, 150505471, 150505472, 2261078809, 2261078808, 2261078810, 2261078811, 150505473, 150505469], "tags": {"addr:city": "Z\u00fcrich", "addr:country": "CH", "addr:housename": "Turnhalle Kern", "addr:housenumber": "41", "addr:postcode": "8004", "addr:street": "Kernstrasse", "building": "sports_hall", "sport": "multi"}}, {"type": "way", "id": 21856101, "nodes": [442148723, 157375650, 157375651, 157375652, 157375653, 157375645, 157375646, 2261078654, 2261078656, 2261078671, 2261078673, 2261078674, 442148724, 157375648, 2953842475, 2953842463, 2953842474, 2953842462, 2953842481, 157375649, 5082670667, 442148723]}, {"type": "way", "id": 27435500, "nodes": [301223443, 702999085, 301223444, 301223445, 702999083, 4245900563, 301223446, 4245900564, 702999084, 4245900577, 702999082, 4245900570, 301223443], "tags": {"addr:city": "Z\u00fcrich", "addr:country": "CH", "addr:housename": "Schulhaus Kanzlei", "addr:housenumber": "56", "addr:postcode": "8004", "addr:street": "Kanzleistrasse", "building": "school", "building:levels": "4", "note": "Ehemalige Primarschule der Stadt Z\u00fcrich", "roof:levels": "1", "roof:shape": "hipped"}}, {"type": "way", "id": 28420737, "nodes": [312224769, 312224770, 4245900609, 312224773, 4245900608, 4245900607, 312224775, 312224769], "tags": {"addr:city": "Z\u00fcrich", "addr:country": "CH", "addr:housenumber": "9", "addr:postcode": "8004", "addr:street": "Anwandstrasse", "building": "yes"}}, {"type": "way", "id": 28420743, "nodes": [312224770, 4245900614, 312225197, 4245900613, 312225199, 312225201, 312224773, 4245900609, 312224770], "tags": {"addr:city": "Z\u00fcrich", "addr:country": "CH", "addr:housenumber": "26", "addr:postcode": "8004", "addr:street": "Kernstrasse", "building": "yes"}}, {"type": "way", "id": 28420773, "nodes": [312225199, 312225482, 312225484, 4245900602, 4245900603, 312225201, 312225199], "tags": {"addr:city": "Z\u00fcrich", "addr:country": "CH", "addr:housenumber": "24", "addr:postcode": "8004", "addr:street": "Kernstrasse", "building": "yes"}}, {"type": "way", "id": 28438887, "nodes": [312225482, 312225484, 808458805, 312458293, 312458294, 312225482], "tags": {"addr:city": "Z\u00fcrich", "addr:country": "CH", "addr:housenumber": "80", "addr:postcode": "8004", "addr:street": "Kanzleistrasse", "building": "yes"}}, {"type": "way", "id": 38001063, "nodes": [446305375, 4245900547, 446305376, 702999089, 4245900545, 702999088, 4245900541, 446305375], "tags": {"addr:city": "Z\u00fcrich", "addr:country": "CH", "addr:housenumber": "52", "addr:postcode": "8004", "addr:street": "Kanzleistrasse", "building": "yes"}}, {"type": "way", "id": 39985864, "nodes": [4246061204, 480426249, 2015772181, 920508326, 4246061205, 920508521, 5682255981, 920508356, 920508460, 480426250, 4246061203, 2015772178, 1486118366, 4246061204], "tags": {"building": "public", "name": "Kollerhof", "owner": "Immobilien Stadt Z\u00fcrich (IMMO)"}}, {"type": "way", "id": 56004913, "nodes": [702999091, 702999087, 702999086, 702999090, 2956815183, 702999091], "tags": {"addr:housenumber": "54", "addr:street": "Kanzleistrasse", "amenity": "nightclub", "building": "yes", "name": "Kanzlei Turnhalle", "roof:shape": "hipped", "wheelchair": "limited"}}, {"type": "way", "id": 66923069, "nodes": [4245900576, 4245900572, 4245900568, 4245900559, 848938905, 4245900562, 4245900576], "tags": {"addr:city": "Z\u00fcrich", "addr:country": "CH", "addr:housenumber": "72", "addr:postcode": "8004", "addr:street": "Kanzleistrasse", "building": "residential", "owner": "Stiftung PWG", "start_date": "2004"}}, {"type": "way", "id": 66923071, "nodes": [4245900591, 4245900593, 4245900592, 808458804, 808458843, 813914299, 4245900601, 4245900591], "tags": {"addr:city": "Z\u00fcrich", "addr:country": "CH", "addr:housenumber": "5", "addr:postcode": "8004", "addr:street": "Anwandstrasse", "building": "yes"}}, {"type": "way", "id": 67396136, "nodes": [813914241, 813914443, 8921482202, 4245900625, 813914278, 4245900621, 813914241], "tags": {"addr:city": "Z\u00fcrich", "addr:country": "CH", "addr:housenumber": "32", "addr:postcode": "8004", "addr:street": "Kernstrasse", "building": "apartments", "owner": "Stiftung PWG", "start_date": "1891"}}, {"type": "way", "id": 67396137, "nodes": [4245900611, 4245900623, 4245900631, 4245900626, 4245900627, 869269134, 4245900620, 4245900619, 4245900615, 4245900611], "tags": {"building": "yes"}}, {"type": "way", "id": 67396139, "nodes": [813914348, 813914226, 813914434, 813914394, 813914348], "tags": {"addr:city": "Z\u00fcrich", "addr:country": "CH", "addr:housenumber": "7", "addr:postcode": "8004", "addr:street": "Anwandstrasse", "building": "yes"}}, {"type": "way", "id": 67396141, "nodes": [813914209, 813914353, 813914196, 813914266, 813914209], "tags": {"addr:city": "Z\u00fcrich", "addr:country": "CH", "addr:housenumber": "8", "addr:postcode": "8004", "addr:street": "Anwandstrasse", "building": "yes"}}, {"type": "way", "id": 71339955, "nodes": [4245900515, 848939045, 848938848, 848938976, 4245900527, 4245900530, 848939095, 4245900512, 4245900514, 4245900511, 4245900513, 4245900515], "tags": {"addr:city": "Z\u00fcrich", "addr:country": "CH", "addr:housenumber": "57", "addr:postcode": "8004", "addr:street": "Kanzleistrasse", "building": "yes"}}, {"type": "way", "id": 71339962, "nodes": [4245900540, 4245900532, 4245900534, 848938992, 4245900528, 4245900525, 4245900524, 4245900523, 848938741, 4245900520, 4245900522, 4245900536, 4245900540], "tags": {"building": "yes"}}, {"type": "way", "id": 71339968, "nodes": [848939033, 4245900529, 848938848, 848939045, 848938649, 848939033], "tags": {"addr:city": "Z\u00fcrich", "addr:country": "CH", "addr:housenumber": "53", "addr:postcode": "8004", "addr:street": "Kanzleistrasse", "building": "yes"}}, {"type": "way", "id": 71339970, "nodes": [848938789, 848938624, 848939019, 848938878, 848938644, 848938789], "tags": {"addr:city": "Z\u00fcrich", "addr:country": "CH", "addr:housenumber": "61", "addr:postcode": "8004", "addr:street": "Ankerstrasse", "building": "yes"}}, {"type": "way", "id": 71339971, "nodes": [848938766, 4245900519, 848939117, 848938822, 848939034, 848938766], "tags": {"addr:city": "Z\u00fcrich", "addr:country": "CH", "addr:housenumber": "65", "addr:postcode": "8004", "addr:street": "Ankerstrasse", "building": "yes"}}, {"type": "way", "id": 71339975, "nodes": [848938963, 4245900583, 4245900581, 4245900579, 848938722, 4245900578, 848938998, 848938621, 848938963], "tags": {"addr:city": "Z\u00fcrich", "addr:country": "CH", "addr:housenumber": "33", "addr:postcode": "8004", "addr:street": "Langstrasse", "building": "yes"}}, {"type": "way", "id": 73285915, "nodes": [4245900655, 4245900653, 4245900646, 4245900647, 4245900645, 4245900648, 4245900644, 4245900642, 4245900643, 4245900638, 4245900637, 4245900636, 869269167, 869269130, 4245900650, 4245900652, 869269165, 869269127, 4245900658, 4245900655], "tags": {"building": "yes"}}, {"type": "way", "id": 73305973, "nodes": [869461482, 3477874433, 3477874431, 920552760, 869460962, 869461179, 3477874424, 3477874426, 869461367, 869461482], "tags": {"building": "yes", "building:colour": "#d14836", "building:levels": "4", "building:material": "plaster", "roof:levels": "1", "roof:shape": "gabled"}}, {"type": "way", "id": 73305982, "nodes": [869461402, 869460857, 869461087, 4246086951, 4246086953, 869461312, 869461402], "tags": {"addr:city": "Z\u00fcrich", "addr:country": "CH", "addr:housenumber": "80", "addr:postcode": "8004", "addr:street": "Langstrasse", "building": "yes", "building:colour": "#d14836", "building:levels": "3", "building:material": "plaster", "roof:levels": "1", "roof:shape": "gabled"}}, {"type": "way", "id": 73306014, "nodes": [3477874414, 871794832, 4246049695, 4246049694, 4246049697, 4246049696, 4246049701, 4246049700, 3477874420, 869460960, 4246049699, 4246049693, 3477874411, 3477874414], "tags": {"building": "apartments"}}, {"type": "way", "id": 73306071, "nodes": [4246049709, 869461556, 869460854, 869461080, 4246049709], "tags": {"building": "yes"}}, {"type": "way", "id": 73549813, "nodes": [4246049711, 871794858, 869461050, 871794827, 869461290, 3477874429, 3477874430, 4246049710, 4246049711], "tags": {"building": "yes"}}, {"type": "way", "id": 135309642, "nodes": [4005581156, 1486118351, 1486118357, 5682255974, 5682255976, 5682255975, 480426252, 4246061192, 4246061191, 5682255973, 5682255971, 5682255970, 5682255972, 4246061193, 4246061194, 28137444, 920508413, 4246061197, 4005581156], "tags": {"building": "yes"}}, {"type": "way", "id": 144918692, "nodes": [1584002021, 845207539, 845207229, 845207387, 1584002037, 845207267, 845207437, 5083782803, 1584002027, 845207213, 1417968679, 1584002010, 5083782781, 5083782779, 5083782778, 5083782780, 1584002017, 1584002022, 845207559, 5083782784, 5083782783, 5083782782, 5083782785, 5083782787, 5083782786, 1584002019, 5083782788, 5083782789, 5083782791, 5083782790, 1584002024, 5083782792, 5083782793, 5083782796, 5083782795, 5083782794, 1584002028, 5083782798, 5083782797, 1584002030, 5083782802, 5083782800, 5083782799, 5083782801, 1584002018, 1584002021], "tags": {"building": "yes"}}, {"type": "way", "id": 144923059, "nodes": [4245900662, 4245900659, 1584034577, 869269142, 869269126, 4245900660, 4245900663, 1584034601, 4245900666, 4245900664, 4245900667, 4245900662], "tags": {"building": "yes"}}, {"type": "way", "id": 144923064, "nodes": [1584034738, 4245900687, 4245900689, 4245900688, 4245900686, 4245900685, 1584034685, 4245900682, 1584034647, 1584034704, 1584034738], "tags": {"addr:city": "Z\u00fcrich", "addr:country": "CH", "addr:housenumber": "48", "addr:postcode": "8004", "addr:street": "Kernstrasse", "building": "yes"}}, {"type": "way", "id": 146238771, "nodes": [1595201418, 1595201577, 1595201786, 1595201603, 1595201201, 1595201291, 1595201418], "tags": {"addr:city": "Z\u00fcrich", "addr:country": "CH", "addr:housenumber": "21", "addr:postcode": "8004", "addr:street": "Langstrasse", "building": "office", "building:levels": "6", "roof:levels": "0"}}, {"type": "way", "id": 146238774, "nodes": [1595200901, 4245900503, 4245900506, 1595200990, 1595200941, 1595200835, 1595200881, 1595200901], "tags": {"addr:city": "Z\u00fcrich", "addr:country": "CH", "addr:housenumber": "11", "addr:postcode": "8004", "addr:street": "Langstrasse", "building": "yes"}}, {"type": "way", "id": 146238777, "nodes": [1595200990, 1595201112, 1595201050, 1595200941, 1595200990], "tags": {"addr:city": "Z\u00fcrich", "addr:country": "CH", "addr:housenumber": "13", "addr:postcode": "8004", "addr:street": "Langstrasse", "building": "yes"}}, {"type": "way", "id": 146241190, "nodes": [734228387, 1595224518, 4245900641, 1595224503, 1595224488, 734228387], "tags": {"building": "apartments"}}, {"type": "way", "id": 291873834, "nodes": [2953842493, 2953842470, 2953842479, 7574983735, 2953842493]}, {"type": "way", "id": 291873837, "nodes": [2953842495, 2953842492, 2953842488, 2953842466, 2953842465, 2953842477, 2953842485, 2953842480, 2953842495]}, {"type": "way", "id": 291873841, "nodes": [2953842490, 2953842467, 2953842464, 2953842478, 2953842472, 2953842491, 2953842473, 2953842468, 2953842490]}, {"type": "way", "id": 292139177, "nodes": [2956813595, 2956813598, 2956813599, 2956813596, 2956813595], "tags": {"addr:city": "Z\u00fcrich", "addr:country": "CH", "addr:housenumber": "38", "addr:postcode": "8004", "addr:street": "Langstrasse", "building": "shed"}}, {"type": "way", "id": 292139391, "nodes": [2956815315, 2956815318, 2956815319, 2956815316, 2956815315], "tags": {"addr:city": "Z\u00fcrich", "addr:country": "CH", "addr:housenumber": "34", "addr:postcode": "8004", "addr:street": "Langstrasse", "building": "shed"}}, {"type": "way", "id": 292139481, "nodes": [2956817195, 4245900558, 4245900556, 2956815314, 2956817195], "tags": {"addr:housenumber": "30", "addr:street": "Langstrasse", "building": "service", "building:levels": "1", "check_date:wheelchair": "2022-05-31", "disused:amenity": "toilets", "fee": "no", "female": "no", "male": "yes", "name": "Pissoir Obere Langstrasse", "opening_hours": "24/7", "operator": "Z\u00fcriWC", "toilets:position": "urinal", "wheelchair": "no"}}, {"type": "way", "id": 292688494, "nodes": [2962270492, 2962270493, 2962270494, 2962270491, 2962270492], "tags": {"addr:city": "Z\u00fcrich", "addr:country": "CH", "addr:housenumber": "36", "addr:postcode": "8004", "addr:street": "Langstrasse", "building": "roof"}}, {"type": "way", "id": 340549178, "nodes": [3477874428, 869461290, 3477874429, 3477874423, 3477874428], "tags": {"addr:city": "Z\u00fcrich", "addr:country": "CH", "addr:housenumber": "56", "addr:postcode": "8004", "addr:street": "Kernstrasse", "building": "industrial"}}, {"type": "way", "id": 425261685, "nodes": [4245900621, 4245900617, 813914170, 813914241, 4245900621], "tags": {"addr:city": "Z\u00fcrich", "addr:country": "CH", "addr:housenumber": "10", "addr:postcode": "8004", "addr:street": "Anwandstrasse", "building": "yes"}}, {"type": "way", "id": 425261686, "nodes": [4245900629, 4245900634, 4245900640, 4245900635, 4245900633, 4245900632, 4245900629], "tags": {"addr:city": "Z\u00fcrich", "addr:country": "CH", "addr:housenumber": "101a", "addr:postcode": "8004", "addr:street": "Stauffacherstrasse", "building": "yes"}}, {"type": "way", "id": 425261687, "nodes": [4245900539, 848938973, 848939090, 4245900531, 4245900539], "tags": {"addr:city": "Z\u00fcrich", "addr:country": "CH", "addr:housenumber": "3", "addr:postcode": "8004", "addr:street": "Bauhallengasse", "building": "yes"}}, {"type": "way", "id": 425261688, "nodes": [4245900601, 4245900598, 4245900596, 808458858, 808458845, 808458808, 4245900591, 4245900601], "tags": {"addr:city": "Z\u00fcrich", "addr:country": "CH", "addr:housenumber": "35", "addr:postcode": "8004", "addr:street": "Langstrasse", "building": "yes"}}, {"type": "way", "id": 425261689, "nodes": [4245900651, 4245900654, 4245900656, 734228385, 4245900655, 4245900658, 734228381, 845207380, 4245900657, 4245900651], "tags": {"addr:city": "Z\u00fcrich", "addr:country": "CH", "addr:housenumber": "38", "addr:postcode": "8004", "addr:street": "Kernstrasse", "building": "apartments"}}, {"type": "way", "id": 425261691, "nodes": [4245900623, 1595224488, 734228387, 4245900631, 4245900623], "tags": {"building": "yes"}}, {"type": "way", "id": 425261692, "nodes": [4245900499, 4245900508, 4245900504, 4245900502, 4245900500, 4245900497, 4245900499], "tags": {"addr:city": "Z\u00fcrich", "addr:country": "CH", "addr:housenumber": "57", "addr:postcode": "8004", "addr:street": "Ankerstrasse", "building": "yes"}}, {"type": "way", "id": 425261693, "nodes": [4245900672, 4245900662, 4245900667, 4245900668, 4245900677, 4245900672], "tags": {"addr:city": "Z\u00fcrich", "addr:country": "CH", "addr:housenumber": "61", "addr:postcode": "8004", "addr:street": "Langstrasse", "building": "yes"}}, {"type": "way", "id": 425261694, "nodes": [4245900513, 848938878, 848939019, 4245900507, 4245900510, 4245900515, 4245900513], "tags": {"addr:city": "Z\u00fcrich", "addr:country": "CH", "addr:housenumber": "63", "addr:postcode": "8004", "addr:street": "Ankerstrasse", "building": "yes"}}, {"type": "way", "id": 425261695, "nodes": [4245900590, 4245900589, 4245900585, 4245900587, 4245900590], "tags": {"addr:housenumber": "79", "addr:street": "Stauffacherstrasse", "building": "yes"}}, {"type": "way", "id": 425261696, "nodes": [4245900600, 4245900599, 4245900595, 4245900597, 4245900600], "tags": {"addr:housenumber": "7a", "addr:street": "Anwandstrasse", "building": "yes"}}, {"type": "way", "id": 425261697, "nodes": [4245900632, 4245900630, 4245900628, 4245900624, 4245900622, 4245900629, 4245900632], "tags": {"addr:housenumber": "99a", "addr:street": "Stauffacherstrasse", "building": "yes"}}, {"type": "way", "id": 425261698, "nodes": [4245900670, 869269151, 4245900673, 1584034620, 1584034656, 4245900681, 4245900680, 1584034632, 1584034630, 4245900676, 4245900670], "tags": {"building": "yes"}}, {"type": "way", "id": 425261699, "nodes": [4245900690, 871794835, 4245900684, 4245900683, 4245900678, 4245900682, 1584034685, 4245900685, 4245900686, 4245900688, 4245900690], "tags": {"building": "apartments"}}, {"type": "way", "id": 425261700, "nodes": [808458842, 4245900571, 4245900569, 4245900573, 4245900566, 808458829, 4245900554, 848938637, 4245900557, 4245900560, 4245900561, 4245900565, 808458842], "tags": {"addr:city": "Z\u00fcrich", "addr:country": "CH", "addr:housenumber": "70", "addr:postcode": "8004", "addr:street": "Kanzleistrasse", "building": "residential", "owner": "Stiftung PWG", "start_date": "1890"}}, {"type": "way", "id": 425261701, "nodes": [1595201201, 4245900538, 4245900549, 1595201603, 1595201201], "tags": {"building": "roof", "layer": "1"}}, {"type": "way", "id": 425261702, "nodes": [4245900676, 4245900674, 4245900665, 869269168, 4245900670, 4245900676], "tags": {"building": "yes"}}, {"type": "way", "id": 425261703, "nodes": [4245900660, 869269162, 4245900661, 4245900669, 4245900663, 4245900660], "tags": {"building": "yes"}}, {"type": "way", "id": 425261704, "nodes": [4245900649, 8921609889, 734228382, 734228384, 4245900639, 4245900649], "tags": {"addr:city": "Z\u00fcrich", "addr:country": "CH", "addr:housenumber": "34", "addr:postcode": "8004", "addr:street": "Kernstrasse", "building": "yes"}}, {"type": "way", "id": 425261705, "nodes": [4245900562, 848939092, 4245900567, 4245900580, 4245900576, 4245900562], "tags": {"addr:city": "Z\u00fcrich", "addr:country": "CH", "addr:housenumber": "76", "addr:postcode": "8004", "addr:street": "Kanzleistrasse", "building": "yes"}}, {"type": "way", "id": 425261707, "nodes": [4245900572, 4245900575, 808458842, 4245900565, 4245900568, 4245900572], "tags": {"building": "roof", "layer": "1"}}, {"type": "way", "id": 425261708, "nodes": [4245900639, 4245900651, 4245900657, 8921609888, 4245900649, 4245900639], "tags": {"addr:city": "Z\u00fcrich", "addr:country": "CH", "addr:housenumber": "36", "addr:postcode": "8004", "addr:street": "Kernstrasse", "building": "yes"}}, {"type": "way", "id": 425261709, "nodes": [1595201786, 4245900555, 4245900550, 1595201603, 1595201786], "tags": {"building": "roof", "layer": "1"}}, {"type": "way", "id": 425261710, "nodes": [4245900573, 4245900574, 808458800, 848938814, 808458863, 4245900566, 4245900573], "tags": {"addr:city": "Z\u00fcrich", "addr:country": "CH", "addr:housenumber": "31", "addr:postcode": "8004", "addr:street": "Langstrasse", "building": "yes"}}, {"type": "way", "id": 425261711, "nodes": [4245900505, 4245900509, 848938826, 4245900501, 4245900498, 848938696, 4245900505], "tags": {"building": "yes"}}, {"type": "way", "id": 425261714, "nodes": [4245900674, 4245900675, 4245900671, 4245900669, 4245900661, 869269143, 4245900665, 4245900674], "tags": {"building": "yes"}}, {"type": "way", "id": 425261716, "nodes": [4245900523, 848939128, 4245900505, 848938696, 848938983, 848939062, 848938741, 4245900523], "tags": {"building": "yes"}}, {"type": "way", "id": 425261718, "nodes": [4245900684, 871794866, 1584034644, 4245900679, 4245900672, 4245900677, 1584034633, 4245900683, 4245900684], "tags": {"building": "apartments"}}, {"type": "way", "id": 425261719, "nodes": [4245900615, 813914457, 813914516, 813914247, 813914365, 4245900606, 1595224464, 4245900611, 4245900615], "tags": {"building": "yes"}}, {"type": "way", "id": 425261720, "nodes": [4245900546, 4245900548, 848938961, 848938704, 4245900540, 4245900536, 848939006, 4245900542, 4245900546], "tags": {"building": "yes"}}, {"type": "way", "id": 425261721, "nodes": [4245900567, 848938796, 312458293, 808458805, 4245900584, 4245900588, 4245900586, 4245900582, 4245900580, 4245900567], "tags": {"addr:city": "Z\u00fcrich", "addr:country": "CH", "addr:housenumber": "78", "addr:postcode": "8004", "addr:street": "Kanzleistrasse", "building": "yes"}}, {"type": "way", "id": 425261723, "nodes": [848939006, 848938627, 4245900537, 848938955, 4245900543, 848939070, 848938769, 4245900546, 4245900542, 848939006], "tags": {"building": "yes"}}, {"type": "way", "id": 425261724, "nodes": [4245900688, 4245900689, 4245900687, 1584034738, 871794846, 4245900691, 4245900692, 1584034741, 4245900690, 4245900688], "tags": {"building": "apartments"}}, {"type": "way", "id": 425286714, "nodes": [4246049698, 3477874421, 3477874425, 871794856, 871794845, 4246049707, 4246049708, 871794837, 4246049706, 4246049704, 4246049698], "tags": {"building": "yes"}}, {"type": "way", "id": 425286715, "nodes": [3477874419, 869461177, 869461456, 871794848, 4246049705, 3477874419], "tags": {"building": "apartments"}}, {"type": "way", "id": 425286716, "nodes": [4246049710, 871794867, 871794852, 871794825, 4246049711, 4246049710], "tags": {"building": "yes"}}, {"type": "way", "id": 425286717, "nodes": [4246049690, 871794868, 4246049691, 4246049692, 869461674, 4246049690], "tags": {"building": "yes"}}, {"type": "way", "id": 425286718, "nodes": [4246049705, 4246049703, 869461355, 4246049693, 4246049699, 3477874419, 4246049705], "tags": {"addr:city": "Z\u00fcrich", "addr:country": "CH", "addr:housenumber": "10", "addr:postcode": "8004", "addr:street": "Marmorgasse", "building": "apartments"}}, {"type": "way", "id": 425286719, "nodes": [3477874411, 3477874404, 871794861, 4246049690, 869461674, 3477874413, 3477874412, 3477874414, 3477874411], "tags": {"building": "apartments"}}, {"type": "way", "id": 425286720, "nodes": [4246049691, 871794853, 4246049698, 4246049704, 4246049702, 869461430, 3477874418, 3477874416, 4246049692, 4246049691], "tags": {"building": "yes"}}, {"type": "way", "id": 425288501, "nodes": [4246061197, 920508304, 4246061199, 4246061200, 4005581156, 4246061197], "tags": {"building": "yes"}}, {"type": "way", "id": 425288503, "nodes": [2015772164, 4246061201, 4246061202, 871794849, 4246061198, 2015772164], "tags": {"building": "yes"}}, {"type": "way", "id": 425288504, "nodes": [4246061199, 920508463, 4246061203, 2015772178, 4005581158, 4005581157, 4246061200, 4246061199], "tags": {"building": "yes"}}, {"type": "way", "id": 425288505, "nodes": [4246061201, 2015772171, 2015772175, 1486118366, 4246061204, 871794830, 4246061202, 4246061201], "tags": {"building": "office"}}, {"type": "way", "id": 425288506, "nodes": [4246061196, 1486118355, 2015772161, 2015772164, 4246061198, 5682255978, 5682255977, 480426254, 5682255979, 5682255980, 5682255975, 5682255976, 4246061196], "tags": {"building": "yes"}}, {"type": "way", "id": 425291469, "nodes": [4246086955, 3477874435, 4246086952, 4246086946, 4246086948, 4246086949, 4246086955], "tags": {"building": "yes"}}, {"type": "way", "id": 425291471, "nodes": [4246086952, 869461496, 1241219735, 4246086950, 3477874432, 869461534, 871794854, 4246086942, 4246086946, 4246086952], "tags": {"building": "residential", "owner": "Stiftung PWG", "start_date": "1892"}}, {"type": "relation", "id": 4436, "members": [{"type": "way", "ref": 4592658, "role": "outer"}, {"type": "way", "ref": 21856101, "role": "inner"}, {"type": "way", "ref": 291873834, "role": "inner"}, {"type": "way", "ref": 291873841, "role": "inner"}, {"type": "way", "ref": 291873837, "role": "inner"}], "tags": {"building": "public", "name": "Bezirksgeb\u00e4ude", "type": "multipolygon", "wikidata": "Q29933529"}}]}