{"version": 0.6, "generator": "Overpass API 0.7.60.6 e2dc3e5b", "osm3s": {"timestamp_osm_base": "2023-06-29T15:20:01Z", "copyright": "The data included in this document is from www.openstreetmap.org. The data is made available under ODbL."}, "elements": [{"type": "node", "id": 850608018, "lat": 47.3708936, "lon": 8.5282947}, {"type": "node", "id": 850608020, "lat": 47.370926, "lon": 8.5284307}, {"type": "node", "id": 850608022, "lat": 47.3711841, "lon": 8.5277904}, {"type": "node", "id": 850608059, "lat": 47.3707741, "lon": 8.5280921}, {"type": "node", "id": 850608090, "lat": 47.3710278, "lon": 8.5277442}, {"type": "node", "id": 850608115, "lat": 47.371025, "lon": 8.5276095}, {"type": "node", "id": 850608136, "lat": 47.370932, "lon": 8.5278164}, {"type": "node", "id": 850608153, "lat": 47.3707714, "lon": 8.5281732}, {"type": "node", "id": 850608172, "lat": 47.3706652, "lon": 8.5281279}, {"type": "node", "id": 850608189, "lat": 47.3711273, "lon": 8.5272806}, {"type": "node", "id": 850608191, "lat": 47.3712775, "lon": 8.527459}, {"type": "node", "id": 850608194, "lat": 47.3709071, "lon": 8.5279949}, {"type": "node", "id": 850608229, "lat": 47.3712675, "lon": 8.5276988}, {"type": "node", "id": 850608284, "lat": 47.3711062, "lon": 8.5278623}, {"type": "node", "id": 2184663791, "lat": 47.3712194, "lon": 8.5280187}, {"type": "node", "id": 2184663793, "lat": 47.3712221, "lon": 8.5280329}, {"type": "node", "id": 2184663795, "lat": 47.3712362, "lon": 8.5279802}, {"type": "node", "id": 2184663797, "lat": 47.3712464, "lon": 8.5279771}, {"type": "node", "id": 2184663800, "lat": 47.3712482, "lon": 8.5280576}, {"type": "node", "id": 2184663802, "lat": 47.3712578, "lon": 8.5280551}, {"type": "node", "id": 2184663804, "lat": 47.3712724, "lon": 8.5280018}, {"type": "node", "id": 2184663806, "lat": 47.3712746, "lon": 8.5280165}, {"type": "node", "id": 2261078237, "lat": 47.3705539, "lon": 8.5281372}, {"type": "node", "id": 2261078238, "lat": 47.3705736, "lon": 8.5281832}, {"type": "node", "id": 2261078260, "lat": 47.3709484, "lon": 8.528298}, {"type": "node", "id": 2261078261, "lat": 47.37095, "lon": 8.5278175}, {"type": "node", "id": 2261078263, "lat": 47.3709608, "lon": 8.5279978, "tags": {"entrance": "yes"}}, {"type": "node", "id": 2261078271, "lat": 47.3710822, "lon": 8.5278063}, {"type": "node", "id": 3163049265, "lat": 47.3708046, "lon": 8.5278742, "tags": {"entrance": "yes"}}, {"type": "node", "id": 3163051061, "lat": 47.3712717, "lon": 8.5276393, "tags": {"entrance": "yes"}}, {"type": "node", "id": 3457057809, "lat": 47.3706978, "lon": 8.5277482}, {"type": "node", "id": 3457057816, "lat": 47.3707664, "lon": 8.5276213}, {"type": "node", "id": 3457057826, "lat": 47.370843, "lon": 8.5279193}, {"type": "node", "id": 3457057832, "lat": 47.3709116, "lon": 8.5277924}, {"type": "node", "id": 3457057835, "lat": 47.3709598, "lon": 8.5278076}, {"type": "node", "id": 3457057838, "lat": 47.3710184, "lon": 8.5279444}, {"type": "node", "id": 3457057843, "lat": 47.3710915, "lon": 8.5273453}, {"type": "node", "id": 3457057846, "lat": 47.3711396, "lon": 8.5274036}, {"type": "node", "id": 3460480363, "lat": 47.3704622, "lon": 8.5282227}, {"type": "node", "id": 3460480365, "lat": 47.3705353, "lon": 8.5283935}, {"type": "node", "id": 3460480370, "lat": 47.3706079, "lon": 8.52806}, {"type": "node", "id": 3460480372, "lat": 47.3706355, "lon": 8.5281255}, {"type": "node", "id": 3460480373, "lat": 47.3706434, "lon": 8.5281483}, {"type": "node", "id": 3460480374, "lat": 47.3706621, "lon": 8.5279598}, {"type": "node", "id": 3460480376, "lat": 47.3706875, "lon": 8.5282514}, {"type": "node", "id": 3460480381, "lat": 47.3708039, "lon": 8.5283783}, {"type": "node", "id": 3460480386, "lat": 47.3708548, "lon": 8.5284972}, {"type": "node", "id": 3460480397, "lat": 47.3709507, "lon": 8.5284597}, {"type": "node", "id": 3460480400, "lat": 47.3710032, "lon": 8.5283623}, {"type": "node", "id": 4971975816, "lat": 47.3712348, "lon": 8.5280449, "tags": {"amenity": "clock", "display": "analog", "faces": "1", "operator": "EWZ", "support": "wall_mounted", "visibility": "street"}}, {"type": "node", "id": 7626654020, "lat": 47.3712667, "lon": 8.5277076}, {"type": "node", "id": 7626654021, "lat": 47.3712617, "lon": 8.5277172}, {"type": "node", "id": 7626654022, "lat": 47.3712648, "lon": 8.5277134}, {"type": "node", "id": 7626654023, "lat": 47.3712835, "lon": 8.5274772}, {"type": "node", "id": 7626654024, "lat": 47.3712808, "lon": 8.5274643}, {"type": "node", "id": 7626654025, "lat": 47.3712829, "lon": 8.5274707}, {"type": "node", "id": 7626654026, "lat": 47.3712594, "lon": 8.5277197}, {"type": "node", "id": 7626654027, "lat": 47.3712835, "lon": 8.5274881}, {"type": "node", "id": 7626654028, "lat": 47.371177, "lon": 8.5273371}, {"type": "node", "id": 7626654029, "lat": 47.3711758, "lon": 8.5273394}, {"type": "node", "id": 7629924190, "lat": 47.3709486, "lon": 8.5284572}, {"type": "node", "id": 7629924193, "lat": 47.3706095, "lon": 8.5280619}, {"type": "node", "id": 7629924196, "lat": 47.3706447, "lon": 8.5281471}, {"type": "way", "id": 71504807, "nodes": [850608022, 850608115, 3457057846, 3457057843, 850608189, 7626654029, 7626654028, 850608191, 7626654024, 7626654025, 7626654023, 7626654027, 3163051061, 850608229, 7626654020, 7626654022, 7626654021, 7626654026, 850608022], "tags": {"addr:city": "Z\u00fcrich", "addr:country": "CH", "addr:housenumber": "29", "addr:postcode": "8004", "addr:street": "Morgartenstrasse", "building": "civic"}}, {"type": "way", "id": 179138146, "nodes": [2184663795, 2184663791, 2184663793, 4971975816, 2184663800, 2184663802, 2184663806, 2184663804, 2184663797, 2184663795], "tags": {"addr:city": "Z\u00fcrich", "addr:country": "CH", "addr:housenumber": "1", "addr:postcode": "8004", "addr:street": "Hallwylplatz", "building": "service", "building:levels": "1"}}, {"type": "way", "id": 338596595, "nodes": [850608090, 3457057835, 3457057838, 850608284, 2261078271, 850608090], "tags": {"addr:city": "Z\u00fcrich", "addr:country": "CH", "addr:housenumber": "17", "addr:postcode": "8004", "addr:street": "Weberstrasse", "building": "apartments"}}, {"type": "way", "id": 338596613, "nodes": [3457057832, 3457057816, 3457057809, 3163049265, 3457057826, 3457057832], "tags": {"addr:city": "Z\u00fcrich", "addr:country": "CH", "addr:housenumber": "56", "addr:postcode": "8004", "addr:street": "Hallwylstrasse", "building": "apartments"}}, {"type": "way", "id": 338596618, "nodes": [3457057835, 2261078261, 850608136, 3457057832, 3457057826, 850608194, 2261078263, 3457057838, 3457057835], "tags": {"addr:city": "Z\u00fcrich", "addr:country": "CH", "addr:housenumber": "54", "addr:postcode": "8004", "addr:street": "Hallwylstrasse", "building": "apartments"}}, {"type": "way", "id": 338896065, "nodes": [3460480376, 3460480365, 3460480363, 2261078237, 2261078238, 3460480372, 7629924196, 3460480373, 3460480376], "tags": {"addr:city": "Z\u00fcrich", "addr:country": "CH", "addr:housenumber": "9", "addr:postcode": "8004", "addr:street": "Weberstrasse", "building": "apartments"}}, {"type": "way", "id": 338896070, "nodes": [2261078260, 3460480400, 3460480397, 7629924190, 850608020, 3460480386, 3460480381, 850608018, 2261078260], "tags": {"addr:city": "Z\u00fcrich", "addr:country": "CH", "addr:housenumber": "14", "addr:postcode": "8004", "addr:street": "Weberstrasse", "building": "apartments"}}, {"type": "way", "id": 338896071, "nodes": [850608172, 7629924193, 3460480370, 3460480374, 850608059, 850608153, 3460480376, 3460480373, 7629924196, 850608172], "tags": {"addr:city": "Z\u00fcrich", "addr:country": "CH", "addr:housenumber": "11", "addr:postcode": "8004", "addr:street": "Weberstrasse", "building": "apartments"}}]}