{"version": 0.6, "generator": "Overpass API 0.7.60.6 e2dc3e5b", "osm3s": {"timestamp_osm_base": "2023-06-29T15:25:05Z", "copyright": "The data included in this document is from www.openstreetmap.org. The data is made available under ODbL."}, "elements": [{"type": "node", "id": 92485362, "lat": 47.3742151, "lon": 8.5387159}, {"type": "node", "id": 693318519, "lat": 47.3743397, "lon": 8.540097, "tags": {"addr:city": "Z\u00fcrich", "addr:country": "CH", "addr:housenumber": "7", "addr:postcode": "8001", "addr:street": "Uraniastrasse"}}, {"type": "node", "id": 921917318, "lat": 47.3744209, "lon": 8.5392555}, {"type": "node", "id": 921917323, "lat": 47.3740863, "lon": 8.5402504}, {"type": "node", "id": 921917327, "lat": 47.3744104, "lon": 8.5395539}, {"type": "node", "id": 921917334, "lat": 47.3739785, "lon": 8.5389065}, {"type": "node", "id": 921917337, "lat": 47.3740984, "lon": 8.5389516}, {"type": "node", "id": 921917338, "lat": 47.3743357, "lon": 8.5402583}, {"type": "node", "id": 921917339, "lat": 47.374188, "lon": 8.5394738}, {"type": "node", "id": 921917340, "lat": 47.3742399, "lon": 8.5395436}, {"type": "node", "id": 921917342, "lat": 47.3744306, "lon": 8.539025}, {"type": "node", "id": 921917350, "lat": 47.3740055, "lon": 8.5392279}, {"type": "node", "id": 921917359, "lat": 47.3744273, "lon": 8.5388253}, {"type": "node", "id": 921917362, "lat": 47.3742941, "lon": 8.5389894}, {"type": "node", "id": 921917372, "lat": 47.374077, "lon": 8.5388274}, {"type": "node", "id": 921917387, "lat": 47.3740263, "lon": 8.5394953}, {"type": "node", "id": 921917390, "lat": 47.374294, "lon": 8.5390342}, {"type": "node", "id": 921917397, "lat": 47.3741294, "lon": 8.5392085}, {"type": "node", "id": 921917406, "lat": 47.3742879, "lon": 8.5392468}, {"type": "node", "id": 938023146, "lat": 47.3733511, "lon": 8.5386475}, {"type": "node", "id": 938023175, "lat": 47.3723824, "lon": 8.5384578}, {"type": "node", "id": 938023192, "lat": 47.3733415, "lon": 8.538418}, {"type": "node", "id": 938023244, "lat": 47.3726696, "lon": 8.5384442}, {"type": "node", "id": 938023263, "lat": 47.3731759, "lon": 8.5386538}, {"type": "node", "id": 938023352, "lat": 47.3726815, "lon": 8.53859}, {"type": "node", "id": 938023371, "lat": 47.3731717, "lon": 8.5384245}, {"type": "node", "id": 1031292046, "lat": 47.3743079, "lon": 8.539638}, {"type": "node", "id": 1031292601, "lat": 47.3742244, "lon": 8.5400121}, {"type": "node", "id": 1031292719, "lat": 47.3741878, "lon": 8.5395417}, {"type": "node", "id": 1031292809, "lat": 47.374238, "lon": 8.5396347}, {"type": "node", "id": 1031293287, "lat": 47.3741747, "lon": 8.5396536}, {"type": "node", "id": 1031293523, "lat": 47.3741146, "lon": 8.5396404}, {"type": "node", "id": 1031293593, "lat": 47.3742751, "lon": 8.5391588}, {"type": "node", "id": 1031293613, "lat": 47.3736547, "lon": 8.5391901}, {"type": "node", "id": 1031293638, "lat": 47.3743418, "lon": 8.5400199}, {"type": "node", "id": 1031294035, "lat": 47.374126, "lon": 8.5390922}, {"type": "node", "id": 1031294040, "lat": 47.3741613, "lon": 8.5396637}, {"type": "node", "id": 1031294726, "lat": 47.3736481, "lon": 8.5391672}, {"type": "node", "id": 1031294974, "lat": 47.3741036, "lon": 8.5394853}, {"type": "node", "id": 1031295130, "lat": 47.374184, "lon": 8.5396342}, {"type": "node", "id": 1031295542, "lat": 47.3740999, "lon": 8.5391097}, {"type": "node", "id": 1037301173, "lat": 47.3723548, "lon": 8.5386403}, {"type": "node", "id": 1037301180, "lat": 47.3727631, "lon": 8.539662}, {"type": "node", "id": 1037301187, "lat": 47.3728691, "lon": 8.5394168}, {"type": "node", "id": 1037301209, "lat": 47.372794, "lon": 8.5393943}, {"type": "node", "id": 1037301217, "lat": 47.3726906, "lon": 8.539713}, {"type": "node", "id": 1037301239, "lat": 47.3724139, "lon": 8.5387128}, {"type": "node", "id": 1037301242, "lat": 47.3727382, "lon": 8.5387689}, {"type": "node", "id": 1037301252, "lat": 47.3724507, "lon": 8.5391421}, {"type": "node", "id": 1037301280, "lat": 47.3725463, "lon": 8.5394961}, {"type": "node", "id": 1037301307, "lat": 47.3725377, "lon": 8.5398384}, {"type": "node", "id": 1037301309, "lat": 47.3724039, "lon": 8.5391551}, {"type": "node", "id": 1037301316, "lat": 47.3727229, "lon": 8.5395179}, {"type": "node", "id": 1037301334, "lat": 47.3727618, "lon": 8.5392949}, {"type": "node", "id": 1037301341, "lat": 47.3725428, "lon": 8.5386124}, {"type": "node", "id": 1037301365, "lat": 47.3726086, "lon": 8.5394643}, {"type": "node", "id": 1037301370, "lat": 47.3724159, "lon": 8.5388109}, {"type": "node", "id": 1037301372, "lat": 47.3726861, "lon": 8.5386584}, {"type": "node", "id": 1037301391, "lat": 47.3725002, "lon": 8.5396273}, {"type": "node", "id": 1037301393, "lat": 47.3728806, "lon": 8.5392196}, {"type": "node", "id": 1037301395, "lat": 47.3726237, "lon": 8.5397728}, {"type": "node", "id": 1037301428, "lat": 47.372267, "lon": 8.5391482}, {"type": "node", "id": 1037301447, "lat": 47.3724809, "lon": 8.5395225}, {"type": "node", "id": 1037301457, "lat": 47.3725408, "lon": 8.5384509}, {"type": "node", "id": 1037301473, "lat": 47.3727947, "lon": 8.5389643}, {"type": "node", "id": 1037301481, "lat": 47.3729861, "lon": 8.5394997}, {"type": "node", "id": 1037301503, "lat": 47.3725278, "lon": 8.5386917}, {"type": "node", "id": 1037301504, "lat": 47.3723704, "lon": 8.5384729}, {"type": "node", "id": 1037301520, "lat": 47.3728665, "lon": 8.5395909}, {"type": "node", "id": 1037301548, "lat": 47.3726213, "lon": 8.5388892}, {"type": "node", "id": 1037301562, "lat": 47.3723391, "lon": 8.5388178}, {"type": "node", "id": 1037301564, "lat": 47.3726562, "lon": 8.5391533}, {"type": "node", "id": 1037301575, "lat": 47.3722884, "lon": 8.5390589}, {"type": "node", "id": 1037301581, "lat": 47.3727546, "lon": 8.538766}, {"type": "node", "id": 1037301604, "lat": 47.3726461, "lon": 8.5387991}, {"type": "node", "id": 1037301629, "lat": 47.3729166, "lon": 8.5395566}, {"type": "node", "id": 1037301634, "lat": 47.3725402, "lon": 8.5387917}, {"type": "node", "id": 1037301637, "lat": 47.3723664, "lon": 8.5384922}, {"type": "node", "id": 1037301657, "lat": 47.3729355, "lon": 8.539363}, {"type": "node", "id": 1037301667, "lat": 47.3724432, "lon": 8.5388112}, {"type": "node", "id": 1037301678, "lat": 47.3728006, "lon": 8.5394138}, {"type": "node", "id": 1037301696, "lat": 47.3723504, "lon": 8.5387102}, {"type": "node", "id": 1037301710, "lat": 47.3726037, "lon": 8.5387809}, {"type": "node", "id": 1037301713, "lat": 47.3724472, "lon": 8.5390748}, {"type": "node", "id": 1037301715, "lat": 47.3726379, "lon": 8.5390126}, {"type": "node", "id": 1037301747, "lat": 47.3727156, "lon": 8.5393268}, {"type": "node", "id": 1037539431, "lat": 47.3720075, "lon": 8.5397547}, {"type": "node", "id": 1037539446, "lat": 47.3722396, "lon": 8.5387037}, {"type": "node", "id": 1037539457, "lat": 47.3721415, "lon": 8.5403085}, {"type": "node", "id": 1037539471, "lat": 47.3718005, "lon": 8.5386575}, {"type": "node", "id": 1037539492, "lat": 47.3716859, "lon": 8.5388655}, {"type": "node", "id": 1037539503, "lat": 47.3720767, "lon": 8.5387638}, {"type": "node", "id": 1037539510, "lat": 47.3719218, "lon": 8.5390244}, {"type": "node", "id": 1037539542, "lat": 47.3717601, "lon": 8.5396342}, {"type": "node", "id": 1037539552, "lat": 47.3718202, "lon": 8.5391446}, {"type": "node", "id": 1037539557, "lat": 47.3720837, "lon": 8.5400893}, {"type": "node", "id": 1037539562, "lat": 47.3722189, "lon": 8.5400457}, {"type": "node", "id": 1037539563, "lat": 47.3719999, "lon": 8.5388996}, {"type": "node", "id": 1037539601, "lat": 47.3719697, "lon": 8.5398135}, {"type": "node", "id": 1037539610, "lat": 47.3722711, "lon": 8.5387627}, {"type": "node", "id": 1037539612, "lat": 47.3722459, "lon": 8.5403214}, {"type": "node", "id": 1037539616, "lat": 47.3720384, "lon": 8.53918}, {"type": "node", "id": 1037539660, "lat": 47.3717566, "lon": 8.5390355}, {"type": "node", "id": 1037539666, "lat": 47.3720295, "lon": 8.538571}, {"type": "node", "id": 1037539677, "lat": 47.3717698, "lon": 8.5396353}, {"type": "node", "id": 1037539700, "lat": 47.3719955, "lon": 8.5404628}, {"type": "node", "id": 1037539705, "lat": 47.3722363, "lon": 8.5404183}, {"type": "node", "id": 1037539707, "lat": 47.3719762, "lon": 8.5399202}, {"type": "node", "id": 1037539710, "lat": 47.372128, "lon": 8.5401558}, {"type": "node", "id": 1037539726, "lat": 47.3718344, "lon": 8.5398898}, {"type": "node", "id": 1037539748, "lat": 47.3722369, "lon": 8.538933}, {"type": "node", "id": 1037539750, "lat": 47.3716592, "lon": 8.5387098}, {"type": "node", "id": 1037539772, "lat": 47.3718779, "lon": 8.5389627}, {"type": "node", "id": 1037539799, "lat": 47.371898, "lon": 8.539054}, {"type": "node", "id": 1037539801, "lat": 47.3721361, "lon": 8.5393739}, {"type": "node", "id": 1037539820, "lat": 47.3720966, "lon": 8.5397487}, {"type": "node", "id": 1037539821, "lat": 47.3719942, "lon": 8.5403352}, {"type": "node", "id": 1037539824, "lat": 47.3719982, "lon": 8.5392616}, {"type": "node", "id": 1037539852, "lat": 47.3721322, "lon": 8.5387439}, {"type": "node", "id": 1037539860, "lat": 47.3722238, "lon": 8.5384971}, {"type": "node", "id": 1037539864, "lat": 47.3721825, "lon": 8.5391968}, {"type": "node", "id": 1037539899, "lat": 47.3718479, "lon": 8.5388491}, {"type": "node", "id": 1037539911, "lat": 47.3721418, "lon": 8.5388833}, {"type": "node", "id": 1037539934, "lat": 47.372222, "lon": 8.5390227}, {"type": "node", "id": 1037539961, "lat": 47.3721316, "lon": 8.540399}, {"type": "node", "id": 1037539969, "lat": 47.3719109, "lon": 8.5388254}, {"type": "node", "id": 1037539976, "lat": 47.371657, "lon": 8.539255}, {"type": "node", "id": 1037539983, "lat": 47.3722581, "lon": 8.5402142}, {"type": "node", "id": 1037540019, "lat": 47.3721652, "lon": 8.5402331}, {"type": "node", "id": 1037540021, "lat": 47.3722583, "lon": 8.538695}, {"type": "node", "id": 1037540024, "lat": 47.3720324, "lon": 8.5391735}, {"type": "node", "id": 1037540068, "lat": 47.3721773, "lon": 8.5399498}, {"type": "node", "id": 1037540070, "lat": 47.3720168, "lon": 8.5390019}, {"type": "node", "id": 1041911395, "lat": 47.3714246, "lon": 8.5398739}, {"type": "node", "id": 1041911401, "lat": 47.3715522, "lon": 8.5395668}, {"type": "node", "id": 1041911554, "lat": 47.3715947, "lon": 8.54001}, {"type": "node", "id": 1041911654, "lat": 47.3717409, "lon": 8.5407243}, {"type": "node", "id": 1041911666, "lat": 47.3714408, "lon": 8.5399281}, {"type": "node", "id": 1041911695, "lat": 47.3713603, "lon": 8.5394488}, {"type": "node", "id": 1041911717, "lat": 47.3716882, "lon": 8.5396673}, {"type": "node", "id": 1041911801, "lat": 47.3719515, "lon": 8.540376}, {"type": "node", "id": 1041911827, "lat": 47.371748, "lon": 8.5408052}, {"type": "node", "id": 1041911874, "lat": 47.371758, "lon": 8.540067}, {"type": "node", "id": 1041911876, "lat": 47.3713176, "lon": 8.539311}, {"type": "node", "id": 1041911935, "lat": 47.3718681, "lon": 8.5404919}, {"type": "node", "id": 1041911972, "lat": 47.37158, "lon": 8.539744}, {"type": "node", "id": 1041912035, "lat": 47.3717205, "lon": 8.5405481}, {"type": "node", "id": 1041912158, "lat": 47.3715746, "lon": 8.5399591}, {"type": "node", "id": 1041912174, "lat": 47.3719557, "lon": 8.5404693}, {"type": "node", "id": 1041912225, "lat": 47.3715334, "lon": 8.5398564}, {"type": "node", "id": 1041912238, "lat": 47.371488, "lon": 8.5396102}, {"type": "node", "id": 1041912299, "lat": 47.3716583, "lon": 8.5401602}, {"type": "node", "id": 1041912313, "lat": 47.3717912, "lon": 8.5404263}, {"type": "node", "id": 1041912486, "lat": 47.3718211, "lon": 8.5405935}, {"type": "node", "id": 1041912504, "lat": 47.3716162, "lon": 8.5391094}, {"type": "node", "id": 1041912752, "lat": 47.371805, "lon": 8.540513}, {"type": "node", "id": 1041912755, "lat": 47.3717361, "lon": 8.5398874}, {"type": "node", "id": 1041912862, "lat": 47.37183, "lon": 8.540713}, {"type": "node", "id": 1041912907, "lat": 47.3716622, "lon": 8.5392888}, {"type": "node", "id": 1041913039, "lat": 47.3718392, "lon": 8.5407938}, {"type": "node", "id": 1110775505, "lat": 47.3724616, "lon": 8.5384544, "tags": {"addr:city": "Z\u00fcrich", "addr:country": "CH", "addr:housenumber": "48", "addr:postcode": "8001", "addr:street": "Bahnhofstrasse"}}, {"type": "node", "id": 1110775530, "lat": 47.3717303, "lon": 8.5386834, "tags": {"addr:city": "Z\u00fcrich", "addr:country": "CH", "addr:housenumber": "42", "addr:postcode": "8001", "addr:street": "Bahnhofstrasse"}}, {"type": "node", "id": 1110775534, "lat": 47.3734169, "lon": 8.5384148, "tags": {"addr:city": "Z\u00fcrich", "addr:country": "CH", "addr:housenumber": "62", "addr:postcode": "8001", "addr:street": "Bahnhofstrasse"}}, {"type": "node", "id": 1516539920, "lat": 47.372943, "lon": 8.5393841, "tags": {"addr:city": "Z\u00fcrich", "addr:country": "CH", "addr:housenumber": "1", "addr:postcode": "8001", "addr:street": "Kuttelgasse"}}, {"type": "node", "id": 1516539939, "lat": 47.3728244, "lon": 8.538781, "tags": {"entrance": "yes"}}, {"type": "node", "id": 1516540048, "lat": 47.3731307, "lon": 8.5397869, "tags": {"addr:city": "Z\u00fcrich", "addr:country": "CH", "addr:housenumber": "15", "addr:postcode": "8001", "addr:street": "Fortunagasse"}}, {"type": "node", "id": 1516540129, "lat": 47.3730054, "lon": 8.5392802, "tags": {"addr:city": "Z\u00fcrich", "addr:country": "CH", "addr:housenumber": "2", "addr:postcode": "8001", "addr:street": "Kuttelgasse"}}, {"type": "node", "id": 1516540192, "lat": 47.3730209, "lon": 8.5396607, "tags": {"addr:city": "Z\u00fcrich", "addr:country": "CH", "addr:housenumber": "26", "addr:postcode": "8001", "addr:street": "Rennweg"}}, {"type": "node", "id": 1516540202, "lat": 47.3731064, "lon": 8.5393968, "tags": {"addr:city": "Z\u00fcrich", "addr:country": "CH", "addr:housenumber": "27", "addr:postcode": "8001", "addr:street": "Rennweg"}}, {"type": "node", "id": 1516540216, "lat": 47.3731646, "lon": 8.5395378, "tags": {"addr:city": "Z\u00fcrich", "addr:country": "CH", "addr:housenumber": "28", "addr:postcode": "8001", "addr:street": "Rennweg"}}, {"type": "node", "id": 1516540219, "lat": 47.3724486, "lon": 8.5386263, "tags": {"addr:city": "Z\u00fcrich", "addr:country": "CH", "addr:housenumber": "29", "addr:postcode": "8001", "addr:street": "Augustinergasse"}}, {"type": "node", "id": 1516540277, "lat": 47.3732785, "lon": 8.5394588, "tags": {"addr:city": "Z\u00fcrich", "addr:country": "CH", "addr:housenumber": "32", "addr:postcode": "8001", "addr:street": "Rennweg"}}, {"type": "node", "id": 1516540302, "lat": 47.3733238, "lon": 8.5394299, "tags": {"addr:city": "Z\u00fcrich", "addr:country": "CH", "addr:housenumber": "34", "addr:postcode": "8001", "addr:street": "Rennweg"}}, {"type": "node", "id": 1516540389, "lat": 47.3732037, "lon": 8.5397429, "tags": {"addr:city": "Z\u00fcrich", "addr:country": "CH", "addr:housenumber": "40", "addr:postcode": "8001", "addr:street": "Fortunagasse"}}, {"type": "node", "id": 1516540406, "lat": 47.3735116, "lon": 8.5390744, "tags": {"addr:city": "Z\u00fcrich", "addr:country": "CH", "addr:housenumber": "43", "addr:postcode": "8001", "addr:street": "Rennweg"}}, {"type": "node", "id": 1516540486, "lat": 47.3737694, "lon": 8.53907, "tags": {"addr:city": "Z\u00fcrich", "addr:country": "CH", "addr:housenumber": "52", "addr:postcode": "8001", "addr:street": "Rennweg"}}, {"type": "node", "id": 1516540541, "lat": 47.3722241, "lon": 8.5399124, "tags": {"addr:city": "Z\u00fcrich", "addr:country": "CH", "addr:housenumber": "6", "addr:postcode": "8001", "addr:street": "Widdergasse"}}, {"type": "node", "id": 1516540556, "lat": 47.3721273, "lon": 8.5398274, "tags": {"addr:city": "Z\u00fcrich", "addr:country": "CH", "addr:housenumber": "7", "addr:postcode": "8001", "addr:street": "Widdergasse"}}, {"type": "node", "id": 2205041340, "lat": 47.3719433, "lon": 8.5407157, "tags": {"addr:city": "Z\u00fcrich", "addr:country": "CH", "addr:housenumber": "1", "addr:postcode": "8001", "addr:street": "Glockengasse"}}, {"type": "node", "id": 2205041366, "lat": 47.3719413, "lon": 8.5408855, "tags": {"addr:city": "Z\u00fcrich", "addr:country": "CH", "addr:housenumber": "19", "addr:postcode": "8001", "addr:street": "Strehlgasse"}}, {"type": "node", "id": 2205041378, "lat": 47.3722853, "lon": 8.5406405, "tags": {"addr:city": "Z\u00fcrich", "addr:country": "CH", "addr:housenumber": "24", "addr:postcode": "8001", "addr:street": "Strehlgasse"}}, {"type": "node", "id": 2205041396, "lat": 47.371798, "lon": 8.5404696, "tags": {"addr:city": "Z\u00fcrich", "addr:country": "CH", "addr:housenumber": "5", "addr:postcode": "8001", "addr:street": "St. Peterhofstatt"}}, {"type": "node", "id": 2917336520, "lat": 47.3724067, "lon": 8.5407062, "tags": {"addr:city": "Z\u00fcrich", "addr:country": "CH", "addr:housenumber": "1", "addr:postcode": "8001", "addr:street": "Pfalzgasse"}}, {"type": "node", "id": 2917336521, "lat": 47.372279, "lon": 8.5405735}, {"type": "node", "id": 2917336522, "lat": 47.3722866, "lon": 8.5407134}, {"type": "node", "id": 2917336523, "lat": 47.372289, "lon": 8.54073}, {"type": "node", "id": 2917336524, "lat": 47.3722894, "lon": 8.5404735}, {"type": "node", "id": 2917336525, "lat": 47.3722906, "lon": 8.5407092}, {"type": "node", "id": 2917336526, "lat": 47.3723011, "lon": 8.5407288}, {"type": "node", "id": 2917336527, "lat": 47.3723052, "lon": 8.5407211}, {"type": "node", "id": 2917336528, "lat": 47.3723377, "lon": 8.5404103}, {"type": "node", "id": 2917336529, "lat": 47.3723379, "lon": 8.5404005}, {"type": "node", "id": 2917336530, "lat": 47.3723469, "lon": 8.5402833}, {"type": "node", "id": 2917336531, "lat": 47.3723713, "lon": 8.54033}, {"type": "node", "id": 2917336532, "lat": 47.3723888, "lon": 8.5404246}, {"type": "node", "id": 2917336533, "lat": 47.3724136, "lon": 8.5404109}, {"type": "node", "id": 2917336534, "lat": 47.3724192, "lon": 8.5405717}, {"type": "node", "id": 2917336535, "lat": 47.3724196, "lon": 8.5404735}, {"type": "node", "id": 2917336536, "lat": 47.3724206, "lon": 8.5404013}, {"type": "node", "id": 2917336537, "lat": 47.372425, "lon": 8.5401827}, {"type": "node", "id": 2917336538, "lat": 47.3724251, "lon": 8.5403951}, {"type": "node", "id": 2917336539, "lat": 47.37243, "lon": 8.5404234}, {"type": "node", "id": 2917336540, "lat": 47.3724368, "lon": 8.5404023}, {"type": "node", "id": 2917336541, "lat": 47.3724449, "lon": 8.5403865}, {"type": "node", "id": 2917336542, "lat": 47.3724513, "lon": 8.5403969}, {"type": "node", "id": 2917336543, "lat": 47.3724628, "lon": 8.5403386}, {"type": "node", "id": 2917336544, "lat": 47.3724642, "lon": 8.5404658}, {"type": "node", "id": 2917336545, "lat": 47.3724664, "lon": 8.5403567}, {"type": "node", "id": 2917336546, "lat": 47.372467, "lon": 8.5403448}, {"type": "node", "id": 2917336547, "lat": 47.3724699, "lon": 8.5405633}, {"type": "node", "id": 2917336548, "lat": 47.3724706, "lon": 8.5405765}, {"type": "node", "id": 2917336549, "lat": 47.3724763, "lon": 8.5405812}, {"type": "node", "id": 2917336550, "lat": 47.3724803, "lon": 8.540371}, {"type": "node", "id": 2917336551, "lat": 47.3724805, "lon": 8.5401028}, {"type": "node", "id": 2917336552, "lat": 47.3724808, "lon": 8.5403195}, {"type": "node", "id": 2917336554, "lat": 47.3724823, "lon": 8.540705}, {"type": "node", "id": 2917336555, "lat": 47.3724905, "lon": 8.5404191}, {"type": "node", "id": 2917336556, "lat": 47.3724951, "lon": 8.5403062}, {"type": "node", "id": 2917336557, "lat": 47.3725069, "lon": 8.5403429}, {"type": "node", "id": 2917336558, "lat": 47.372531, "lon": 8.5403148}, {"type": "node", "id": 2917336559, "lat": 47.3725333, "lon": 8.5403304}, {"type": "node", "id": 2917336560, "lat": 47.3725364, "lon": 8.5400459}, {"type": "node", "id": 2917336561, "lat": 47.3725438, "lon": 8.5402585}, {"type": "node", "id": 2917336562, "lat": 47.3725452, "lon": 8.5402703}, {"type": "node", "id": 2917336563, "lat": 47.3725468, "lon": 8.540417}, {"type": "node", "id": 2917336564, "lat": 47.3725564, "lon": 8.5402963}, {"type": "node", "id": 2917336565, "lat": 47.3725699, "lon": 8.5402996}, {"type": "node", "id": 2917336566, "lat": 47.372572, "lon": 8.5401453}, {"type": "node", "id": 2917336567, "lat": 47.3725786, "lon": 8.5402969}, {"type": "node", "id": 2917336568, "lat": 47.3725943, "lon": 8.5403841}, {"type": "node", "id": 2917336569, "lat": 47.3725947, "lon": 8.539991}, {"type": "node", "id": 2917336570, "lat": 47.372602, "lon": 8.5402185}, {"type": "node", "id": 2917336571, "lat": 47.3726133, "lon": 8.5403788}, {"type": "node", "id": 2917336572, "lat": 47.3726145, "lon": 8.5402294}, {"type": "node", "id": 2917336573, "lat": 47.3726155, "lon": 8.5404124}, {"type": "node", "id": 2917336574, "lat": 47.3726176, "lon": 8.5404499}, {"type": "node", "id": 2917336575, "lat": 47.3726268, "lon": 8.5402787}, {"type": "node", "id": 2917336578, "lat": 47.3726545, "lon": 8.5401867}, {"type": "node", "id": 2917336579, "lat": 47.3726548, "lon": 8.5401812}, {"type": "node", "id": 2917336580, "lat": 47.3726619, "lon": 8.5402046}, {"type": "node", "id": 2917336581, "lat": 47.3726639, "lon": 8.5399447}, {"type": "node", "id": 2917336582, "lat": 47.3726662, "lon": 8.5402153}, {"type": "node", "id": 2917336583, "lat": 47.372671, "lon": 8.5402122}, {"type": "node", "id": 2917336584, "lat": 47.3726809, "lon": 8.5402475}, {"type": "node", "id": 2917336585, "lat": 47.3727267, "lon": 8.5401421}, {"type": "node", "id": 2917336586, "lat": 47.3727355, "lon": 8.5401699}, {"type": "node", "id": 2917336588, "lat": 47.3727479, "lon": 8.5398822}, {"type": "node", "id": 2917336589, "lat": 47.3727959, "lon": 8.540039}, {"type": "node", "id": 2917336590, "lat": 47.3728066, "lon": 8.5400836}, {"type": "node", "id": 2917336591, "lat": 47.3728084, "lon": 8.540091}, {"type": "node", "id": 2917336592, "lat": 47.3728237, "lon": 8.5398212}, {"type": "node", "id": 2917336593, "lat": 47.3728467, "lon": 8.5400133}, {"type": "node", "id": 2917336594, "lat": 47.3728566, "lon": 8.5397941}, {"type": "node", "id": 2917336595, "lat": 47.3728588, "lon": 8.5400588}, {"type": "node", "id": 2917336598, "lat": 47.3728781, "lon": 8.5399902}, {"type": "node", "id": 2917336599, "lat": 47.3728945, "lon": 8.5397654}, {"type": "node", "id": 2917336600, "lat": 47.3729054, "lon": 8.5400129}, {"type": "node", "id": 2917336801, "lat": 47.3729076, "lon": 8.5399523}, {"type": "node", "id": 2917336802, "lat": 47.3729105, "lon": 8.5399517}, {"type": "node", "id": 2917336803, "lat": 47.3729129, "lon": 8.5399734}, {"type": "node", "id": 2917336804, "lat": 47.3729143, "lon": 8.5399645}, {"type": "node", "id": 2917336805, "lat": 47.3729202, "lon": 8.5400676}, {"type": "node", "id": 2917336806, "lat": 47.3729226, "lon": 8.5400014}, {"type": "node", "id": 2917336807, "lat": 47.3729306, "lon": 8.5400243}, {"type": "node", "id": 2917336808, "lat": 47.3729337, "lon": 8.5400221}, {"type": "node", "id": 2917336809, "lat": 47.3729381, "lon": 8.5397284}, {"type": "node", "id": 2917336810, "lat": 47.3729398, "lon": 8.5398989}, {"type": "node", "id": 2917336811, "lat": 47.3729418, "lon": 8.5400563}, {"type": "node", "id": 2917336812, "lat": 47.3729515, "lon": 8.5398896}, {"type": "node", "id": 2917336813, "lat": 47.3729575, "lon": 8.5401236}, {"type": "node", "id": 2917336814, "lat": 47.3729632, "lon": 8.5399203}, {"type": "node", "id": 2917336815, "lat": 47.3729672, "lon": 8.5399985}, {"type": "node", "id": 2917336816, "lat": 47.3729695, "lon": 8.5397021}, {"type": "node", "id": 2917336817, "lat": 47.3729697, "lon": 8.5399789}, {"type": "node", "id": 2917336818, "lat": 47.3729733, "lon": 8.5399938}, {"type": "node", "id": 2917336819, "lat": 47.3729777, "lon": 8.5401918}, {"type": "node", "id": 2917336820, "lat": 47.3729805, "lon": 8.5400491}, {"type": "node", "id": 2917336821, "lat": 47.3729866, "lon": 8.5400467}, {"type": "node", "id": 2917336822, "lat": 47.372989, "lon": 8.5399634}, {"type": "node", "id": 2917336823, "lat": 47.3729965, "lon": 8.5398964}, {"type": "node", "id": 2917336824, "lat": 47.3729999, "lon": 8.5399064}, {"type": "node", "id": 2917336825, "lat": 47.3730003, "lon": 8.5400962}, {"type": "node", "id": 2917336827, "lat": 47.3730221, "lon": 8.5401747}, {"type": "node", "id": 2917336828, "lat": 47.3730235, "lon": 8.5401786}, {"type": "node", "id": 2917336829, "lat": 47.3730276, "lon": 8.5398881}, {"type": "node", "id": 2917336830, "lat": 47.3730419, "lon": 8.5399336}, {"type": "node", "id": 2917336831, "lat": 47.373068, "lon": 8.5399779}, {"type": "node", "id": 2917336832, "lat": 47.3730704, "lon": 8.5399176}, {"type": "node", "id": 2917336833, "lat": 47.3730732, "lon": 8.5396196}, {"type": "node", "id": 2917336834, "lat": 47.3730884, "lon": 8.5399606}, {"type": "node", "id": 2917336835, "lat": 47.3731075, "lon": 8.5398909}, {"type": "node", "id": 2917336836, "lat": 47.3731168, "lon": 8.5400926}, {"type": "node", "id": 2917336838, "lat": 47.3731323, "lon": 8.5401408}, {"type": "node", "id": 2917336839, "lat": 47.373143, "lon": 8.5400616}, {"type": "node", "id": 2917336840, "lat": 47.3731458, "lon": 8.5400676}, {"type": "node", "id": 2917336843, "lat": 47.3731553, "lon": 8.5398564}, {"type": "node", "id": 2917336844, "lat": 47.3731559, "lon": 8.5400085}, {"type": "node", "id": 2917336845, "lat": 47.3731576, "lon": 8.5401229}, {"type": "node", "id": 2917336846, "lat": 47.3731625, "lon": 8.5398774}, {"type": "node", "id": 2917336847, "lat": 47.3731861, "lon": 8.5399814}, {"type": "node", "id": 2917336848, "lat": 47.3731883, "lon": 8.5398566}, {"type": "node", "id": 2917336849, "lat": 47.3731986, "lon": 8.5400122}, {"type": "node", "id": 2917336853, "lat": 47.3732212, "lon": 8.53995}, {"type": "node", "id": 2917336855, "lat": 47.3732694, "lon": 8.5400866}, {"type": "node", "id": 2917339301, "lat": 47.3732595, "lon": 8.5401308}, {"type": "node", "id": 2917339302, "lat": 47.3732795, "lon": 8.5401133}, {"type": "node", "id": 2917339303, "lat": 47.3732979, "lon": 8.5401798}, {"type": "node", "id": 2917339304, "lat": 47.373317, "lon": 8.5402665}, {"type": "node", "id": 2917339305, "lat": 47.3733282, "lon": 8.5402559}, {"type": "node", "id": 2918894354, "lat": 47.3728198, "lon": 8.5384396, "tags": {"entrance": "yes"}}, {"type": "node", "id": 2918894355, "lat": 47.3727608, "lon": 8.5384418}, {"type": "node", "id": 2918894356, "lat": 47.3727625, "lon": 8.5385908}, {"type": "node", "id": 2918894357, "lat": 47.3728464, "lon": 8.5388469}, {"type": "node", "id": 2918894358, "lat": 47.3728635, "lon": 8.5385598}, {"type": "node", "id": 2918894359, "lat": 47.3728648, "lon": 8.5386527}, {"type": "node", "id": 2918894360, "lat": 47.37288, "lon": 8.5388244}, {"type": "node", "id": 2918894361, "lat": 47.3728804, "lon": 8.5384378}, {"type": "node", "id": 2918894362, "lat": 47.3728807, "lon": 8.5385589}, {"type": "node", "id": 2918894363, "lat": 47.3728832, "lon": 8.538815}, {"type": "node", "id": 2918894364, "lat": 47.3728914, "lon": 8.5389741}, {"type": "node", "id": 2918894365, "lat": 47.3729248, "lon": 8.5390758}, {"type": "node", "id": 2918894366, "lat": 47.3729391, "lon": 8.5386462}, {"type": "node", "id": 2918894367, "lat": 47.3729645, "lon": 8.5387691}, {"type": "node", "id": 2918894368, "lat": 47.3729788, "lon": 8.5384358}, {"type": "node", "id": 2918894369, "lat": 47.3729823, "lon": 8.5392222}, {"type": "node", "id": 2918894370, "lat": 47.3729893, "lon": 8.5388891}, {"type": "node", "id": 2918894371, "lat": 47.3729912, "lon": 8.5385936}, {"type": "node", "id": 2918894372, "lat": 47.3729937, "lon": 8.5386415}, {"type": "node", "id": 2918894373, "lat": 47.3729976, "lon": 8.5390158}, {"type": "node", "id": 2918894374, "lat": 47.3729985, "lon": 8.5390252}, {"type": "node", "id": 2918894375, "lat": 47.3729995, "lon": 8.5388938}, {"type": "node", "id": 2918894376, "lat": 47.3730271, "lon": 8.5390847}, {"type": "node", "id": 2918894377, "lat": 47.3730325, "lon": 8.5389876}, {"type": "node", "id": 2918894378, "lat": 47.3730376, "lon": 8.5385908}, {"type": "node", "id": 2918894379, "lat": 47.3730442, "lon": 8.5391255}, {"type": "node", "id": 2918894380, "lat": 47.3730471, "lon": 8.5386687}, {"type": "node", "id": 2918894381, "lat": 47.3730538, "lon": 8.5389726}, {"type": "node", "id": 2918894382, "lat": 47.3730554, "lon": 8.5391528}, {"type": "node", "id": 2918894383, "lat": 47.3730643, "lon": 8.5391828}, {"type": "node", "id": 2918894384, "lat": 47.3730655, "lon": 8.5391769}, {"type": "node", "id": 2918894385, "lat": 47.3730665, "lon": 8.5391062}, {"type": "node", "id": 2918894386, "lat": 47.3730684, "lon": 8.5394309}, {"type": "node", "id": 2918894387, "lat": 47.3730757, "lon": 8.5390378}, {"type": "node", "id": 2918894388, "lat": 47.3730822, "lon": 8.5390345}, {"type": "node", "id": 2918894389, "lat": 47.3730878, "lon": 8.5391575}, {"type": "node", "id": 2918894390, "lat": 47.3730903, "lon": 8.5389527}, {"type": "node", "id": 2918894391, "lat": 47.3730927, "lon": 8.5390702}, {"type": "node", "id": 2918894392, "lat": 47.373094, "lon": 8.5390636}, {"type": "node", "id": 2918894393, "lat": 47.3730967, "lon": 8.5392602}, {"type": "node", "id": 2918894394, "lat": 47.3731041, "lon": 8.5388861}, {"type": "node", "id": 2918894395, "lat": 47.3731104, "lon": 8.5388788}, {"type": "node", "id": 2918894396, "lat": 47.373111, "lon": 8.5392827}, {"type": "node", "id": 2918894397, "lat": 47.3731122, "lon": 8.5388648}, {"type": "node", "id": 2918894398, "lat": 47.3731215, "lon": 8.5390413}, {"type": "node", "id": 2918894399, "lat": 47.3731443, "lon": 8.5393648}, {"type": "node", "id": 2918894400, "lat": 47.3731445, "lon": 8.539209}, {"type": "node", "id": 2918894801, "lat": 47.3731477, "lon": 8.5388376}, {"type": "node", "id": 2918894802, "lat": 47.3731481, "lon": 8.5390216}, {"type": "node", "id": 2918894803, "lat": 47.3731504, "lon": 8.5390141}, {"type": "node", "id": 2918894804, "lat": 47.3731527, "lon": 8.5392203}, {"type": "node", "id": 2918894805, "lat": 47.3731589, "lon": 8.5388416}, {"type": "node", "id": 2918894806, "lat": 47.373165, "lon": 8.5390798}, {"type": "node", "id": 2918894807, "lat": 47.3731656, "lon": 8.538835}, {"type": "node", "id": 2918894808, "lat": 47.3731694, "lon": 8.5390793}, {"type": "node", "id": 2918894809, "lat": 47.3731751, "lon": 8.5388555}, {"type": "node", "id": 2918894810, "lat": 47.3731755, "lon": 8.538664}, {"type": "node", "id": 2918894811, "lat": 47.3731934, "lon": 8.5393235}, {"type": "node", "id": 2918894812, "lat": 47.3731962, "lon": 8.5388363}, {"type": "node", "id": 2918894813, "lat": 47.3732034, "lon": 8.5391764}, {"type": "node", "id": 2918894814, "lat": 47.3732107, "lon": 8.5391713}, {"type": "node", "id": 2918894815, "lat": 47.3732241, "lon": 8.5389046}, {"type": "node", "id": 2918894816, "lat": 47.3732296, "lon": 8.5386977}, {"type": "node", "id": 2918894817, "lat": 47.3732315, "lon": 8.5387691}, {"type": "node", "id": 2918894818, "lat": 47.3732452, "lon": 8.5388881}, {"type": "node", "id": 2918894819, "lat": 47.3732469, "lon": 8.539282}, {"type": "node", "id": 2918894820, "lat": 47.3732537, "lon": 8.5389524}, {"type": "node", "id": 2918894821, "lat": 47.373255, "lon": 8.5388987}, {"type": "node", "id": 2918894822, "lat": 47.3732609, "lon": 8.5389756}, {"type": "node", "id": 2918894823, "lat": 47.3732645, "lon": 8.5389245}, {"type": "node", "id": 2918894824, "lat": 47.3732649, "lon": 8.5389424}, {"type": "node", "id": 2918894825, "lat": 47.3732726, "lon": 8.5389922}, {"type": "node", "id": 2918894826, "lat": 47.3732784, "lon": 8.5387843}, {"type": "node", "id": 2918894827, "lat": 47.3732903, "lon": 8.5388648}, {"type": "node", "id": 2918894828, "lat": 47.3733003, "lon": 8.5389711}, {"type": "node", "id": 2918894829, "lat": 47.373317, "lon": 8.5387748}, {"type": "node", "id": 2918894830, "lat": 47.373318, "lon": 8.5388559}, {"type": "node", "id": 2918894831, "lat": 47.3733301, "lon": 8.5389522}, {"type": "node", "id": 2918894832, "lat": 47.3733338, "lon": 8.5387697}, {"type": "node", "id": 2918894833, "lat": 47.3733406, "lon": 8.5385385}, {"type": "node", "id": 2918894834, "lat": 47.3733451, "lon": 8.5388433}, {"type": "node", "id": 2918894835, "lat": 47.3733578, "lon": 8.5386922}, {"type": "node", "id": 2918894836, "lat": 47.3733666, "lon": 8.538762}, {"type": "node", "id": 2918894837, "lat": 47.3733778, "lon": 8.5388324}, {"type": "node", "id": 2918894838, "lat": 47.3733925, "lon": 8.5391691}, {"type": "node", "id": 2918894839, "lat": 47.3734098, "lon": 8.5389958}, {"type": "node", "id": 2918894840, "lat": 47.3734447, "lon": 8.5391225}, {"type": "node", "id": 2918894841, "lat": 47.373486, "lon": 8.5385414}, {"type": "node", "id": 2918894842, "lat": 47.3734896, "lon": 8.5384121}, {"type": "node", "id": 2918894843, "lat": 47.3734936, "lon": 8.5386115}, {"type": "node", "id": 2918894844, "lat": 47.3734999, "lon": 8.5386695}, {"type": "node", "id": 2918894845, "lat": 47.3735061, "lon": 8.5387074}, {"type": "node", "id": 2918894846, "lat": 47.373512, "lon": 8.5387763}, {"type": "node", "id": 2918894847, "lat": 47.3735156, "lon": 8.538765}, {"type": "node", "id": 2918894848, "lat": 47.3735775, "lon": 8.5390202}, {"type": "node", "id": 2918894849, "lat": 47.3735799, "lon": 8.539029}, {"type": "node", "id": 2918894850, "lat": 47.3735801, "lon": 8.5386774}, {"type": "node", "id": 2918894851, "lat": 47.373591, "lon": 8.5387283}, {"type": "node", "id": 2918894852, "lat": 47.3736021, "lon": 8.5387803}, {"type": "node", "id": 2918894853, "lat": 47.3736048, "lon": 8.5386081}, {"type": "node", "id": 2918894854, "lat": 47.3736048, "lon": 8.5386147}, {"type": "node", "id": 2918894855, "lat": 47.3736277, "lon": 8.5386134}, {"type": "node", "id": 2918894856, "lat": 47.3736281, "lon": 8.5386234}, {"type": "node", "id": 2918894857, "lat": 47.3736517, "lon": 8.5385909}, {"type": "node", "id": 2918894858, "lat": 47.3736553, "lon": 8.5384051}, {"type": "node", "id": 2918894859, "lat": 47.3736556, "lon": 8.53896}, {"type": "node", "id": 2918894860, "lat": 47.3736562, "lon": 8.5386167}, {"type": "node", "id": 2918894861, "lat": 47.3736577, "lon": 8.5386232}, {"type": "node", "id": 2918894862, "lat": 47.3736652, "lon": 8.5384058}, {"type": "node", "id": 2918894863, "lat": 47.3736657, "lon": 8.5384184}, {"type": "node", "id": 2918894864, "lat": 47.3736661, "lon": 8.5386585}, {"type": "node", "id": 2918894865, "lat": 47.3736712, "lon": 8.5386763}, {"type": "node", "id": 2918894866, "lat": 47.3736767, "lon": 8.5386728}, {"type": "node", "id": 2918894867, "lat": 47.3736834, "lon": 8.5386947}, {"type": "node", "id": 2918894868, "lat": 47.3737054, "lon": 8.5387411}, {"type": "node", "id": 2918894869, "lat": 47.3737106, "lon": 8.5384104}, {"type": "node", "id": 2918894870, "lat": 47.373711, "lon": 8.538427}, {"type": "node", "id": 2918894871, "lat": 47.3737587, "lon": 8.538419}, {"type": "node", "id": 2918894872, "lat": 47.3737596, "lon": 8.5384343}, {"type": "node", "id": 2918894873, "lat": 47.3737854, "lon": 8.5388579}, {"type": "node", "id": 2918894874, "lat": 47.3737968, "lon": 8.5384283}, {"type": "node", "id": 2918894875, "lat": 47.3738117, "lon": 8.5384396}, {"type": "node", "id": 2918894876, "lat": 47.3738472, "lon": 8.538431}, {"type": "node", "id": 2918894877, "lat": 47.3738602, "lon": 8.5385988}, {"type": "node", "id": 2918894878, "lat": 47.3738749, "lon": 8.5387847}, {"type": "node", "id": 2919116001, "lat": 47.3738299, "lon": 8.5390242, "tags": {"addr:city": "Z\u00fcrich", "addr:country": "CH", "addr:housenumber": "56", "addr:postcode": "8001", "addr:street": "Rennweg"}}, {"type": "node", "id": 2919116002, "lat": 47.3739249, "lon": 8.5398038, "tags": {"addr:city": "Z\u00fcrich", "addr:country": "CH", "addr:housenumber": "7", "addr:postcode": "8001", "addr:street": "Oetenbachgasse"}}, {"type": "node", "id": 2919116003, "lat": 47.3739071, "lon": 8.5396812, "tags": {"addr:city": "Z\u00fcrich", "addr:country": "CH", "addr:housenumber": "9", "addr:postcode": "8001", "addr:street": "Oetenbachgasse"}}, {"type": "node", "id": 2919116004, "lat": 47.3731373, "lon": 8.5395592}, {"type": "node", "id": 2919116006, "lat": 47.3731902, "lon": 8.5395175}, {"type": "node", "id": 2919116007, "lat": 47.3732191, "lon": 8.5397869}, {"type": "node", "id": 2919116008, "lat": 47.3732297, "lon": 8.5396278}, {"type": "node", "id": 2919116009, "lat": 47.3732352, "lon": 8.539631}, {"type": "node", "id": 2919116010, "lat": 47.3732636, "lon": 8.5399073}, {"type": "node", "id": 2919116011, "lat": 47.3732674, "lon": 8.5394654}, {"type": "node", "id": 2919116012, "lat": 47.3732752, "lon": 8.5397508}, {"type": "node", "id": 2919116013, "lat": 47.3732835, "lon": 8.5396811}, {"type": "node", "id": 2919116014, "lat": 47.3732942, "lon": 8.5400099}, {"type": "node", "id": 2919116015, "lat": 47.3732969, "lon": 8.5395741}, {"type": "node", "id": 2919116016, "lat": 47.3732977, "lon": 8.5395642}, {"type": "node", "id": 2919116017, "lat": 47.3733013, "lon": 8.5397319}, {"type": "node", "id": 2919116018, "lat": 47.3733182, "lon": 8.5400291}, {"type": "node", "id": 2919116019, "lat": 47.3733219, "lon": 8.5396524}, {"type": "node", "id": 2919116020, "lat": 47.3733258, "lon": 8.5398649}, {"type": "node", "id": 2919116021, "lat": 47.3733299, "lon": 8.539862}, {"type": "node", "id": 2919116022, "lat": 47.3733354, "lon": 8.5396953}, {"type": "node", "id": 2919116023, "lat": 47.3733381, "lon": 8.5394212}, {"type": "node", "id": 2919116024, "lat": 47.3733382, "lon": 8.5401433}, {"type": "node", "id": 2919116025, "lat": 47.3733417, "lon": 8.5397568}, {"type": "node", "id": 2919116027, "lat": 47.3733463, "lon": 8.5401401}, {"type": "node", "id": 2919116028, "lat": 47.3733476, "lon": 8.5397417}, {"type": "node", "id": 2919116029, "lat": 47.3733484, "lon": 8.5399757}, {"type": "node", "id": 2919116030, "lat": 47.3733629, "lon": 8.5402349}, {"type": "node", "id": 2919116032, "lat": 47.3733687, "lon": 8.5396728}, {"type": "node", "id": 2919116033, "lat": 47.3733743, "lon": 8.5402541}, {"type": "node", "id": 2919116035, "lat": 47.3733789, "lon": 8.5393937}, {"type": "node", "id": 2919116036, "lat": 47.3733822, "lon": 8.5399638}, {"type": "node", "id": 2919116037, "lat": 47.3733834, "lon": 8.5403138}, {"type": "node", "id": 2919116038, "lat": 47.3733912, "lon": 8.539755}, {"type": "node", "id": 2919116039, "lat": 47.3733928, "lon": 8.5403886}, {"type": "node", "id": 2919116040, "lat": 47.3733971, "lon": 8.5397991}, {"type": "node", "id": 2919116041, "lat": 47.3733971, "lon": 8.5404379}, {"type": "node", "id": 2919116042, "lat": 47.3734014, "lon": 8.5406145}, {"type": "node", "id": 2919116043, "lat": 47.3734022, "lon": 8.5406853}, {"type": "node", "id": 2919116044, "lat": 47.373403, "lon": 8.5405122}, {"type": "node", "id": 2919116045, "lat": 47.3734085, "lon": 8.539646}, {"type": "node", "id": 2919116046, "lat": 47.3734207, "lon": 8.5396964}, {"type": "node", "id": 2919116047, "lat": 47.373425, "lon": 8.5399354}, {"type": "node", "id": 2919116048, "lat": 47.3734262, "lon": 8.5399516}, {"type": "node", "id": 2919116049, "lat": 47.3734273, "lon": 8.5396326}, {"type": "node", "id": 2919116050, "lat": 47.3734332, "lon": 8.5399792}, {"type": "node", "id": 2919116051, "lat": 47.3734338, "lon": 8.5395745}, {"type": "node", "id": 2919116052, "lat": 47.3734372, "lon": 8.5396866}, {"type": "node", "id": 2919116053, "lat": 47.3734429, "lon": 8.5397803}, {"type": "node", "id": 2919116054, "lat": 47.3734474, "lon": 8.5396193}, {"type": "node", "id": 2919116055, "lat": 47.3734556, "lon": 8.539842}, {"type": "node", "id": 2919116056, "lat": 47.3734564, "lon": 8.5398316}, {"type": "node", "id": 2919116058, "lat": 47.3734592, "lon": 8.5396622}, {"type": "node", "id": 2919116059, "lat": 47.3734617, "lon": 8.5396724}, {"type": "node", "id": 2919116060, "lat": 47.3734679, "lon": 8.5393319}, {"type": "node", "id": 2919116061, "lat": 47.373469, "lon": 8.5398959}, {"type": "node", "id": 2919116062, "lat": 47.3734733, "lon": 8.5399133}, {"type": "node", "id": 2919116063, "lat": 47.3734764, "lon": 8.5406493}, {"type": "node", "id": 2919116064, "lat": 47.373478, "lon": 8.5402193}, {"type": "node", "id": 2919116065, "lat": 47.373478, "lon": 8.5406175}, {"type": "node", "id": 2919116066, "lat": 47.3734819, "lon": 8.5397533}, {"type": "node", "id": 2919116067, "lat": 47.3734823, "lon": 8.5402895}, {"type": "node", "id": 2919116068, "lat": 47.3734823, "lon": 8.5406499}, {"type": "node", "id": 2919116069, "lat": 47.3734835, "lon": 8.5406824}, {"type": "node", "id": 2919116070, "lat": 47.3734843, "lon": 8.5403069}, {"type": "node", "id": 2919116071, "lat": 47.3734863, "lon": 8.5397573}, {"type": "node", "id": 2919116072, "lat": 47.3734871, "lon": 8.5403277}, {"type": "node", "id": 2919116073, "lat": 47.3734904, "lon": 8.5400837}, {"type": "node", "id": 2919116074, "lat": 47.3734905, "lon": 8.5403731}, {"type": "node", "id": 2919116075, "lat": 47.3734922, "lon": 8.5400314}, {"type": "node", "id": 2919116076, "lat": 47.3734925, "lon": 8.540618}, {"type": "node", "id": 2919116077, "lat": 47.3734953, "lon": 8.5404223}, {"type": "node", "id": 2919116078, "lat": 47.3734957, "lon": 8.5406795}, {"type": "node", "id": 2919116079, "lat": 47.3734961, "lon": 8.5401329}, {"type": "node", "id": 2919116080, "lat": 47.3734977, "lon": 8.5394401}, {"type": "node", "id": 2919116081, "lat": 47.373498, "lon": 8.5400807}, {"type": "node", "id": 2919116082, "lat": 47.373498, "lon": 8.540152}, {"type": "node", "id": 2919116083, "lat": 47.3734988, "lon": 8.5394285}, {"type": "node", "id": 2919116084, "lat": 47.3734996, "lon": 8.5405128}, {"type": "node", "id": 2919116085, "lat": 47.3735008, "lon": 8.5405478}, {"type": "node", "id": 2919116086, "lat": 47.3735016, "lon": 8.5403254}, {"type": "node", "id": 2919116087, "lat": 47.3735067, "lon": 8.5401868}, {"type": "node", "id": 2919116088, "lat": 47.3735079, "lon": 8.5393051}, {"type": "node", "id": 2919116089, "lat": 47.3735079, "lon": 8.5403185}, {"type": "node", "id": 2919116090, "lat": 47.3735094, "lon": 8.53996}, {"type": "node", "id": 2919116091, "lat": 47.3735127, "lon": 8.5398729}, {"type": "node", "id": 2919116092, "lat": 47.3735153, "lon": 8.5395265}, {"type": "node", "id": 2919116093, "lat": 47.3735193, "lon": 8.5395381}, {"type": "node", "id": 2919116094, "lat": 47.3735193, "lon": 8.5400244}, {"type": "node", "id": 2919116095, "lat": 47.3735232, "lon": 8.5396239}, {"type": "node", "id": 2919116096, "lat": 47.3735259, "lon": 8.540549}, {"type": "node", "id": 2919116097, "lat": 47.3735259, "lon": 8.5406766}, {"type": "node", "id": 2919116098, "lat": 47.3735275, "lon": 8.5405316}, {"type": "node", "id": 2919116099, "lat": 47.3735291, "lon": 8.5395317}, {"type": "node", "id": 2919116100, "lat": 47.3735306, "lon": 8.5404916}, {"type": "node", "id": 2919116301, "lat": 47.373531, "lon": 8.5404208}, {"type": "node", "id": 2919116302, "lat": 47.3735326, "lon": 8.5399597}, {"type": "node", "id": 2919116303, "lat": 47.3735365, "lon": 8.5402983}, {"type": "node", "id": 2919116304, "lat": 47.3735369, "lon": 8.5405316}, {"type": "node", "id": 2919116305, "lat": 47.3735389, "lon": 8.5395578}, {"type": "node", "id": 2919116306, "lat": 47.3735389, "lon": 8.5401851}, {"type": "node", "id": 2919116307, "lat": 47.3735389, "lon": 8.5403115}, {"type": "node", "id": 2919116308, "lat": 47.3735428, "lon": 8.5405275}, {"type": "node", "id": 2919116309, "lat": 47.3735546, "lon": 8.5402953}, {"type": "node", "id": 2919116310, "lat": 47.3735562, "lon": 8.5405279}, {"type": "node", "id": 2919116311, "lat": 47.3735565, "lon": 8.5404928}, {"type": "node", "id": 2919116312, "lat": 47.3735573, "lon": 8.5392656}, {"type": "node", "id": 2919116313, "lat": 47.3735573, "lon": 8.5404168}, {"type": "node", "id": 2919116314, "lat": 47.3735574, "lon": 8.5404116}, {"type": "node", "id": 2919116315, "lat": 47.3735629, "lon": 8.5394685}, {"type": "node", "id": 2919116316, "lat": 47.373564, "lon": 8.5405281}, {"type": "node", "id": 2919116317, "lat": 47.3735682, "lon": 8.5397863}, {"type": "node", "id": 2919116318, "lat": 47.3735687, "lon": 8.5405316}, {"type": "node", "id": 2919116319, "lat": 47.3735693, "lon": 8.5396692}, {"type": "node", "id": 2919116320, "lat": 47.373577, "lon": 8.5400633}, {"type": "node", "id": 2919116321, "lat": 47.3735805, "lon": 8.5395271}, {"type": "node", "id": 2919116323, "lat": 47.3735902, "lon": 8.5399418}, {"type": "node", "id": 2919116324, "lat": 47.3735911, "lon": 8.5401764}, {"type": "node", "id": 2919116325, "lat": 47.3735937, "lon": 8.5396558}, {"type": "node", "id": 2919116326, "lat": 47.3735943, "lon": 8.5401926}, {"type": "node", "id": 2919116327, "lat": 47.3735958, "lon": 8.5404069}, {"type": "node", "id": 2919116328, "lat": 47.3735966, "lon": 8.5403562}, {"type": "node", "id": 2919116329, "lat": 47.3735978, "lon": 8.5402779}, {"type": "node", "id": 2919116330, "lat": 47.373601, "lon": 8.540462}, {"type": "node", "id": 2919116331, "lat": 47.3736033, "lon": 8.5400667}, {"type": "node", "id": 2919116332, "lat": 47.3736094, "lon": 8.5394459}, {"type": "node", "id": 2919116333, "lat": 47.3736094, "lon": 8.539715}, {"type": "node", "id": 2919116334, "lat": 47.3736096, "lon": 8.5401259}, {"type": "node", "id": 2919116335, "lat": 47.3736098, "lon": 8.5394233}, {"type": "node", "id": 2919116336, "lat": 47.3736118, "lon": 8.5400473}, {"type": "node", "id": 2919116337, "lat": 47.3736149, "lon": 8.5394244}, {"type": "node", "id": 2919116338, "lat": 47.373616, "lon": 8.5394664}, {"type": "node", "id": 2919116339, "lat": 47.3736192, "lon": 8.5394389}, {"type": "node", "id": 2919116340, "lat": 47.3736248, "lon": 8.5392116}, {"type": "node", "id": 2919116341, "lat": 47.3736249, "lon": 8.5394143}, {"type": "node", "id": 2919116342, "lat": 47.3736294, "lon": 8.5404069}, {"type": "node", "id": 2919116343, "lat": 47.3736304, "lon": 8.5394311}, {"type": "node", "id": 2919116344, "lat": 47.373631, "lon": 8.5403414}, {"type": "node", "id": 2919116345, "lat": 47.3736347, "lon": 8.5404632}, {"type": "node", "id": 2919116346, "lat": 47.3736347, "lon": 8.5406749}, {"type": "node", "id": 2919116347, "lat": 47.3736349, "lon": 8.5404864}, {"type": "node", "id": 2919116348, "lat": 47.3736351, "lon": 8.5405345}, {"type": "node", "id": 2919116349, "lat": 47.3736364, "lon": 8.5395273}, {"type": "node", "id": 2919116350, "lat": 47.3736475, "lon": 8.5399122}, {"type": "node", "id": 2919116351, "lat": 47.3736501, "lon": 8.5392774}, {"type": "node", "id": 2919116352, "lat": 47.3736579, "lon": 8.540054}, {"type": "node", "id": 2919116353, "lat": 47.3736642, "lon": 8.5401132}, {"type": "node", "id": 2919116354, "lat": 47.373672, "lon": 8.5395019}, {"type": "node", "id": 2919116355, "lat": 47.3736722, "lon": 8.5400357}, {"type": "node", "id": 2919116356, "lat": 47.3736734, "lon": 8.5396431}, {"type": "node", "id": 2919116357, "lat": 47.3736756, "lon": 8.5406499}, {"type": "node", "id": 2919116358, "lat": 47.3736772, "lon": 8.5403988}, {"type": "node", "id": 2919116359, "lat": 47.373681, "lon": 8.5391433}, {"type": "node", "id": 2919116360, "lat": 47.3736825, "lon": 8.5396767}, {"type": "node", "id": 2919116361, "lat": 47.3736827, "lon": 8.5393754}, {"type": "node", "id": 2919116362, "lat": 47.3736874, "lon": 8.5395152}, {"type": "node", "id": 2919116363, "lat": 47.3736913, "lon": 8.5393737}, {"type": "node", "id": 2919116364, "lat": 47.3736925, "lon": 8.5404655}, {"type": "node", "id": 2919116365, "lat": 47.3736936, "lon": 8.5397217}, {"type": "node", "id": 2919116366, "lat": 47.3736948, "lon": 8.5394253}, {"type": "node", "id": 2919116367, "lat": 47.3736976, "lon": 8.5394398}, {"type": "node", "id": 2919116368, "lat": 47.3736988, "lon": 8.5401833}, {"type": "node", "id": 2919116369, "lat": 47.373704, "lon": 8.5394812}, {"type": "node", "id": 2919116370, "lat": 47.3737054, "lon": 8.5405339}, {"type": "node", "id": 2919116371, "lat": 47.373709, "lon": 8.5393621}, {"type": "node", "id": 2919116372, "lat": 47.3737101, "lon": 8.5395022}, {"type": "node", "id": 2919116373, "lat": 47.3737156, "lon": 8.5393151}, {"type": "node", "id": 2919116374, "lat": 47.3737169, "lon": 8.5400314}, {"type": "node", "id": 2919116375, "lat": 47.3737172, "lon": 8.5393603}, {"type": "node", "id": 2919116376, "lat": 47.3737184, "lon": 8.539612}, {"type": "node", "id": 2919116377, "lat": 47.3737207, "lon": 8.5393308}, {"type": "node", "id": 2919116378, "lat": 47.3737223, "lon": 8.5395448}, {"type": "node", "id": 2919116379, "lat": 47.3737223, "lon": 8.5398771}, {"type": "node", "id": 2919116380, "lat": 47.3737259, "lon": 8.5401565}, {"type": "node", "id": 2919116381, "lat": 47.3737265, "lon": 8.5403299}, {"type": "node", "id": 2919116382, "lat": 47.3737333, "lon": 8.540589}, {"type": "node", "id": 2919116383, "lat": 47.3737341, "lon": 8.539423}, {"type": "node", "id": 2919116384, "lat": 47.3737341, "lon": 8.5403715}, {"type": "node", "id": 2919116385, "lat": 47.3737365, "lon": 8.539463}, {"type": "node", "id": 2919116386, "lat": 47.3737388, "lon": 8.5394694}, {"type": "node", "id": 2919116387, "lat": 47.37374, "lon": 8.5392983}, {"type": "node", "id": 2919116388, "lat": 47.3737404, "lon": 8.5395859}, {"type": "node", "id": 2919116389, "lat": 47.3737451, "lon": 8.5396039}, {"type": "node", "id": 2919116390, "lat": 47.3737475, "lon": 8.5396938}, {"type": "node", "id": 2919116391, "lat": 47.3737506, "lon": 8.5404492}, {"type": "node", "id": 2919116392, "lat": 47.3737523, "lon": 8.5395279}, {"type": "node", "id": 2919116393, "lat": 47.3737533, "lon": 8.5393357}, {"type": "node", "id": 2919116394, "lat": 47.3737565, "lon": 8.5401775}, {"type": "node", "id": 2919116395, "lat": 47.3737614, "lon": 8.5390748}, {"type": "node", "id": 2919116396, "lat": 47.3737632, "lon": 8.5395749}, {"type": "node", "id": 2919116397, "lat": 47.3737694, "lon": 8.5400231}, {"type": "node", "id": 2919116398, "lat": 47.3737759, "lon": 8.53987}, {"type": "node", "id": 2919116399, "lat": 47.3737785, "lon": 8.5401482}, {"type": "node", "id": 2919116400, "lat": 47.3737814, "lon": 8.5399174}, {"type": "node", "id": 2919116401, "lat": 47.3737844, "lon": 8.5396828}, {"type": "node", "id": 2919116402, "lat": 47.3737867, "lon": 8.5391501}, {"type": "node", "id": 2919116403, "lat": 47.3737871, "lon": 8.5391437}, {"type": "node", "id": 2919116404, "lat": 47.3737914, "lon": 8.5403765}, {"type": "node", "id": 2919116405, "lat": 47.3737918, "lon": 8.5405281}, {"type": "node", "id": 2919116406, "lat": 47.3738087, "lon": 8.5404107}, {"type": "node", "id": 2919116407, "lat": 47.3738089, "lon": 8.5392949}, {"type": "node", "id": 2919116408, "lat": 47.3738205, "lon": 8.5403979}, {"type": "node", "id": 2919116409, "lat": 47.3738211, "lon": 8.5399093}, {"type": "node", "id": 2919116410, "lat": 47.3738255, "lon": 8.5399563}, {"type": "node", "id": 2919116411, "lat": 47.3738335, "lon": 8.5399551}, {"type": "node", "id": 2919116412, "lat": 47.3738376, "lon": 8.5400276}, {"type": "node", "id": 2919116413, "lat": 47.3738378, "lon": 8.5392736}, {"type": "node", "id": 2919116414, "lat": 47.3738431, "lon": 8.5401436}, {"type": "node", "id": 2919116415, "lat": 47.3738433, "lon": 8.5394128}, {"type": "node", "id": 2919116416, "lat": 47.3738484, "lon": 8.5390097}, {"type": "node", "id": 2919116417, "lat": 47.3738621, "lon": 8.5402819}, {"type": "node", "id": 2919116418, "lat": 47.3738669, "lon": 8.5404542}, {"type": "node", "id": 2919116419, "lat": 47.3738688, "lon": 8.5393995}, {"type": "node", "id": 2919116420, "lat": 47.3738704, "lon": 8.5401653}, {"type": "node", "id": 2919116421, "lat": 47.3738775, "lon": 8.5395349}, {"type": "node", "id": 2919116422, "lat": 47.3738947, "lon": 8.5390486}, {"type": "node", "id": 2919116423, "lat": 47.3738979, "lon": 8.5396283}, {"type": "node", "id": 2919116424, "lat": 47.3739048, "lon": 8.5401622}, {"type": "node", "id": 2919116425, "lat": 47.373912, "lon": 8.5392638}, {"type": "node", "id": 2919116426, "lat": 47.3739215, "lon": 8.5393914}, {"type": "node", "id": 2919116427, "lat": 47.3739274, "lon": 8.5400241}, {"type": "node", "id": 2919116428, "lat": 47.3739313, "lon": 8.5398493}, {"type": "node", "id": 2919116429, "lat": 47.3739348, "lon": 8.5395256}, {"type": "node", "id": 2919116430, "lat": 47.373937, "lon": 8.5399447}, {"type": "node", "id": 2919116431, "lat": 47.3739419, "lon": 8.5396202}, {"type": "node", "id": 2919116432, "lat": 47.3739423, "lon": 8.540377}, {"type": "node", "id": 2919116433, "lat": 47.3739489, "lon": 8.5403034}, {"type": "node", "id": 2919116434, "lat": 47.3739617, "lon": 8.5401749}, {"type": "node", "id": 2919116435, "lat": 47.3739668, "lon": 8.5399394}, {"type": "node", "id": 2919116436, "lat": 47.3739688, "lon": 8.5401349}, {"type": "node", "id": 2919116437, "lat": 47.3739731, "lon": 8.5400125}, {"type": "node", "id": 2919116438, "lat": 47.3739774, "lon": 8.5400607}, {"type": "node", "id": 2920747282, "lat": 47.3723541, "lon": 8.540002, "tags": {"addr:city": "Z\u00fcrich", "addr:country": "CH", "addr:housenumber": "1", "addr:postcode": "8001", "addr:street": "Rennweg"}}, {"type": "node", "id": 2920747283, "lat": 47.3729513, "lon": 8.5395282, "tags": {"addr:city": "Z\u00fcrich", "addr:country": "CH", "addr:housenumber": "25", "addr:postcode": "8001", "addr:street": "Rennweg"}}, {"type": "node", "id": 2920747285, "lat": 47.3724323, "lon": 8.5399361, "tags": {"addr:city": "Z\u00fcrich", "addr:country": "CH", "addr:housenumber": "3", "addr:postcode": "8001", "addr:street": "Rennweg"}}, {"type": "node", "id": 2920747286, "lat": 47.3725072, "lon": 8.5398737, "tags": {"addr:city": "Z\u00fcrich", "addr:country": "CH", "addr:housenumber": "7", "addr:postcode": "8001", "addr:street": "Rennweg"}}, {"type": "node", "id": 2920747287, "lat": 47.372124, "lon": 8.5395879}, {"type": "node", "id": 2920747288, "lat": 47.3721385, "lon": 8.5396443}, {"type": "node", "id": 2920747289, "lat": 47.3721512, "lon": 8.5396891}, {"type": "node", "id": 2920747290, "lat": 47.3721517, "lon": 8.5395224}, {"type": "node", "id": 2920747291, "lat": 47.3721714, "lon": 8.5397572}, {"type": "node", "id": 2920747292, "lat": 47.3721858, "lon": 8.5394403}, {"type": "node", "id": 2920747293, "lat": 47.3722198, "lon": 8.5396481}, {"type": "node", "id": 2920747294, "lat": 47.3722218, "lon": 8.5396413}, {"type": "node", "id": 2920747296, "lat": 47.3722318, "lon": 8.5395863}, {"type": "node", "id": 2920747297, "lat": 47.3722308, "lon": 8.5392909}, {"type": "node", "id": 2920747298, "lat": 47.3722363, "lon": 8.5395879}, {"type": "node", "id": 2920747300, "lat": 47.3722461, "lon": 8.539245}, {"type": "node", "id": 2920747501, "lat": 47.3722536, "lon": 8.5395485}, {"type": "node", "id": 2920747502, "lat": 47.372256, "lon": 8.5396217}, {"type": "node", "id": 2920747503, "lat": 47.3722567, "lon": 8.5395679}, {"type": "node", "id": 2920747504, "lat": 47.3722611, "lon": 8.5396259}, {"type": "node", "id": 2920747505, "lat": 47.3722634, "lon": 8.5396341}, {"type": "node", "id": 2920747506, "lat": 47.3722725, "lon": 8.5396936}, {"type": "node", "id": 2920747507, "lat": 47.3722751, "lon": 8.5396191}, {"type": "node", "id": 2920747508, "lat": 47.3722763, "lon": 8.5400684}, {"type": "node", "id": 2920747509, "lat": 47.3722779, "lon": 8.5394707}, {"type": "node", "id": 2920747510, "lat": 47.3722892, "lon": 8.5395577}, {"type": "node", "id": 2920747511, "lat": 47.3722973, "lon": 8.5396191}, {"type": "node", "id": 2920747512, "lat": 47.3722995, "lon": 8.5396364}, {"type": "node", "id": 2920747513, "lat": 47.3723005, "lon": 8.5389832}, {"type": "node", "id": 2920747514, "lat": 47.3723041, "lon": 8.5396402}, {"type": "node", "id": 2920747515, "lat": 47.3723088, "lon": 8.5389082}, {"type": "node", "id": 2920747516, "lat": 47.3723092, "lon": 8.5396744}, {"type": "node", "id": 2920747517, "lat": 47.3723203, "lon": 8.5388183}, {"type": "node", "id": 2920747518, "lat": 47.3723235, "lon": 8.5393517}, {"type": "node", "id": 2920747519, "lat": 47.3723303, "lon": 8.5394885}, {"type": "node", "id": 2920747520, "lat": 47.3723368, "lon": 8.5395193}, {"type": "node", "id": 2920747521, "lat": 47.3723494, "lon": 8.5393916}, {"type": "node", "id": 2920747522, "lat": 47.3723624, "lon": 8.5393533}, {"type": "node", "id": 2920747523, "lat": 47.3723642, "lon": 8.5396146}, {"type": "node", "id": 2920747524, "lat": 47.3723653, "lon": 8.5394326}, {"type": "node", "id": 2920747525, "lat": 47.3723736, "lon": 8.5395044}, {"type": "node", "id": 2920747526, "lat": 47.3723798, "lon": 8.5392674}, {"type": "node", "id": 2920747527, "lat": 47.3723804, "lon": 8.5396885}, {"type": "node", "id": 2920747528, "lat": 47.3723848, "lon": 8.5392732}, {"type": "node", "id": 2920747529, "lat": 47.3723901, "lon": 8.5394422}, {"type": "node", "id": 2920747530, "lat": 47.3723912, "lon": 8.5396023}, {"type": "node", "id": 2920747531, "lat": 47.3723917, "lon": 8.5392291}, {"type": "node", "id": 2920747532, "lat": 47.372392, "lon": 8.5392099}, {"type": "node", "id": 2920747533, "lat": 47.3723929, "lon": 8.5392743}, {"type": "node", "id": 2920747534, "lat": 47.3723929, "lon": 8.5393046}, {"type": "node", "id": 2920747535, "lat": 47.3723935, "lon": 8.5393424}, {"type": "node", "id": 2920747536, "lat": 47.3724036, "lon": 8.5392094}, {"type": "node", "id": 2920747537, "lat": 47.3724081, "lon": 8.5392753}, {"type": "node", "id": 2920747538, "lat": 47.3724084, "lon": 8.5392652}, {"type": "node", "id": 2920747539, "lat": 47.37241, "lon": 8.5393608}, {"type": "node", "id": 2920747540, "lat": 47.3724108, "lon": 8.5393429}, {"type": "node", "id": 2920747541, "lat": 47.3724121, "lon": 8.539415}, {"type": "node", "id": 2920747542, "lat": 47.3724157, "lon": 8.5394422}, {"type": "node", "id": 2920747543, "lat": 47.3724173, "lon": 8.5391567}, {"type": "node", "id": 2920747544, "lat": 47.3724176, "lon": 8.5391413}, {"type": "node", "id": 2920747545, "lat": 47.3724247, "lon": 8.5392666}, {"type": "node", "id": 2920747546, "lat": 47.3724261, "lon": 8.5392381}, {"type": "node", "id": 2920747547, "lat": 47.3724261, "lon": 8.5393089}, {"type": "node", "id": 2920747548, "lat": 47.3724273, "lon": 8.5396593}, {"type": "node", "id": 2920747549, "lat": 47.3724282, "lon": 8.5393568}, {"type": "node", "id": 2920747550, "lat": 47.372433, "lon": 8.5396773}, {"type": "node", "id": 2920747551, "lat": 47.372441, "lon": 8.5389087}, {"type": "node", "id": 2920747552, "lat": 47.3724464, "lon": 8.5389896}, {"type": "node", "id": 2920747553, "lat": 47.3724585, "lon": 8.5393977}, {"type": "node", "id": 2920747555, "lat": 47.372469, "lon": 8.5389383}, {"type": "node", "id": 2920747556, "lat": 47.3724729, "lon": 8.5389888}, {"type": "node", "id": 2920747557, "lat": 47.3724833, "lon": 8.5388076}, {"type": "node", "id": 2920747558, "lat": 47.3724841, "lon": 8.5392715}, {"type": "node", "id": 2920747559, "lat": 47.3724845, "lon": 8.5392402}, {"type": "node", "id": 2920747560, "lat": 47.3724867, "lon": 8.53963}, {"type": "node", "id": 2920747561, "lat": 47.3724892, "lon": 8.5396507}, {"type": "node", "id": 2920747562, "lat": 47.3724907, "lon": 8.538691}, {"type": "node", "id": 2920747563, "lat": 47.3724924, "lon": 8.5392722}, {"type": "node", "id": 2920747564, "lat": 47.3724928, "lon": 8.5392562}, {"type": "node", "id": 2920747565, "lat": 47.3725025, "lon": 8.5392934}, {"type": "node", "id": 2920747566, "lat": 47.3725032, "lon": 8.5389207}, {"type": "node", "id": 2920747567, "lat": 47.3725032, "lon": 8.5389329}, {"type": "node", "id": 2920747568, "lat": 47.3725039, "lon": 8.5392738}, {"type": "node", "id": 2920747569, "lat": 47.372505, "lon": 8.5392557}, {"type": "node", "id": 2920747570, "lat": 47.3725072, "lon": 8.5393514}, {"type": "node", "id": 2920747571, "lat": 47.372509, "lon": 8.5392184}, {"type": "node", "id": 2920747572, "lat": 47.3725122, "lon": 8.539154}, {"type": "node", "id": 2920747573, "lat": 47.3725129, "lon": 8.5389824}, {"type": "node", "id": 2920747574, "lat": 47.3725202, "lon": 8.5390709}, {"type": "node", "id": 2920747575, "lat": 47.3725333, "lon": 8.5386835}, {"type": "node", "id": 2920747577, "lat": 47.3725393, "lon": 8.5398466}, {"type": "node", "id": 2920747579, "lat": 47.3725514, "lon": 8.539298}, {"type": "node", "id": 2920747580, "lat": 47.3725569, "lon": 8.5389106}, {"type": "node", "id": 2920747581, "lat": 47.3725591, "lon": 8.5395599}, {"type": "node", "id": 2920747582, "lat": 47.3725648, "lon": 8.5389936}, {"type": "node", "id": 2920747583, "lat": 47.3725739, "lon": 8.5392385}, {"type": "node", "id": 2920747584, "lat": 47.3725782, "lon": 8.5389947}, {"type": "node", "id": 2920747585, "lat": 47.37258, "lon": 8.5390154}, {"type": "node", "id": 2920747586, "lat": 47.3725806, "lon": 8.5388099}, {"type": "node", "id": 2920747587, "lat": 47.3725854, "lon": 8.5390181}, {"type": "node", "id": 2920747588, "lat": 47.3725868, "lon": 8.539067}, {"type": "node", "id": 2920747589, "lat": 47.3725911, "lon": 8.5390668}, {"type": "node", "id": 2920747590, "lat": 47.3725926, "lon": 8.539079}, {"type": "node", "id": 2920747591, "lat": 47.3725946, "lon": 8.5388998}, {"type": "node", "id": 2920747592, "lat": 47.3726034, "lon": 8.5387723}, {"type": "node", "id": 2920747593, "lat": 47.3726073, "lon": 8.5391445}, {"type": "node", "id": 2920747594, "lat": 47.3726102, "lon": 8.5391285}, {"type": "node", "id": 2920747595, "lat": 47.372612, "lon": 8.5390737}, {"type": "node", "id": 2920747596, "lat": 47.3726125, "lon": 8.5391904}, {"type": "node", "id": 2920747597, "lat": 47.3726135, "lon": 8.5388968}, {"type": "node", "id": 2920747598, "lat": 47.3726163, "lon": 8.5388904}, {"type": "node", "id": 2920747599, "lat": 47.3726317, "lon": 8.5390137}, {"type": "node", "id": 2920747600, "lat": 47.3726355, "lon": 8.5387929}, {"type": "node", "id": 2920747601, "lat": 47.372637, "lon": 8.5388017}, {"type": "node", "id": 2920747602, "lat": 47.3726409, "lon": 8.5387666}, {"type": "node", "id": 2920747603, "lat": 47.3726772, "lon": 8.5393527}, {"type": "node", "id": 2920747604, "lat": 47.372684, "lon": 8.5390029}, {"type": "node", "id": 2920747605, "lat": 47.3726936, "lon": 8.5397231}, {"type": "node", "id": 2920747606, "lat": 47.3726972, "lon": 8.5386632}, {"type": "node", "id": 2920747607, "lat": 47.3727058, "lon": 8.5386748}, {"type": "node", "id": 2920747608, "lat": 47.372723, "lon": 8.5393488}, {"type": "node", "id": 2920747609, "lat": 47.3727583, "lon": 8.5393281}, {"type": "node", "id": 2920747610, "lat": 47.3727889, "lon": 8.5394223}, {"type": "node", "id": 2920747611, "lat": 47.3728137, "lon": 8.539259}, {"type": "node", "id": 2920747612, "lat": 47.3728339, "lon": 8.5393668}, {"type": "node", "id": 2920747613, "lat": 47.3728346, "lon": 8.539093}, {"type": "node", "id": 2920747614, "lat": 47.3728369, "lon": 8.5393748}, {"type": "node", "id": 2920747615, "lat": 47.3728414, "lon": 8.539371}, {"type": "node", "id": 2920747616, "lat": 47.3728458, "lon": 8.5393814}, {"type": "node", "id": 2920747617, "lat": 47.3728542, "lon": 8.5393748}, {"type": "node", "id": 2924910147, "lat": 47.3720368, "lon": 8.5398343, "tags": {"addr:city": "Z\u00fcrich", "addr:country": "CH", "addr:housenumber": "16", "addr:postcode": "8001", "addr:street": "Augustinergasse"}}, {"type": "node", "id": 2924910149, "lat": 47.3718173, "lon": 8.5389986, "tags": {"addr:city": "Z\u00fcrich", "addr:country": "CH", "addr:housenumber": "5", "addr:postcode": "8001", "addr:street": "M\u00fcnzplatz"}}, {"type": "node", "id": 2924910150, "lat": 47.37216, "lon": 8.5399064, "tags": {"addr:city": "Z\u00fcrich", "addr:country": "CH", "addr:housenumber": "5", "addr:postcode": "8001", "addr:street": "Widdergasse"}}, {"type": "node", "id": 2924910151, "lat": 47.3716605, "lon": 8.5392526}, {"type": "node", "id": 2924910152, "lat": 47.3716666, "lon": 8.5392858}, {"type": "node", "id": 2924910153, "lat": 47.3716927, "lon": 8.5388658}, {"type": "node", "id": 2924910155, "lat": 47.3718521, "lon": 8.5388477}, {"type": "node", "id": 2924910158, "lat": 47.3719024, "lon": 8.5390802}, {"type": "node", "id": 2924910159, "lat": 47.371914, "lon": 8.5388375}, {"type": "node", "id": 2924910160, "lat": 47.3719339, "lon": 8.5390568}, {"type": "node", "id": 2924910161, "lat": 47.3719378, "lon": 8.5390493}, {"type": "node", "id": 2924910163, "lat": 47.3719621, "lon": 8.5388068}, {"type": "node", "id": 2924910164, "lat": 47.3719638, "lon": 8.5388179}, {"type": "node", "id": 2924910165, "lat": 47.3719748, "lon": 8.5399336}, {"type": "node", "id": 2924910168, "lat": 47.3720066, "lon": 8.5392441}, {"type": "node", "id": 2924910169, "lat": 47.3720071, "lon": 8.5399833}, {"type": "node", "id": 2924910170, "lat": 47.3720119, "lon": 8.5399837}, {"type": "node", "id": 2924910173, "lat": 47.3720583, "lon": 8.5391206}, {"type": "node", "id": 2924910175, "lat": 47.3721013, "lon": 8.5393542}, {"type": "node", "id": 2924910177, "lat": 47.3721021, "lon": 8.5388689}, {"type": "node", "id": 2924910178, "lat": 47.372104, "lon": 8.5393477}, {"type": "node", "id": 2924910179, "lat": 47.3721128, "lon": 8.5389702}, {"type": "node", "id": 2924910180, "lat": 47.3721229, "lon": 8.5387792}, {"type": "node", "id": 2924910181, "lat": 47.3721237, "lon": 8.5388196}, {"type": "node", "id": 2924910182, "lat": 47.3721331, "lon": 8.5387784}, {"type": "node", "id": 2924910183, "lat": 47.3721367, "lon": 8.5388203}, {"type": "node", "id": 2924910184, "lat": 47.3721517, "lon": 8.5402001}, {"type": "node", "id": 2924910185, "lat": 47.3721622, "lon": 8.539292}, {"type": "node", "id": 2924910187, "lat": 47.3722427, "lon": 8.5387591}, {"type": "node", "id": 2925696793, "lat": 47.3719534, "lon": 8.5404226, "tags": {"addr:city": "Z\u00fcrich", "addr:country": "CH", "addr:housenumber": "7", "addr:postcode": "8001", "addr:street": "Glockengasse"}}, {"type": "node", "id": 2925696800, "lat": 47.3715505, "lon": 8.5402951}, {"type": "node", "id": 2925699984, "lat": 47.3713714, "lon": 8.5394845}, {"type": "node", "id": 2925703903, "lat": 47.3714357, "lon": 8.5394411}, {"type": "node", "id": 2925703904, "lat": 47.3715004, "lon": 8.5393996}, {"type": "node", "id": 2925703905, "lat": 47.3715732, "lon": 8.5393505}, {"type": "node", "id": 2925703906, "lat": 47.3715763, "lon": 8.5393603}, {"type": "node", "id": 2925703909, "lat": 47.3716326, "lon": 8.5393088}, {"type": "node", "id": 2925703910, "lat": 47.371636, "lon": 8.53932}, {"type": "node", "id": 2925715591, "lat": 47.3716076, "lon": 8.5400414}, {"type": "node", "id": 2925715592, "lat": 47.3716417, "lon": 8.5398995}, {"type": "node", "id": 2925715593, "lat": 47.3716632, "lon": 8.5399514}, {"type": "node", "id": 2925715594, "lat": 47.3716666, "lon": 8.5399563}, {"type": "node", "id": 2925715595, "lat": 47.3717372, "lon": 8.5398952}, {"type": "node", "id": 2925715596, "lat": 47.3717493, "lon": 8.5398836}, {"type": "node", "id": 2925715597, "lat": 47.3717547, "lon": 8.5400004}, {"type": "node", "id": 2925715598, "lat": 47.3717632, "lon": 8.5399377}, {"type": "node", "id": 2925715599, "lat": 47.3717805, "lon": 8.5399297}, {"type": "node", "id": 2925716401, "lat": 47.3717923, "lon": 8.5399811}, {"type": "node", "id": 2925754101, "lat": 47.3715536, "lon": 8.5403588}, {"type": "node", "id": 2925754102, "lat": 47.3715583, "lon": 8.5403559}, {"type": "node", "id": 2925754103, "lat": 47.3715623, "lon": 8.5404317}, {"type": "node", "id": 2925754104, "lat": 47.3715752, "lon": 8.5405429}, {"type": "node", "id": 2925754105, "lat": 47.371585, "lon": 8.5405788}, {"type": "node", "id": 2925754106, "lat": 47.3715885, "lon": 8.5403385}, {"type": "node", "id": 2925754107, "lat": 47.3716242, "lon": 8.5405568}, {"type": "node", "id": 2925754108, "lat": 47.3716254, "lon": 8.5405696}, {"type": "node", "id": 2925754109, "lat": 47.3716309, "lon": 8.5402343}, {"type": "node", "id": 2925754111, "lat": 47.3716375, "lon": 8.5404061}, {"type": "node", "id": 2925754112, "lat": 47.3716407, "lon": 8.5402285}, {"type": "node", "id": 2925754113, "lat": 47.3716506, "lon": 8.5405303}, {"type": "node", "id": 2925754114, "lat": 47.3716513, "lon": 8.5403072}, {"type": "node", "id": 2925754115, "lat": 47.3716529, "lon": 8.5405516}, {"type": "node", "id": 2925754116, "lat": 47.3716627, "lon": 8.5403976}, {"type": "node", "id": 2925754117, "lat": 47.3716888, "lon": 8.5403868}, {"type": "node", "id": 2925754118, "lat": 47.3716906, "lon": 8.5403397}, {"type": "node", "id": 2925754119, "lat": 47.3716964, "lon": 8.5403275}, {"type": "node", "id": 2925754121, "lat": 47.3716968, "lon": 8.5403366}, {"type": "node", "id": 2925754122, "lat": 47.3716973, "lon": 8.5403835}, {"type": "node", "id": 2925754123, "lat": 47.3717082, "lon": 8.540379}, {"type": "node", "id": 2925754124, "lat": 47.371725, "lon": 8.5405169}, {"type": "node", "id": 2925754126, "lat": 47.3717395, "lon": 8.5401399}, {"type": "node", "id": 2925754127, "lat": 47.3717556, "lon": 8.5402372}, {"type": "node", "id": 2925754129, "lat": 47.3717646, "lon": 8.5403026}, {"type": "node", "id": 2925754130, "lat": 47.371778, "lon": 8.5404068}, {"type": "node", "id": 2925754133, "lat": 47.3717929, "lon": 8.540097}, {"type": "node", "id": 2925754134, "lat": 47.3717988, "lon": 8.5402516}, {"type": "node", "id": 2925754135, "lat": 47.3718046, "lon": 8.5402893}, {"type": "node", "id": 2925754136, "lat": 47.3718058, "lon": 8.5402024}, {"type": "node", "id": 2925754137, "lat": 47.3718066, "lon": 8.5402169}, {"type": "node", "id": 2925754138, "lat": 47.3718076, "lon": 8.5405286}, {"type": "node", "id": 2925754140, "lat": 47.3718105, "lon": 8.5402331}, {"type": "node", "id": 2925754142, "lat": 47.3718294, "lon": 8.5401862}, {"type": "node", "id": 2925754144, "lat": 47.37184, "lon": 8.5406745}, {"type": "node", "id": 2925754145, "lat": 47.3718415, "lon": 8.5400605}, {"type": "node", "id": 2925754146, "lat": 47.3718443, "lon": 8.5407089}, {"type": "node", "id": 2925754147, "lat": 47.3718473, "lon": 8.5408051}, {"type": "node", "id": 2925754148, "lat": 47.3718474, "lon": 8.5401312}, {"type": "node", "id": 2925754150, "lat": 47.3718521, "lon": 8.5401735}, {"type": "node", "id": 2925754151, "lat": 47.371854, "lon": 8.5407973}, {"type": "node", "id": 2925754152, "lat": 47.3718612, "lon": 8.5409001}, {"type": "node", "id": 2925754153, "lat": 47.371869, "lon": 8.5405847}, {"type": "node", "id": 2925754154, "lat": 47.3718775, "lon": 8.5401213}, {"type": "node", "id": 2925754155, "lat": 47.3718783, "lon": 8.5406639}, {"type": "node", "id": 2925754156, "lat": 47.3718803, "lon": 8.5401735}, {"type": "node", "id": 2925754157, "lat": 47.3718807, "lon": 8.5402099}, {"type": "node", "id": 2925754158, "lat": 47.3718815, "lon": 8.5400391}, {"type": "node", "id": 2925754159, "lat": 47.3718816, "lon": 8.5406977}, {"type": "node", "id": 2925754160, "lat": 47.3718849, "lon": 8.5405817}, {"type": "node", "id": 2925754161, "lat": 47.3718882, "lon": 8.5405314}, {"type": "node", "id": 2925754162, "lat": 47.3718934, "lon": 8.5406942}, {"type": "node", "id": 2925754163, "lat": 47.3718944, "lon": 8.5407023}, {"type": "node", "id": 2925754164, "lat": 47.3719189, "lon": 8.5408891}, {"type": "node", "id": 2925754165, "lat": 47.3719202, "lon": 8.5404736}, {"type": "node", "id": 2925754166, "lat": 47.3719393, "lon": 8.5406896}, {"type": "node", "id": 2925754167, "lat": 47.3719416, "lon": 8.5403741}, {"type": "node", "id": 2925754168, "lat": 47.3719513, "lon": 8.5400281}, {"type": "node", "id": 2925754169, "lat": 47.3719552, "lon": 8.5400959}, {"type": "node", "id": 2925754170, "lat": 47.3719555, "lon": 8.54062}, {"type": "node", "id": 2925754171, "lat": 47.3719556, "lon": 8.5405267}, {"type": "node", "id": 2925754172, "lat": 47.3719568, "lon": 8.5401509}, {"type": "node", "id": 2925754173, "lat": 47.3719596, "lon": 8.5403478}, {"type": "node", "id": 2925754174, "lat": 47.3719605, "lon": 8.5406827}, {"type": "node", "id": 2925754175, "lat": 47.3719638, "lon": 8.5408821}, {"type": "node", "id": 2925754176, "lat": 47.3719667, "lon": 8.5408653}, {"type": "node", "id": 2925754178, "lat": 47.37199, "lon": 8.5408613}, {"type": "node", "id": 2925754179, "lat": 47.371993, "lon": 8.5406705}, {"type": "node", "id": 2925754180, "lat": 47.3719956, "lon": 8.5405858}, {"type": "node", "id": 2925754181, "lat": 47.3719958, "lon": 8.5404987}, {"type": "node", "id": 2925754182, "lat": 47.3720356, "lon": 8.5408429}, {"type": "node", "id": 2925754183, "lat": 47.3720378, "lon": 8.540592}, {"type": "node", "id": 2925754184, "lat": 47.3720388, "lon": 8.5406805}, {"type": "node", "id": 2925754185, "lat": 47.3720407, "lon": 8.5408356}, {"type": "node", "id": 2925754186, "lat": 47.3720428, "lon": 8.5405868}, {"type": "node", "id": 2925754187, "lat": 47.3720442, "lon": 8.5404945}, {"type": "node", "id": 2925754188, "lat": 47.3720504, "lon": 8.540683}, {"type": "node", "id": 2925754189, "lat": 47.3720512, "lon": 8.540491}, {"type": "node", "id": 2925754190, "lat": 47.3720519, "lon": 8.5406733}, {"type": "node", "id": 2925754191, "lat": 47.3720643, "lon": 8.5405927}, {"type": "node", "id": 2925754192, "lat": 47.3720802, "lon": 8.5404532}, {"type": "node", "id": 2925754193, "lat": 47.3720802, "lon": 8.5406823}, {"type": "node", "id": 2925754194, "lat": 47.3720816, "lon": 8.5404886}, {"type": "node", "id": 2925754195, "lat": 47.3720856, "lon": 8.5408166}, {"type": "node", "id": 2925754196, "lat": 47.3720869, "lon": 8.5406832}, {"type": "node", "id": 2925754197, "lat": 47.372089, "lon": 8.5404045}, {"type": "node", "id": 2925754198, "lat": 47.3720906, "lon": 8.540452}, {"type": "node", "id": 2925754199, "lat": 47.3720925, "lon": 8.5406908}, {"type": "node", "id": 2925754200, "lat": 47.3720944, "lon": 8.5403063}, {"type": "node", "id": 2925754201, "lat": 47.3720986, "lon": 8.5406022}, {"type": "node", "id": 2925754202, "lat": 47.3721086, "lon": 8.5404493}, {"type": "node", "id": 2925754203, "lat": 47.3721102, "lon": 8.5404893}, {"type": "node", "id": 2925754204, "lat": 47.3721194, "lon": 8.540608}, {"type": "node", "id": 2925754205, "lat": 47.3721227, "lon": 8.5406142}, {"type": "node", "id": 2925754206, "lat": 47.3721312, "lon": 8.5403809}, {"type": "node", "id": 2925754207, "lat": 47.3721392, "lon": 8.5407892}, {"type": "node", "id": 2925754208, "lat": 47.3721408, "lon": 8.5403807}, {"type": "node", "id": 2925754209, "lat": 47.3721575, "lon": 8.5407611}, {"type": "node", "id": 2925754210, "lat": 47.3721678, "lon": 8.5404935}, {"type": "node", "id": 2925754211, "lat": 47.3721764, "lon": 8.5407088}, {"type": "node", "id": 2925754212, "lat": 47.3721993, "lon": 8.5406305}, {"type": "node", "id": 2925754213, "lat": 47.3722216, "lon": 8.5405098}, {"type": "node", "id": 2925754214, "lat": 47.372228, "lon": 8.5405118}, {"type": "node", "id": 2944054986, "lat": 47.3741611, "lon": 8.5402532, "tags": {"access": "yes", "addr:city": "Z\u00fcrich", "addr:housenumber": "19", "addr:postcode": "8001", "addr:street": "Lindenhofstrasse", "entrance": "main", "wheelchair": "yes"}}, {"type": "node", "id": 2944054987, "lat": 47.3740565, "lon": 8.5398727, "tags": {"access": "private", "addr:city": "Z\u00fcrich", "addr:housenumber": "22", "addr:postcode": "8001", "addr:street": "Oetenbachgasse", "entrance": "service", "wheelchair": "limited"}}, {"type": "node", "id": 2944054988, "lat": 47.3739968, "lon": 8.5391219, "tags": {"addr:city": "Z\u00fcrich", "addr:country": "CH", "addr:housenumber": "26", "addr:postcode": "8001", "addr:street": "Oetenbachgasse"}}, {"type": "node", "id": 2944054990, "lat": 47.3740279, "lon": 8.538867, "tags": {"addr:city": "Z\u00fcrich", "addr:country": "CH", "addr:housenumber": "58", "addr:postcode": "8001", "addr:street": "Rennweg"}}, {"type": "node", "id": 2944054991, "lat": 47.3742685, "lon": 8.5387434, "tags": {"addr:city": "Z\u00fcrich", "addr:country": "CH", "addr:housenumber": "70", "addr:postcode": "8001", "addr:street": "Bahnhofstrasse"}}, {"type": "node", "id": 2944054996, "lat": 47.3741061, "lon": 8.5391607}, {"type": "node", "id": 2944054998, "lat": 47.3741234, "lon": 8.5396519}, {"type": "node", "id": 2944054999, "lat": 47.3741321, "lon": 8.5396623}, {"type": "node", "id": 2944055000, "lat": 47.3741337, "lon": 8.5392499}, {"type": "node", "id": 2944055001, "lat": 47.374138, "lon": 8.5391551}, {"type": "node", "id": 2944055002, "lat": 47.3741464, "lon": 8.5392053}, {"type": "node", "id": 2944055003, "lat": 47.374148, "lon": 8.5396671}, {"type": "node", "id": 2944055004, "lat": 47.3741525, "lon": 8.5389411}, {"type": "node", "id": 2944055005, "lat": 47.3741555, "lon": 8.5389922}, {"type": "node", "id": 2944055006, "lat": 47.3742288, "lon": 8.5399255}, {"type": "node", "id": 2944055007, "lat": 47.3742796, "lon": 8.5390344}, {"type": "node", "id": 2944055008, "lat": 47.3742906, "lon": 8.5391591}, {"type": "node", "id": 2944055009, "lat": 47.3743001, "lon": 8.5399284}, {"type": "node", "id": 3113491686, "lat": 47.3726337, "lon": 8.5406934}, {"type": "node", "id": 3223461561, "lat": 47.3719591, "lon": 8.539592}, {"type": "node", "id": 3223461562, "lat": 47.3718593, "lon": 8.5396766}, {"type": "node", "id": 3223461761, "lat": 47.3718332, "lon": 8.5395924}, {"type": "node", "id": 3477874340, "lat": 47.3714218, "lon": 8.5398637}, {"type": "node", "id": 3645826594, "lat": 47.3719905, "lon": 8.540819, "tags": {"camera:mount": "wall", "camera:type": "dome", "man_made": "surveillance", "surveillance": "outdoor", "surveillance:type": "camera"}}, {"type": "node", "id": 3645952051, "lat": 47.3722101, "lon": 8.5405721, "tags": {"entrance": "main"}}, {"type": "node", "id": 3647701425, "lat": 47.3729046, "lon": 8.5392825, "tags": {"addr:housenumber": "3a", "addr:street": "Kuttelgasse", "entrance": "yes"}}, {"type": "node", "id": 3647727408, "lat": 47.3727659, "lon": 8.538822, "tags": {"addr:housenumber": "15", "addr:street": "Kuttelgasse", "entrance": "yes"}}, {"type": "node", "id": 3881822126, "lat": 47.371569, "lon": 8.5404895}, {"type": "node", "id": 4244268254, "lat": 47.371919, "lon": 8.5396191}, {"type": "node", "id": 4244268255, "lat": 47.3719234, "lon": 8.5396332}, {"type": "node", "id": 4552080122, "lat": 47.3743399, "lon": 8.5400879, "tags": {"entrance": "service"}}, {"type": "node", "id": 4552080123, "lat": 47.3743165, "lon": 8.540258}, {"type": "node", "id": 4848816867, "lat": 47.3738716, "lon": 8.5390292, "tags": {"entrance": "yes"}}, {"type": "node", "id": 6845207028, "lat": 47.3721972, "lon": 8.5394025}, {"type": "node", "id": 9882853435, "lat": 47.3743024, "lon": 8.5398418, "tags": {"entrance": "yes"}}, {"type": "node", "id": 10723030981, "lat": 47.3733749, "lon": 8.5388339}, {"type": "node", "id": 10723030982, "lat": 47.3733163, "lon": 8.5388564}, {"type": "node", "id": 10723030983, "lat": 47.3733686, "lon": 8.5391907}, {"type": "node", "id": 10723030985, "lat": 47.373279, "lon": 8.5387782}, {"type": "node", "id": 10723030986, "lat": 47.3733175, "lon": 8.5387864}, {"type": "node", "id": 10723030987, "lat": 47.3733196, "lon": 8.5388399}, {"type": "node", "id": 10723030988, "lat": 47.3733168, "lon": 8.5388402}, {"type": "node", "id": 10723030989, "lat": 47.373257, "lon": 8.5387738}, {"type": "node", "id": 10723030991, "lat": 47.3733157, "lon": 8.5389613, "tags": {"barrier": "gate"}}, {"type": "node", "id": 10723030992, "lat": 47.3733797, "lon": 8.5391816}, {"type": "way", "id": 78574925, "nodes": [921917338, 693318519, 4552080122, 1031293638, 1031292601, 2944055006, 2944055009, 9882853435, 1031292046, 1031292809, 921917340, 1031292719, 1031295130, 1031293287, 1031294040, 2944055003, 2944054999, 2944054998, 1031293523, 1031294974, 921917387, 2944054987, 921917323, 2944054986, 4552080123, 921917338], "tags": {"amenity": "townhall", "building": "public", "layer": "1", "name": "Amtshaus IV", "owner": "Immobilien Stadt Z\u00fcrich (IMMO)", "source": "Stadt Z\u00fcrich Open Government Data; Geomatik + Vermessung; Tiefbau- und Entsorgungsdepartement"}}, {"type": "way", "id": 78574930, "nodes": [921917337, 921917372, 92485362, 2944054991, 921917359, 921917342, 921917390, 921917362, 2944055005, 2944055004, 921917337], "tags": {"addr:city": "Z\u00fcrich", "addr:country": "CH", "addr:postcode": "8001", "building": "commercial", "building:levels": "5", "owner": "BVK Immobilien", "roof:levels": "1", "source": "Stadt Z\u00fcrich Open Government Data; Geomatik + Vermessung; Tiefbau- und Entsorgungsdepartement", "start_date": "1903"}}, {"type": "way", "id": 78574931, "nodes": [921917342, 921917318, 921917406, 2944055008, 1031293593, 2944055007, 921917390, 921917342], "tags": {"addr:city": "Z\u00fcrich", "addr:country": "CH", "addr:housenumber": "11", "addr:postcode": "8001", "addr:street": "Uraniastrasse", "building": "office", "source": "Stadt Z\u00fcrich Open Government Data; Geomatik + Vermessung; Tiefbau- und Entsorgungsdepartement"}}, {"type": "way", "id": 78574947, "nodes": [921917397, 921917350, 2944054988, 921917334, 2944054990, 921917372, 921917337, 1031294035, 1031295542, 2944054996, 2944055001, 2944055002, 921917397], "tags": {"addr:city": "Z\u00fcrich", "addr:country": "CH", "addr:postcode": "8001", "building": "retail", "source": "Stadt Z\u00fcrich Open Government Data; Geomatik + Vermessung; Tiefbau- und Entsorgungsdepartement"}}, {"type": "way", "id": 78574952, "nodes": [921917340, 921917327, 921917318, 921917406, 2944055000, 921917397, 921917350, 921917387, 1031294974, 921917339, 1031292719, 921917340], "tags": {"addr:city": "Z\u00fcrich", "addr:country": "CH", "addr:housenumber": "9", "addr:postcode": "8001", "addr:street": "Uraniastrasse", "building": "commercial", "owner": "PSP Swiss Property", "source": "Stadt Z\u00fcrich Open Government Data; Geomatik + Vermessung; Tiefbau- und Entsorgungsdepartement", "start_date": "1906"}}, {"type": "way", "id": 80378671, "nodes": [1037301457, 938023244, 938023352, 1037301341, 1037301457], "tags": {"addr:city": "Z\u00fcrich", "addr:country": "CH", "addr:housenumber": "50", "addr:postcode": "8001", "addr:street": "Bahnhofstrasse", "building": "retail", "owner": "Bucherer Immobilien", "source": "Stadt Z\u00fcrich Open Government Data; Geomatik + Vermessung; Tiefbau- und Entsorgungsdepartement"}}, {"type": "way", "id": 80378677, "nodes": [938023192, 2918894833, 938023146, 938023263, 938023371, 938023192], "tags": {"addr:city": "Z\u00fcrich", "addr:country": "CH", "addr:housename": "Ringhof", "addr:housenumber": "58", "addr:postcode": "8001", "addr:street": "Bahnhofstrasse", "building": "apartments", "source": "Stadt Z\u00fcrich Open Government Data; Geomatik + Vermessung; Tiefbau- und Entsorgungsdepartement"}}, {"type": "way", "id": 89434849, "nodes": [1037301316, 1037301180, 1037301217, 1037301365, 2920747579, 2920747583, 2920747596, 1037301316], "tags": {"addr:city": "Z\u00fcrich", "addr:country": "CH", "addr:housenumber": "15", "addr:postcode": "8001", "addr:street": "Rennweg", "building": "yes", "name": "Zum Trottbaum", "source": "Stadt Z\u00fcrich Open Government Data; Geomatik + Vermessung; Tiefbau- und Entsorgungsdepartement"}}, {"type": "way", "id": 89434859, "nodes": [1037301242, 2920747607, 2920747606, 1037301372, 2920747575, 1037301503, 1037301634, 1037301710, 2920747592, 2920747602, 1037301604, 1037301242], "tags": {"addr:city": "Z\u00fcrich", "addr:country": "CH", "addr:housenumber": "52", "addr:postcode": "8001", "addr:street": "Augustinergasse", "building": "yes", "source": "Stadt Z\u00fcrich Open Government Data; Geomatik + Vermessung; Tiefbau- und Entsorgungsdepartement"}}, {"type": "way", "id": 89434870, "nodes": [1037301217, 2920747605, 1037301395, 2920747581, 1037301280, 1037301365, 1037301217], "tags": {"addr:city": "Z\u00fcrich", "addr:country": "CH", "addr:housenumber": "11", "addr:postcode": "8001", "addr:street": "Rennweg", "building": "yes", "source": "Stadt Z\u00fcrich Open Government Data; Geomatik + Vermessung; Tiefbau- und Entsorgungsdepartement"}}, {"type": "way", "id": 89434871, "nodes": [1037301562, 1037301696, 1037301239, 1037301370, 1037301562], "tags": {"addr:city": "Z\u00fcrich", "addr:country": "CH", "addr:housenumber": "48", "addr:postcode": "8001", "addr:street": "Augustinergasse", "building": "yes", "source": "Stadt Z\u00fcrich Open Government Data; Geomatik + Vermessung; Tiefbau- und Entsorgungsdepartement"}}, {"type": "way", "id": 89434873, "nodes": [1037301391, 1037301447, 1037301280, 2920747581, 1037301395, 1037301307, 1037301391], "tags": {"addr:city": "Z\u00fcrich", "addr:country": "CH", "addr:housenumber": "9", "addr:postcode": "8001", "addr:street": "Rennweg", "building": "yes", "source": "Stadt Z\u00fcrich Open Government Data; Geomatik + Vermessung; Tiefbau- und Entsorgungsdepartement"}}, {"type": "way", "id": 89434874, "nodes": [1037301473, 2920747613, 1037301393, 2920747611, 1037301334, 1037301747, 1037301564, 2920747599, 1037301715, 2920747604, 1037301473], "tags": {"addr:city": "Z\u00fcrich", "addr:country": "CH", "addr:housenumber": "7", "addr:postcode": "8001", "addr:street": "Kuttelgasse", "building": "yes", "source": "Stadt Z\u00fcrich Open Government Data; Geomatik + Vermessung; Tiefbau- und Entsorgungsdepartement"}}, {"type": "way", "id": 89434876, "nodes": [1037301657, 1516539920, 1037301481, 2920747283, 1037301629, 1037301187, 1037301657], "tags": {"addr:city": "Z\u00fcrich", "addr:country": "CH", "addr:postcode": "8001", "building": "yes", "building:levels": "6", "name": "Haus zum B\u00fcffel", "source": "Stadt Z\u00fcrich Open Government Data; Geomatik + Vermessung; Tiefbau- und Entsorgungsdepartement"}}, {"type": "way", "id": 89434886, "nodes": [1037301457, 1037301341, 1516540219, 1037301173, 1037301637, 1037301504, 938023175, 1110775505, 1037301457], "tags": {"addr:city": "Z\u00fcrich", "addr:country": "CH", "addr:postcode": "8001", "building": "retail", "owner": "Swiss Life", "source": "Stadt Z\u00fcrich Open Government Data; Geomatik + Vermessung; Tiefbau- und Entsorgungsdepartement"}}, {"type": "way", "id": 89434895, "nodes": [1037301239, 2920747562, 1037301503, 1037301634, 2920747557, 1037301667, 1037301370, 1037301239], "tags": {"addr:city": "Z\u00fcrich", "addr:country": "CH", "addr:housenumber": "50", "addr:postcode": "8001", "addr:street": "Augustinergasse", "building": "yes", "source": "Stadt Z\u00fcrich Open Government Data; Geomatik + Vermessung; Tiefbau- und Entsorgungsdepartement"}}, {"type": "way", "id": 89434898, "nodes": [1037301520, 1037301180, 1037301316, 2920747603, 1037301747, 2920747608, 2920747609, 2920747610, 1037301678, 1037301520], "tags": {"addr:city": "Z\u00fcrich", "addr:country": "CH", "addr:housenumber": "19", "addr:postcode": "8001", "addr:street": "Rennweg", "building": "yes", "source": "Stadt Z\u00fcrich Open Government Data; Geomatik + Vermessung; Tiefbau- und Entsorgungsdepartement"}}, {"type": "way", "id": 89434901, "nodes": [1037301581, 3647727408, 1037301473, 2920747604, 1037301715, 1037301548, 2920747598, 2920747597, 2920747591, 2920747586, 2920747600, 2920747601, 1037301604, 1037301242, 1037301581], "tags": {"addr:city": "Z\u00fcrich", "addr:country": "CH", "addr:housenumber": "15", "addr:postcode": "8001", "addr:street": "Kuttelgasse", "building": "yes", "source": "Stadt Z\u00fcrich Open Government Data; Geomatik + Vermessung; Tiefbau- und Entsorgungsdepartement"}}, {"type": "way", "id": 89434904, "nodes": [1037301428, 1037301575, 1037301713, 1037301252, 2920747544, 2920747543, 1037301309, 1037301428], "tags": {"addr:city": "Z\u00fcrich", "addr:country": "CH", "addr:housenumber": "38", "addr:postcode": "8001", "addr:street": "Augustinergasse", "building": "retail", "source": "Stadt Z\u00fcrich Open Government Data; Geomatik + Vermessung; Tiefbau- und Entsorgungsdepartement"}}, {"type": "way", "id": 89434911, "nodes": [1037301629, 1037301520, 1037301678, 1037301209, 2920747612, 2920747614, 2920747615, 2920747616, 2920747617, 1037301187, 1037301629], "tags": {"addr:city": "Z\u00fcrich", "addr:country": "CH", "addr:housenumber": "23", "addr:postcode": "8001", "addr:street": "Rennweg", "building": "yes", "source": "Stadt Z\u00fcrich Open Government Data; Geomatik + Vermessung; Tiefbau- und Entsorgungsdepartement"}}, {"type": "way", "id": 89434920, "nodes": [1037301393, 3647701425, 1037301657, 1037301187, 2920747617, 2920747616, 2920747615, 2920747614, 2920747612, 1037301209, 1037301334, 2920747611, 1037301393], "tags": {"addr:city": "Z\u00fcrich", "addr:country": "CH", "addr:housenumber": "3", "addr:postcode": "8001", "addr:street": "Kuttelgasse", "building": "yes", "source": "Stadt Z\u00fcrich Open Government Data; Geomatik + Vermessung; Tiefbau- und Entsorgungsdepartement"}}, {"type": "way", "id": 89469940, "nodes": [1037539934, 1037539864, 2924910173, 1037540024, 2924910160, 2924910161, 1037539510, 1037540070, 2924910179, 1037539934], "tags": {"addr:city": "Z\u00fcrich", "addr:country": "CH", "addr:housenumber": "17", "addr:postcode": "8001", "addr:street": "Augustinergasse", "building": "retail", "source": "Stadt Z\u00fcrich Open Government Data; Geomatik + Vermessung; Tiefbau- und Entsorgungsdepartement"}}, {"type": "way", "id": 89469944, "nodes": [2924910168, 1037539616, 1037540024, 2924910160, 2924910161, 1037539510, 1037539799, 2924910158, 2924910168], "tags": {"addr:city": "Z\u00fcrich", "addr:country": "CH", "addr:housenumber": "6", "addr:postcode": "8001", "addr:street": "M\u00fcnzplatz", "building": "yes", "source": "Stadt Z\u00fcrich Open Government Data; Geomatik + Vermessung; Tiefbau- und Entsorgungsdepartement"}}, {"type": "way", "id": 89469952, "nodes": [1037539860, 1037540021, 1037539446, 1037539852, 1037539503, 1037539666, 1037539860], "tags": {"addr:city": "Z\u00fcrich", "addr:country": "CH", "addr:housenumber": "46", "addr:postcode": "8001", "addr:street": "Bahnhofstrasse", "building": "commercial", "building:levels": "6", "owner": "AXA Winterthur", "roof:shape": "double_saltbox", "source": "Stadt Z\u00fcrich Open Government Data; Geomatik + Vermessung; Tiefbau- und Entsorgungsdepartement"}}, {"type": "way", "id": 89469956, "nodes": [1037539961, 2925754206, 2925754208, 1037539457, 1037539612, 1037539705, 1037539961], "tags": {"addr:city": "Z\u00fcrich", "addr:country": "CH", "addr:housenumber": "33", "addr:postcode": "8001", "addr:street": "Strehlgasse", "building": "yes", "source": "Stadt Z\u00fcrich Open Government Data; Geomatik + Vermessung; Tiefbau- und Entsorgungsdepartement"}}, {"type": "way", "id": 89469960, "nodes": [1037539666, 1037539503, 2924910163, 2924910164, 2924910159, 1037539969, 2924910155, 1037539899, 1037539471, 1037539666], "tags": {"addr:city": "Z\u00fcrich", "addr:country": "CH", "addr:housenumber": "44", "addr:postcode": "8001", "addr:street": "Bahnhofstrasse", "building": "apartments", "building:levels": "4", "owner": "Z\u00fcrich Versicherungs-Gesellschaft", "roof:levels": "1", "source": "Stadt Z\u00fcrich Open Government Data; Geomatik + Vermessung; Tiefbau- und Entsorgungsdepartement"}}, {"type": "way", "id": 89469961, "nodes": [1037539677, 1041912907, 2924910152, 1037539976, 2924910151, 1037539552, 3223461561, 4244268254, 4244268255, 3223461562, 3223461761, 1037539677], "tags": {"addr:housenumber": "2", "addr:street": "M\u00fcnzplatz", "amenity": "place_of_worship", "building": "church", "denomination": "catholic", "name": "Augustinerkirche", "opening_hours": "Mo-Su 10:00-19:00", "religion": "christian", "source": "Stadt Z\u00fcrich Open Government Data; Geomatik + Vermessung; Tiefbau- und Entsorgungsdepartement", "wheelchair": "yes", "wikidata": "Q768482"}}, {"type": "way", "id": 89469975, "nodes": [1037539983, 1037539562, 1037539710, 2924910184, 1037540019, 1037539983], "tags": {"addr:city": "Z\u00fcrich", "addr:country": "CH", "addr:housenumber": "1", "addr:postcode": "8001", "addr:street": "Widdergasse", "building": "office", "source": "Stadt Z\u00fcrich Open Government Data; Geomatik + Vermessung; Tiefbau- und Entsorgungsdepartement"}}, {"type": "way", "id": 89469981, "nodes": [1037539471, 1110775530, 1037539750, 1037539492, 2924910153, 1037539660, 2924910149, 1037539772, 2924910155, 1037539899, 1037539471], "tags": {"addr:city": "Z\u00fcrich", "addr:country": "CH", "addr:postcode": "8001", "building": "commercial", "building:levels": "6", "owner": "Swiss Prime Site (SPS)", "roof:shape": "flat", "source": "Stadt Z\u00fcrich Open Government Data; Geomatik + Vermessung; Tiefbau- und Entsorgungsdepartement", "start_date": "1968"}}, {"type": "way", "id": 89469990, "nodes": [1037540068, 2924910150, 1516540556, 1037539820, 2924910147, 1037539707, 2924910165, 2924910169, 2924910170, 1037539557, 1037540068], "tags": {"addr:city": "Z\u00fcrich", "addr:country": "CH", "addr:postcode": "8001", "building": "yes", "source": "Stadt Z\u00fcrich Open Government Data; Geomatik + Vermessung; Tiefbau- und Entsorgungsdepartement"}}, {"type": "way", "id": 89469991, "nodes": [1037539457, 2925754208, 2925754206, 1037539961, 2925754197, 2925754198, 2925754192, 1037539700, 1037539821, 2925754200, 1037539457], "tags": {"addr:city": "Z\u00fcrich", "addr:country": "CH", "addr:housenumber": "8", "addr:postcode": "8001", "addr:street": "Glockengasse", "building": "yes", "building:levels": "5", "roof:levels": "1", "source": "Stadt Z\u00fcrich Open Government Data; Geomatik + Vermessung; Tiefbau- und Entsorgungsdepartement"}}, {"type": "way", "id": 89469998, "nodes": [1037539864, 2924910185, 1037539801, 2924910178, 2924910175, 1037539824, 2924910168, 1037539616, 1037540024, 2924910173, 1037539864], "tags": {"addr:city": "Z\u00fcrich", "addr:country": "CH", "addr:housenumber": "15", "addr:postcode": "8001", "addr:street": "Augustinergasse", "building": "retail", "building:levels": "3", "source": "Stadt Z\u00fcrich Open Government Data; Geomatik + Vermessung; Tiefbau- und Entsorgungsdepartement"}}, {"type": "way", "id": 89470007, "nodes": [1037539852, 1037539446, 2924910187, 1037539610, 1037539748, 1037539911, 2924910183, 2924910181, 2924910180, 2924910182, 1037539852], "tags": {"addr:city": "Z\u00fcrich", "addr:country": "CH", "addr:housenumber": "25", "addr:postcode": "8001", "addr:street": "Augustinergasse", "building": "yes", "owner": "PSP Swiss Property", "source": "Stadt Z\u00fcrich Open Government Data; Geomatik + Vermessung; Tiefbau- und Entsorgungsdepartement"}}, {"type": "way", "id": 89470009, "nodes": [1037539562, 1037540068, 1037539557, 1037539710, 1037539562], "tags": {"addr:city": "Z\u00fcrich", "addr:country": "CH", "addr:housenumber": "16", "addr:postcode": "8001", "addr:street": "Glockengasse", "building": "retail", "source": "Stadt Z\u00fcrich Open Government Data; Geomatik + Vermessung; Tiefbau- und Entsorgungsdepartement"}}, {"type": "way", "id": 89470011, "nodes": [1037539748, 1037539934, 2924910179, 1037540070, 1037539563, 2924910177, 1037539911, 1037539748], "tags": {"addr:city": "Z\u00fcrich", "addr:country": "CH", "addr:housenumber": "21", "addr:postcode": "8001", "addr:street": "Augustinergasse", "building": "retail", "source": "Stadt Z\u00fcrich Open Government Data;Geomatik + Vermessung;Tiefbau- und Entsorgungsdepartement;schutzundrettung"}}, {"type": "way", "id": 89896333, "nodes": [1041911876, 1041912504, 2924910151, 1037539976, 2924910152, 1041912907, 2925703909, 2925703910, 2925703906, 2925703905, 2925703904, 1041911401, 1041912238, 2925703903, 2925699984, 1041911695, 1041911876], "tags": {"addr:city": "Z\u00fcrich", "addr:country": "CH", "addr:housenumber": "3", "addr:postcode": "8001", "addr:street": "M\u00fcnzplatz", "building": "yes", "source": "Stadt Z\u00fcrich Open Government Data; Geomatik + Vermessung; Tiefbau- und Entsorgungsdepartement"}}, {"type": "way", "id": 89896422, "nodes": [1041911554, 1041912158, 2925715592, 1041911972, 1041911717, 1041912755, 2925715595, 2925715594, 2925715593, 1041911554], "tags": {"addr:city": "Z\u00fcrich", "addr:country": "CH", "addr:housenumber": "1", "addr:postcode": "8001", "addr:street": "Augustinerhof", "building": "yes", "source": "Stadt Z\u00fcrich Open Government Data; Geomatik + Vermessung; Tiefbau- und Entsorgungsdepartement"}}, {"type": "way", "id": 89896451, "nodes": [1041911935, 2925754161, 2925754160, 2925754153, 1041912486, 1041912862, 1041911654, 1041912035, 2925754138, 1041912752, 1041911935], "tags": {"addr:city": "Z\u00fcrich", "addr:country": "CH", "addr:housenumber": "6", "addr:postcode": "8001", "addr:street": "St. Peterhofstatt", "building": "yes", "name": "Lavaterhaus"}}, {"type": "way", "id": 89896479, "nodes": [1041911554, 2925715593, 2925715594, 2925715595, 1041912755, 2925715596, 2925715598, 2925715599, 2925716401, 2925715597, 1041911874, 1041912299, 2925715591, 1041911554], "tags": {"addr:city": "Z\u00fcrich", "addr:country": "CH", "addr:housenumber": "9", "addr:postcode": "8001", "addr:street": "Augustinergasse", "building": "yes", "name": "Strauhof", "source": "Stadt Z\u00fcrich Open Government Data; Geomatik + Vermessung; Tiefbau- und Entsorgungsdepartement", "start_date": "1727"}}, {"type": "way", "id": 89896529, "nodes": [1041912862, 1041913039, 1041911827, 1041911654, 1041912862], "tags": {"addr:city": "Z\u00fcrich", "addr:country": "CH", "addr:housenumber": "8", "addr:postcode": "8001", "addr:street": "St. Peterhofstatt", "building": "yes", "name": "Kleine Mugg", "source": "Stadt Z\u00fcrich Open Government Data; Geomatik + Vermessung; Tiefbau- und Entsorgungsdepartement"}}, {"type": "way", "id": 89896530, "nodes": [1041912313, 2925754167, 1041911801, 2925696793, 1041912174, 2925754165, 1041911935, 1041912752, 2205041396, 1041912313], "tags": {"addr:city": "Z\u00fcrich", "addr:country": "CH", "addr:postcode": "8001", "building": "yes", "building:levels": "5", "name": "Zur grossen Reblaube", "roof:levels": "1", "roof:shape": "gabled", "source": "Stadt Z\u00fcrich Open Government Data; Geomatik + Vermessung; Tiefbau- und Entsorgungsdepartement"}}, {"type": "way", "id": 288184605, "nodes": [2917336843, 1516540048, 2917336833, 1516540192, 2917336816, 2917336829, 2917336830, 2917336831, 2917336834, 2917336832, 2917336835, 2917336843], "tags": {"addr:city": "Z\u00fcrich", "addr:country": "CH", "addr:postcode": "8001", "building": "apartments", "source": "Stadt Z\u00fcrich Open Government Data; Geomatik + Vermessung; Tiefbau- und Entsorgungsdepartement"}}, {"type": "way", "id": 288184606, "nodes": [2917336521, 2205041378, 2917336525, 2917336522, 2917336523, 2917336526, 2917336527, 2917336520, 2917336554, 2917336549, 2917336548, 2917336547, 2917336534, 2917336521], "tags": {"addr:city": "Z\u00fcrich", "addr:country": "CH", "addr:postcode": "8001", "building": "yes", "source": "Stadt Z\u00fcrich Open Government Data; Geomatik + Vermessung; Tiefbau- und Entsorgungsdepartement"}}, {"type": "way", "id": 288184607, "nodes": [2917336825, 2917336813, 2917336819, 2917336827, 2917336825], "tags": {"addr:housenumber": "20a", "addr:street": "Rennweg", "building": "yes", "source": "Stadt Z\u00fcrich Open Government Data; Geomatik + Vermessung; Tiefbau- und Entsorgungsdepartement"}}, {"type": "way", "id": 288184608, "nodes": [2917336806, 2917336600, 2917336805, 2917336811, 2917336808, 2917336807, 2917336806], "tags": {"addr:housenumber": "18a", "addr:street": "Rennweg", "building": "yes", "source": "Stadt Z\u00fcrich Open Government Data; Geomatik + Vermessung; Tiefbau- und Entsorgungsdepartement"}}, {"type": "way", "id": 288184609, "nodes": [2917336580, 2917336572, 2917336575, 2917336584, 2917336583, 2917336582, 2917336580], "tags": {"addr:housenumber": "8a", "addr:street": "Rennweg", "building": "yes", "source": "Stadt Z\u00fcrich Open Government Data; Geomatik + Vermessung; Tiefbau- und Entsorgungsdepartement"}}, {"type": "way", "id": 288184610, "nodes": [2917336531, 2917336529, 2917336528, 2917336532, 2917336539, 2917336536, 2917336533, 2917336531], "tags": {"addr:city": "Z\u00fcrich", "addr:country": "CH", "addr:housenumber": "2a", "addr:postcode": "8001", "addr:street": "Rennweg", "building": "yes", "building:levels": "1", "source": "Stadt Z\u00fcrich Open Government Data; Geomatik + Vermessung; Tiefbau- und Entsorgungsdepartement"}}, {"type": "way", "id": 288184611, "nodes": [2917336581, 2917336569, 2917336579, 2917336578, 2917336580, 2917336582, 2917336583, 2917336586, 2917336585, 2917336581], "tags": {"addr:city": "Z\u00fcrich", "addr:country": "CH", "addr:housenumber": "10", "addr:postcode": "8001", "addr:street": "Rennweg", "building": "retail", "source": "Stadt Z\u00fcrich Open Government Data; Geomatik + Vermessung; Tiefbau- und Entsorgungsdepartement"}}, {"type": "way", "id": 288184612, "nodes": [2917336835, 2917336844, 2917336847, 2917336853, 2917336848, 2917336846, 2917336843, 2917336835], "tags": {"addr:city": "Z\u00fcrich", "addr:country": "CH", "addr:housenumber": "11", "addr:postcode": "8001", "addr:street": "Fortunagasse", "building": "yes", "source": "Stadt Z\u00fcrich Open Government Data; Geomatik + Vermessung; Tiefbau- und Entsorgungsdepartement"}}, {"type": "way", "id": 288184613, "nodes": [2917336588, 2917336581, 2917336585, 2917336590, 2917336589, 2917336588], "tags": {"addr:city": "Z\u00fcrich", "addr:country": "CH", "addr:housenumber": "12", "addr:postcode": "8001", "addr:street": "Rennweg", "building": "retail", "source": "Stadt Z\u00fcrich Open Government Data; Geomatik + Vermessung; Tiefbau- und Entsorgungsdepartement"}}, {"type": "way", "id": 288184614, "nodes": [2917336847, 2917336849, 2917336839, 2917336840, 2917336836, 2917336831, 2917336830, 2917336822, 2917336817, 2917336818, 2917336815, 2917336820, 2917336821, 2917336825, 2917336827, 2917336828, 2917336838, 2917336845, 2917336855, 2917336853, 2917336847], "tags": {"addr:city": "Z\u00fcrich", "addr:country": "CH", "addr:housenumber": "13", "addr:postcode": "8001", "addr:street": "Fortunagasse", "building": "yes", "source": "Stadt Z\u00fcrich Open Government Data; Geomatik + Vermessung; Tiefbau- und Entsorgungsdepartement"}}, {"type": "way", "id": 288184615, "nodes": [2917336592, 2917336588, 2917336589, 2917336590, 2917336591, 2917336595, 2917336593, 2917336598, 2917336592], "tags": {"addr:city": "Z\u00fcrich", "addr:country": "CH", "addr:housenumber": "14,16", "addr:postcode": "8001", "addr:street": "Rennweg", "building": "retail", "source": "Stadt Z\u00fcrich Open Government Data; Geomatik + Vermessung; Tiefbau- und Entsorgungsdepartement"}}, {"type": "way", "id": 288184616, "nodes": [2917336594, 2917336592, 2917336598, 2917336804, 2917336802, 2917336801, 2917336594], "tags": {"addr:city": "Z\u00fcrich", "addr:country": "CH", "addr:housenumber": "18", "addr:postcode": "8001", "addr:street": "Rennweg", "building": "retail", "source": "Stadt Z\u00fcrich Open Government Data; Geomatik + Vermessung; Tiefbau- und Entsorgungsdepartement"}}, {"type": "way", "id": 288184617, "nodes": [2917336537, 2917336530, 2917336531, 2917336533, 2917336536, 2917336538, 2917336540, 2917336542, 2917336541, 2917336545, 2917336546, 2917336543, 2917336552, 2917336550, 2917336555, 2917336563, 2917336559, 2917336557, 2917336556, 2917336537], "tags": {"addr:city": "Z\u00fcrich", "addr:country": "CH", "addr:housenumber": "2", "addr:postcode": "8001", "addr:street": "Rennweg", "building": "yes", "building:levels": "3", "name": "Zur Schelle", "roof:levels": "2", "source": "Stadt Z\u00fcrich Open Government Data; Geomatik + Vermessung; Tiefbau- und Entsorgungsdepartement"}}, {"type": "way", "id": 288184618, "nodes": [2917336599, 2917336594, 2917336801, 2917336802, 2917336804, 2917336803, 2917336806, 2917336807, 2917336808, 2917336815, 2917336818, 2917336817, 2917336810, 2917336599], "tags": {"addr:city": "Z\u00fcrich", "addr:country": "CH", "addr:housenumber": "20", "addr:postcode": "8001", "addr:street": "Rennweg", "building": "retail", "source": "Stadt Z\u00fcrich Open Government Data; Geomatik + Vermessung; Tiefbau- und Entsorgungsdepartement"}}, {"type": "way", "id": 288184619, "nodes": [2917336809, 2917336599, 2917336810, 2917336812, 2917336814, 2917336823, 2917336809], "tags": {"addr:city": "Z\u00fcrich", "addr:country": "CH", "addr:housenumber": "22", "addr:postcode": "8001", "addr:street": "Rennweg", "building": "retail", "source": "Stadt Z\u00fcrich Open Government Data; Geomatik + Vermessung; Tiefbau- und Entsorgungsdepartement"}}, {"type": "way", "id": 288184620, "nodes": [2917336816, 2917336809, 2917336823, 2917336824, 2917336829, 2917336816], "tags": {"addr:city": "Z\u00fcrich", "addr:country": "CH", "addr:housenumber": "24", "addr:postcode": "8001", "addr:street": "Rennweg", "building": "retail", "source": "Stadt Z\u00fcrich Open Government Data; Geomatik + Vermessung; Tiefbau- und Entsorgungsdepartement"}}, {"type": "way", "id": 288184621, "nodes": [2917336544, 2917336535, 2917336524, 2917336521, 2917336534, 2917336547, 2917336544], "tags": {"addr:city": "Z\u00fcrich", "addr:country": "CH", "addr:housenumber": "26", "addr:postcode": "8001", "addr:street": "Strehlgasse", "building": "yes", "source": "Stadt Z\u00fcrich Open Government Data; Geomatik + Vermessung; Tiefbau- und Entsorgungsdepartement"}}, {"type": "way", "id": 288184622, "nodes": [2917336574, 2917336544, 2917336547, 2917336548, 2917336549, 2917336554, 3113491686, 2917336574], "tags": {"addr:city": "Z\u00fcrich", "addr:country": "CH", "addr:housenumber": "3", "addr:postcode": "8001", "addr:street": "Pfalzgasse", "building": "yes", "source": "Stadt Z\u00fcrich Open Government Data; Geomatik + Vermessung; Tiefbau- und Entsorgungsdepartement"}}, {"type": "way", "id": 288184623, "nodes": [2917336551, 2917336537, 2917336556, 2917336561, 2917336551], "tags": {"addr:city": "Z\u00fcrich", "addr:country": "CH", "addr:housenumber": "4", "addr:postcode": "8001", "addr:street": "Rennweg", "building": "yes", "source": "Stadt Z\u00fcrich Open Government Data; Geomatik + Vermessung; Tiefbau- und Entsorgungsdepartement"}}, {"type": "way", "id": 288184624, "nodes": [2917336563, 2917336573, 2917336571, 2917336568, 2917336567, 2917336565, 2917336564, 2917336558, 2917336559, 2917336563], "tags": {"addr:city": "Z\u00fcrich", "addr:country": "CH", "addr:housenumber": "4a", "addr:postcode": "8001", "addr:street": "Rennweg", "building": "yes", "source": "Stadt Z\u00fcrich Open Government Data; Geomatik + Vermessung; Tiefbau- und Entsorgungsdepartement"}}, {"type": "way", "id": 288184625, "nodes": [2917336560, 2917336551, 2917336561, 2917336562, 2917336570, 2917336566, 2917336560], "tags": {"addr:city": "Z\u00fcrich", "addr:country": "CH", "addr:housenumber": "6", "addr:postcode": "8001", "addr:street": "Rennweg", "building": "retail", "source": "Stadt Z\u00fcrich Open Government Data; Geomatik + Vermessung; Tiefbau- und Entsorgungsdepartement"}}, {"type": "way", "id": 288184626, "nodes": [2917336569, 2917336560, 2917336566, 2917336570, 2917336579, 2917336569], "tags": {"addr:city": "Z\u00fcrich", "addr:country": "CH", "addr:housenumber": "8", "addr:postcode": "8001", "addr:street": "Rennweg", "building": "retail", "source": "Stadt Z\u00fcrich Open Government Data; Geomatik + Vermessung; Tiefbau- und Entsorgungsdepartement"}}, {"type": "way", "id": 288184839, "nodes": [2917339302, 2917339301, 2917339304, 2917339305, 2917339303, 2917339302], "tags": {"addr:housenumber": "9", "addr:street": "Fortunagasse", "building": "yes"}}, {"type": "way", "id": 288322647, "nodes": [2918894382, 2918894384, 2918894383, 2918894393, 2918894396, 2918894399, 1516540202, 2918894386, 1516540129, 2918894369, 2918894382], "tags": {"addr:city": "Z\u00fcrich", "addr:country": "CH", "addr:postcode": "8001", "building": "yes", "name": "Hammerstein", "source": "Stadt Z\u00fcrich Open Government Data; Geomatik + Vermessung; Tiefbau- und Entsorgungsdepartement"}}, {"type": "way", "id": 288322648, "nodes": [2918894366, 2918894367, 2918894363, 2918894360, 2918894357, 1516539939, 2918894356, 2918894355, 2918894354, 2918894361, 2918894362, 2918894358, 2918894359, 2918894366], "tags": {"building": "commercial", "source": "Stadt Z\u00fcrich Open Government Data; Geomatik + Vermessung; Tiefbau- und Entsorgungsdepartement"}}, {"type": "way", "id": 288322649, "nodes": [2918894840, 1516540406, 2918894849, 2918894848, 2918894846, 2918894847, 2918894845, 2918894844, 2918894843, 2918894841, 2918894842, 1110775534, 938023192, 2918894833, 938023146, 2918894835, 2918894836, 2918894837, 10723030981, 2918894839, 2918894840], "tags": {"addr:city": "Z\u00fcrich", "addr:country": "CH", "addr:postcode": "8001", "building": "apartments", "owner": "Swiss Life", "source": "Stadt Z\u00fcrich Open Government Data; Geomatik + Vermessung; Tiefbau- und Entsorgungsdepartement"}}, {"type": "way", "id": 288322650, "nodes": [2918894399, 2918894811, 2918894804, 2918894400, 2918894391, 2918894392, 2918894388, 2918894387, 2918894376, 2918894379, 2918894385, 2918894389, 2918894384, 2918894383, 2918894393, 2918894396, 2918894399], "tags": {"addr:city": "Z\u00fcrich", "addr:country": "CH", "addr:housenumber": "29", "addr:postcode": "8001", "addr:street": "Rennweg", "building": "retail", "source": "Stadt Z\u00fcrich Open Government Data; Geomatik + Vermessung; Tiefbau- und Entsorgungsdepartement"}}, {"type": "way", "id": 288322651, "nodes": [2918894811, 2918894819, 2918894814, 2918894813, 2918894808, 2918894806, 2918894802, 2918894398, 2918894390, 2918894381, 2918894387, 2918894388, 2918894392, 2918894391, 2918894400, 2918894804, 2918894811], "tags": {"addr:city": "Z\u00fcrich", "addr:country": "CH", "addr:housenumber": "31", "addr:postcode": "8001", "addr:street": "Rennweg", "building": "yes", "name": "Haus Pelikan", "source": "Stadt Z\u00fcrich Open Government Data; Geomatik + Vermessung; Tiefbau- und Entsorgungsdepartement"}}, {"type": "way", "id": 288322652, "nodes": [2918894819, 10723030983, 10723030992, 2918894838, 2918894831, 10723030991, 2918894828, 2918894825, 2918894822, 2918894820, 2918894824, 2918894823, 2918894821, 2918894818, 2918894815, 2918894812, 2918894809, 2918894807, 2918894805, 2918894801, 2918894397, 2918894395, 2918894394, 2918894803, 2918894802, 2918894806, 2918894808, 2918894813, 2918894814, 2918894819], "tags": {"addr:city": "Z\u00fcrich", "addr:country": "CH", "addr:housename": "Dittinghaus", "addr:housenumber": "35", "addr:postcode": "8001", "addr:street": "Rennweg", "building": "commercial", "source": "Stadt Z\u00fcrich Open Government Data; Geomatik + Vermessung; Tiefbau- und Entsorgungsdepartement"}}, {"type": "way", "id": 288322653, "nodes": [2918894838, 2918894840, 2918894839, 10723030981, 2918894837, 2918894836, 2918894832, 2918894834, 2918894830, 10723030982, 2918894831, 2918894838], "tags": {"addr:city": "Z\u00fcrich", "addr:country": "CH", "addr:housenumber": "39", "addr:postcode": "8001", "addr:street": "Rennweg", "building": "yes", "source": "Stadt Z\u00fcrich Open Government Data; Geomatik + Vermessung; Tiefbau- und Entsorgungsdepartement"}}, {"type": "way", "id": 288322654, "nodes": [2918894377, 2918894381, 2918894387, 2918894376, 2918894379, 2918894382, 2918894369, 2918894365, 2918894374, 2918894373, 2918894377], "tags": {"addr:city": "Z\u00fcrich", "addr:country": "CH", "addr:housenumber": "4", "addr:postcode": "8001", "addr:street": "Kuttelgasse", "building": "yes", "source": "Stadt Z\u00fcrich Open Government Data; Geomatik + Vermessung; Tiefbau- und Entsorgungsdepartement"}}, {"type": "way", "id": 288322655, "nodes": [2918894848, 2918894859, 2918894852, 2918894851, 2918894850, 2918894845, 2918894847, 2918894846, 2918894848], "tags": {"addr:city": "Z\u00fcrich", "addr:country": "CH", "addr:housenumber": "53", "addr:postcode": "8001", "addr:street": "Rennweg", "building": "yes", "source": "Stadt Z\u00fcrich Open Government Data; Geomatik + Vermessung; Tiefbau- und Entsorgungsdepartement"}}, {"type": "way", "id": 288322656, "nodes": [2918894371, 2918894372, 2918894366, 2918894359, 2918894358, 2918894362, 2918894361, 2918894368, 2918894371], "tags": {"addr:city": "Z\u00fcrich", "addr:country": "CH", "addr:housenumber": "54", "addr:postcode": "8001", "addr:street": "Bahnhofstrasse", "building": "office", "source": "Stadt Z\u00fcrich Open Government Data; Geomatik + Vermessung; Tiefbau- und Entsorgungsdepartement"}}, {"type": "way", "id": 288322657, "nodes": [938023263, 2918894810, 2918894380, 2918894378, 2918894371, 2918894368, 938023371, 938023263], "tags": {"addr:city": "Z\u00fcrich", "addr:country": "CH", "addr:housename": "Ringmauer", "addr:housenumber": "56", "addr:postcode": "8001", "addr:street": "Bahnhofstrasse", "building": "apartments", "building:levels": "5", "source": "Stadt Z\u00fcrich Open Government Data; Geomatik + Vermessung; Tiefbau- und Entsorgungsdepartement"}}, {"type": "way", "id": 288322658, "nodes": [2918894859, 2918894873, 2918894868, 2918894867, 2918894866, 2918894865, 2918894851, 2918894852, 2918894859], "tags": {"addr:city": "Z\u00fcrich", "addr:country": "CH", "addr:housenumber": "57", "addr:postcode": "8001", "addr:street": "Rennweg", "building": "yes", "source": "Stadt Z\u00fcrich Open Government Data; Geomatik + Vermessung; Tiefbau- und Entsorgungsdepartement"}}, {"type": "way", "id": 288322659, "nodes": [2918894370, 2918894375, 2918894377, 2918894373, 2918894374, 2918894365, 2918894364, 2918894370], "tags": {"addr:city": "Z\u00fcrich", "addr:country": "CH", "addr:housenumber": "6", "addr:postcode": "8001", "addr:street": "Kuttelgasse", "building": "yes", "source": "Stadt Z\u00fcrich Open Government Data; Geomatik + Vermessung; Tiefbau- und Entsorgungsdepartement"}}, {"type": "way", "id": 288322660, "nodes": [10723030986, 2918894829, 2918894832, 2918894836, 2918894835, 2918894816, 2918894817, 10723030989, 2918894826, 10723030985, 10723030986], "tags": {"addr:city": "Z\u00fcrich", "addr:country": "CH", "addr:housenumber": "60", "addr:postcode": "8001", "addr:street": "Bahnhofstrasse", "building": "yes", "source": "Stadt Z\u00fcrich Open Government Data; Geomatik + Vermessung; Tiefbau- und Entsorgungsdepartement"}}, {"type": "way", "id": 288322661, "nodes": [2918894858, 2918894842, 2918894841, 2918894843, 2918894853, 2918894854, 2918894855, 2918894856, 2918894861, 2918894860, 2918894857, 2918894858], "tags": {"addr:city": "Z\u00fcrich", "addr:country": "CH", "addr:housenumber": "64", "addr:postcode": "8001", "addr:street": "Bahnhofstrasse", "building": "apartments", "owner": "AXA Winterthur", "source": "Stadt Z\u00fcrich Open Government Data; Geomatik + Vermessung; Tiefbau- und Entsorgungsdepartement"}}, {"type": "way", "id": 288322662, "nodes": [2918894877, 2918894876, 2918894875, 2918894874, 2918894872, 2918894871, 2918894870, 2918894869, 2918894863, 2918894862, 2918894858, 2918894857, 2918894860, 2918894861, 2918894864, 2918894865, 2918894866, 2918894867, 2918894868, 2918894873, 2918894878, 2918894877], "tags": {"addr:city": "Z\u00fcrich", "addr:country": "CH", "addr:housename": "Bally-Haus", "addr:housenumber": "66", "addr:postcode": "8001", "addr:street": "Bahnhofstrasse", "building": "retail", "building:levels": "6", "owner": "PSP Swiss Property", "source": "Stadt Z\u00fcrich Open Government Data; Geomatik + Vermessung; Tiefbau- und Entsorgungsdepartement", "start_date": "1967"}}, {"type": "way", "id": 288322663, "nodes": [2918894367, 2918894370, 2918894364, 2918894357, 2918894360, 2918894363, 2918894367], "tags": {"addr:city": "Z\u00fcrich", "addr:country": "CH", "addr:housenumber": "8", "addr:postcode": "8001", "addr:street": "Kuttelgasse", "building": "yes", "source": "Stadt Z\u00fcrich Open Government Data; Geomatik + Vermessung; Tiefbau- und Entsorgungsdepartement"}}, {"type": "way", "id": 288353500, "nodes": [2919116019, 2919116022, 2919116032, 2919116045, 2919116023, 1516540302, 1516540277, 2919116011, 2919116016, 2919116015, 2919116019], "tags": {"building": "retail", "source": "Stadt Z\u00fcrich Open Government Data; Geomatik + Vermessung; Tiefbau- und Entsorgungsdepartement"}}, {"type": "way", "id": 288353501, "nodes": [2919116311, 2919116100, 2919116301, 2919116313, 2919116311], "tags": {"addr:housenumber": "3a", "addr:street": "Fortunagasse", "building": "yes"}}, {"type": "way", "id": 288353502, "nodes": [2919116004, 1516540389, 2919116007, 2919116012, 2919116009, 2919116008, 2919116006, 1516540216, 2919116004], "tags": {"addr:city": "Z\u00fcrich", "addr:country": "CH", "addr:postcode": "8001", "building": "retail", "building:levels": "5", "source": "Stadt Z\u00fcrich Open Government Data; Geomatik + Vermessung; Tiefbau- und Entsorgungsdepartement"}}, {"type": "way", "id": 288353503, "nodes": [2919116413, 2919116425, 2919116422, 4848816867, 2919116416, 2919116001, 1516540486, 2919116395, 2919116403, 2919116402, 2919116413], "tags": {"addr:city": "Z\u00fcrich", "addr:country": "CH", "addr:postcode": "8001", "building": "retail", "building:levels": "4", "roof:levels": "1", "source": "Stadt Z\u00fcrich Open Government Data; Geomatik + Vermessung; Tiefbau- und Entsorgungsdepartement"}}, {"type": "way", "id": 288353504, "nodes": [2919116365, 2919116379, 2919116398, 2919116428, 2919116002, 2919116003, 2919116423, 2919116401, 2919116390, 2919116365], "tags": {"addr:city": "Z\u00fcrich", "addr:country": "CH", "addr:postcode": "8001", "building": "retail"}}, {"type": "way", "id": 288353505, "nodes": [2919116042, 2919116043, 2919116069, 2919116068, 2919116063, 2919116065, 2919116042], "tags": {"addr:city": "Z\u00fcrich", "addr:country": "CH", "addr:housenumber": "1", "addr:postcode": "8001", "addr:street": "Lindenhofstrasse", "building": "yes", "source": "Stadt Z\u00fcrich Open Government Data; Geomatik + Vermessung; Tiefbau- und Entsorgungsdepartement"}}, {"type": "way", "id": 288353506, "nodes": [2919116412, 2919116414, 2919116436, 2919116438, 2919116437, 2919116427, 2919116412], "tags": {"addr:city": "Z\u00fcrich", "addr:country": "CH", "addr:housenumber": "1", "addr:postcode": "8001", "addr:street": "Oetenbachgasse", "building": "yes", "source": "Stadt Z\u00fcrich Open Government Data; Geomatik + Vermessung; Tiefbau- und Entsorgungsdepartement"}}, {"type": "way", "id": 288353507, "nodes": [2919116328, 2919116327, 2919116342, 2919116344, 2919116381, 2919116368, 2919116326, 2919116329, 2919116328], "tags": {"addr:city": "Z\u00fcrich", "addr:country": "CH", "addr:housenumber": "11", "addr:postcode": "8001", "addr:street": "Lindenhofstrasse", "building": "yes", "source": "Stadt Z\u00fcrich Open Government Data; Geomatik + Vermessung; Tiefbau- und Entsorgungsdepartement"}}, {"type": "way", "id": 288353509, "nodes": [2919116360, 2919116365, 2919116390, 2919116401, 2919116423, 2919116431, 2919116429, 2919116421, 2919116389, 2919116376, 2919116356, 2919116360], "tags": {"addr:city": "Z\u00fcrich", "addr:country": "CH", "addr:housenumber": "11", "addr:postcode": "8001", "addr:street": "Oetenbachgasse", "building": "yes", "source": "Stadt Z\u00fcrich Open Government Data; Geomatik + Vermessung; Tiefbau- und Entsorgungsdepartement"}}, {"type": "way", "id": 288353511, "nodes": [2919116433, 2919116434, 2919116424, 2919116420, 2919116417, 2919116433], "tags": {"addr:city": "Z\u00fcrich", "addr:country": "CH", "addr:housenumber": "12", "addr:postcode": "8001", "addr:street": "Kaminfegergasse", "building": "yes", "source": "Stadt Z\u00fcrich Open Government Data; Geomatik + Vermessung; Tiefbau- und Entsorgungsdepartement"}}, {"type": "way", "id": 288353514, "nodes": [2919116382, 2919116405, 2919116391, 2919116384, 2919116358, 2919116364, 2919116370, 2919116382], "tags": {"addr:city": "Z\u00fcrich", "addr:country": "CH", "addr:housenumber": "13", "addr:postcode": "8001", "addr:street": "Lindenhofstrasse", "building": "apartments", "source": "Stadt Z\u00fcrich Open Government Data; Geomatik + Vermessung; Tiefbau- und Entsorgungsdepartement"}}, {"type": "way", "id": 288353516, "nodes": [2919116421, 2919116389, 2919116388, 2919116396, 2919116392, 2919116386, 2919116415, 2919116421], "tags": {"addr:city": "Z\u00fcrich", "addr:country": "CH", "addr:housenumber": "13", "addr:postcode": "8001", "addr:street": "Oetenbachgasse", "building": "yes", "source": "Stadt Z\u00fcrich Open Government Data; Geomatik + Vermessung; Tiefbau- und Entsorgungsdepartement"}}, {"type": "way", "id": 288353517, "nodes": [2919116415, 2919116421, 2919116429, 2919116426, 2919116419, 2919116415], "tags": {"addr:city": "Z\u00fcrich", "addr:country": "CH", "addr:housenumber": "13a", "addr:postcode": "8001", "addr:street": "Oetenbachgasse", "building": "retail", "source": "Stadt Z\u00fcrich Open Government Data; Geomatik + Vermessung; Tiefbau- und Entsorgungsdepartement"}}, {"type": "way", "id": 288353518, "nodes": [2919116392, 2919116378, 2919116372, 2919116369, 2919116385, 2919116386, 2919116392], "tags": {"addr:city": "Z\u00fcrich", "addr:country": "CH", "addr:housenumber": "13b", "addr:postcode": "8001", "addr:street": "Oetenbachgasse", "building": "yes", "source": "Stadt Z\u00fcrich Open Government Data; Geomatik + Vermessung; Tiefbau- und Entsorgungsdepartement"}}, {"type": "way", "id": 288353519, "nodes": [2919116376, 2919116356, 2919116349, 2919116354, 2919116369, 2919116372, 2919116362, 2919116376], "tags": {"addr:city": "Z\u00fcrich", "addr:country": "CH", "addr:housenumber": "13c", "addr:postcode": "8001", "addr:street": "Oetenbachgasse", "building": "yes", "source": "Stadt Z\u00fcrich Open Government Data; Geomatik + Vermessung; Tiefbau- und Entsorgungsdepartement"}}, {"type": "way", "id": 288353520, "nodes": [2919116405, 2919116418, 2919116408, 2919116406, 2919116404, 2919116394, 2919116368, 2919116381, 2919116384, 2919116391, 2919116405], "tags": {"addr:city": "Z\u00fcrich", "addr:country": "CH", "addr:housenumber": "15", "addr:postcode": "8001", "addr:street": "Lindenhofstrasse", "building": "apartments", "source": "Stadt Z\u00fcrich Open Government Data; Geomatik + Vermessung; Tiefbau- und Entsorgungsdepartement"}}, {"type": "way", "id": 288353521, "nodes": [2919116415, 2919116386, 2919116385, 2919116369, 2919116354, 2919116349, 2919116338, 2919116366, 2919116367, 2919116383, 2919116375, 2919116393, 2919116407, 2919116415], "tags": {"addr:city": "Z\u00fcrich", "addr:country": "CH", "addr:housenumber": "15", "addr:postcode": "8001", "addr:street": "Oetenbachgasse", "building": "yes", "source": "Stadt Z\u00fcrich Open Government Data; Geomatik + Vermessung; Tiefbau- und Entsorgungsdepartement"}}, {"type": "way", "id": 288353522, "nodes": [2919116407, 2919116415, 2919116419, 2919116426, 2919116425, 2919116413, 2919116407], "tags": {"addr:city": "Z\u00fcrich", "addr:country": "CH", "addr:housenumber": "15a", "addr:postcode": "8001", "addr:street": "Oetenbachgasse", "building": "retail", "source": "Stadt Z\u00fcrich Open Government Data; Geomatik + Vermessung; Tiefbau- und Entsorgungsdepartement"}}, {"type": "way", "id": 288353523, "nodes": [2919116041, 2919116044, 2919116084, 2919116077, 2919116041], "tags": {"addr:city": "Z\u00fcrich", "addr:country": "CH", "addr:housenumber": "16", "addr:postcode": "8001", "addr:street": "Fortunagasse", "building": "yes", "source": "Stadt Z\u00fcrich Open Government Data; Geomatik + Vermessung; Tiefbau- und Entsorgungsdepartement"}}, {"type": "way", "id": 288353524, "nodes": [2919116418, 2919116432, 2919116433, 2919116417, 2919116420, 2919116394, 2919116404, 2919116406, 2919116408, 2919116418], "tags": {"addr:city": "Z\u00fcrich", "addr:country": "CH", "addr:housenumber": "17", "addr:postcode": "8001", "addr:street": "Lindenhofstrasse", "building": "yes", "source": "Stadt Z\u00fcrich Open Government Data; Geomatik + Vermessung; Tiefbau- und Entsorgungsdepartement"}}, {"type": "way", "id": 288353525, "nodes": [2919116039, 2919116041, 2919116077, 2919116074, 2919116039], "tags": {"addr:city": "Z\u00fcrich", "addr:country": "CH", "addr:housenumber": "18", "addr:postcode": "8001", "addr:street": "Fortunagasse", "building": "yes", "source": "Stadt Z\u00fcrich Open Government Data; Geomatik + Vermessung; Tiefbau- und Entsorgungsdepartement"}}, {"type": "way", "id": 288353526, "nodes": [2919116037, 2919116039, 2919116074, 2919116328, 2919116329, 2919116309, 2919116303, 2919116307, 2919116089, 2919116086, 2919116072, 2919116070, 2919116067, 2919116037], "tags": {"addr:city": "Z\u00fcrich", "addr:country": "CH", "addr:housenumber": "20", "addr:postcode": "8001", "addr:street": "Fortunagasse", "building": "yes", "source": "Stadt Z\u00fcrich Open Government Data; Geomatik + Vermessung; Tiefbau- und Entsorgungsdepartement"}}, {"type": "way", "id": 288353527, "nodes": [2919116064, 2919116033, 2919116037, 2919116067, 2919116064], "tags": {"addr:city": "Z\u00fcrich", "addr:country": "CH", "addr:housenumber": "22", "addr:postcode": "8001", "addr:street": "Fortunagasse", "building": "yes", "source": "Stadt Z\u00fcrich Open Government Data; Geomatik + Vermessung; Tiefbau- und Entsorgungsdepartement"}}, {"type": "way", "id": 288353528, "nodes": [2919116027, 2919116030, 2919116087, 2919116082, 2919116079, 2919116073, 2919116027], "tags": {"addr:city": "Z\u00fcrich", "addr:country": "CH", "addr:housenumber": "24", "addr:postcode": "8001", "addr:street": "Fortunagasse", "building": "yes", "source": "Stadt Z\u00fcrich Open Government Data; Geomatik + Vermessung; Tiefbau- und Entsorgungsdepartement"}}, {"type": "way", "id": 288353529, "nodes": [2919116090, 2919116050, 2919116018, 2919116024, 2919116027, 2919116073, 2919116081, 2919116075, 2919116094, 2919116090], "tags": {"addr:city": "Z\u00fcrich", "addr:country": "CH", "addr:housenumber": "26", "addr:postcode": "8001", "addr:street": "Fortunagasse", "building": "yes", "source": "Stadt Z\u00fcrich Open Government Data; Geomatik + Vermessung; Tiefbau- und Entsorgungsdepartement"}}, {"type": "way", "id": 288353530, "nodes": [2919116350, 2919116379, 2919116365, 2919116317, 2919116095, 2919116058, 2919116059, 2919116066, 2919116071, 2919116091, 2919116302, 2919116323, 2919116350], "tags": {"addr:city": "Z\u00fcrich", "addr:country": "CH", "addr:housenumber": "28", "addr:postcode": "8001", "addr:street": "Fortunagasse", "building": "yes", "source": "Stadt Z\u00fcrich Open Government Data; Geomatik + Vermessung; Tiefbau- und Entsorgungsdepartement"}}, {"type": "way", "id": 288353531, "nodes": [2919116044, 2919116042, 2919116065, 2919116076, 2919116078, 2919116097, 2919116096, 2919116085, 2919116084, 2919116044], "tags": {"addr:city": "Z\u00fcrich", "addr:country": "CH", "addr:housenumber": "3", "addr:postcode": "8001", "addr:street": "Lindenhofstrasse", "building": "yes", "name": "Zum Sch\u00fctz", "source": "Stadt Z\u00fcrich Open Government Data; Geomatik + Vermessung; Tiefbau- und Entsorgungsdepartement"}}, {"type": "way", "id": 288353532, "nodes": [2919116411, 2919116412, 2919116427, 2919116437, 2919116435, 2919116430, 2919116411], "tags": {"addr:city": "Z\u00fcrich", "addr:country": "CH", "addr:housenumber": "3", "addr:postcode": "8001", "addr:street": "Oetenbachgasse", "building": "yes", "source": "Stadt Z\u00fcrich Open Government Data; Geomatik + Vermessung; Tiefbau- und Entsorgungsdepartement"}}, {"type": "way", "id": 288353533, "nodes": [2919116091, 2919116061, 2919116055, 2919116056, 2919116053, 2919116046, 2919116052, 2919116059, 2919116066, 2919116071, 2919116091], "tags": {"addr:city": "Z\u00fcrich", "addr:country": "CH", "addr:housenumber": "30", "addr:postcode": "8001", "addr:street": "Fortunagasse", "building": "yes", "source": "Stadt Z\u00fcrich Open Government Data; Geomatik + Vermessung; Tiefbau- und Entsorgungsdepartement"}}, {"type": "way", "id": 288353534, "nodes": [2919116012, 2919116017, 2919116013, 2919116019, 2919116015, 2919116016, 2919116011, 2919116006, 2919116008, 2919116009, 2919116012], "tags": {"addr:housenumber": "30", "addr:street": "Rennweg", "building": "retail", "source": "Stadt Z\u00fcrich Open Government Data; Geomatik + Vermessung; Tiefbau- und Entsorgungsdepartement"}}, {"type": "way", "id": 288353535, "nodes": [2919116062, 2919116047, 2919116040, 2919116053, 2919116056, 2919116055, 2919116061, 2919116062], "tags": {"addr:city": "Z\u00fcrich", "addr:country": "CH", "addr:housenumber": "32", "addr:postcode": "8001", "addr:street": "Fortunagasse", "building": "yes", "source": "Stadt Z\u00fcrich Open Government Data; Geomatik + Vermessung; Tiefbau- und Entsorgungsdepartement"}}, {"type": "way", "id": 288353536, "nodes": [2919116047, 2919116048, 2919116036, 2919116025, 2919116028, 2919116022, 2919116032, 2919116038, 2919116040, 2919116047], "tags": {"addr:city": "Z\u00fcrich", "addr:country": "CH", "addr:housenumber": "34", "addr:postcode": "8001", "addr:street": "Fortunagasse", "building": "yes", "source": "Stadt Z\u00fcrich Open Government Data; Geomatik + Vermessung; Tiefbau- und Entsorgungsdepartement"}}, {"type": "way", "id": 288353537, "nodes": [2919116010, 2919116014, 2919116029, 2919116020, 2919116010], "tags": {"addr:city": "Z\u00fcrich", "addr:country": "CH", "addr:housenumber": "36", "addr:postcode": "8001", "addr:street": "Fortunagasse", "building": "yes", "source": "Stadt Z\u00fcrich Open Government Data; Geomatik + Vermessung; Tiefbau- und Entsorgungsdepartement"}}, {"type": "way", "id": 288353538, "nodes": [2919116045, 2919116046, 2919116052, 2919116049, 2919116054, 2919116051, 2919116035, 2919116023, 2919116045], "tags": {"addr:city": "Z\u00fcrich", "addr:country": "CH", "addr:housenumber": "36", "addr:postcode": "8001", "addr:street": "Rennweg", "building": "retail", "source": "Stadt Z\u00fcrich Open Government Data;Geomatik + Vermessung;Tiefbau- und Entsorgungsdepartement"}}, {"type": "way", "id": 288353539, "nodes": [2919116007, 2919116010, 2919116020, 2919116021, 2919116017, 2919116012, 2919116007], "tags": {"addr:city": "Z\u00fcrich", "addr:country": "CH", "addr:housenumber": "38", "addr:postcode": "8001", "addr:street": "Fortunagasse", "building": "yes", "source": "Stadt Z\u00fcrich Open Government Data; Geomatik + Vermessung; Tiefbau- und Entsorgungsdepartement"}}, {"type": "way", "id": 288353540, "nodes": [2919116051, 2919116092, 2919116093, 2919116099, 2919116080, 2919116083, 2919116060, 2919116035, 2919116051], "tags": {"addr:city": "Z\u00fcrich", "addr:country": "CH", "addr:housenumber": "38", "addr:postcode": "8001", "addr:street": "Rennweg", "building": "yes", "source": "Stadt Z\u00fcrich Open Government Data; Geomatik + Vermessung; Tiefbau- und Entsorgungsdepartement"}}, {"type": "way", "id": 288353541, "nodes": [2919116067, 2919116070, 2919116303, 2919116309, 2919116329, 2919116326, 2919116064, 2919116067], "tags": {"addr:city": "Z\u00fcrich", "addr:country": "CH", "addr:housenumber": "4", "addr:postcode": "8001", "addr:street": "Kaminfegergasse", "building": "yes", "source": "Stadt Z\u00fcrich Open Government Data; Geomatik + Vermessung; Tiefbau- und Entsorgungsdepartement"}}, {"type": "way", "id": 288353542, "nodes": [2919116099, 2919116305, 2919116321, 2919116315, 2919116088, 2919116060, 2919116083, 2919116080, 2919116099], "tags": {"addr:city": "Z\u00fcrich", "addr:country": "CH", "addr:housenumber": "42", "addr:postcode": "8001", "addr:street": "Rennweg", "building": "yes", "source": "Stadt Z\u00fcrich Open Government Data; Geomatik + Vermessung; Tiefbau- und Entsorgungsdepartement"}}, {"type": "way", "id": 288353543, "nodes": [2919116305, 2919116319, 2919116325, 2919116333, 2919116360, 2919116356, 2919116349, 2919116338, 2919116332, 2919116339, 2919116337, 2919116335, 2919116312, 2919116088, 2919116315, 2919116321, 2919116305], "tags": {"addr:city": "Z\u00fcrich", "addr:country": "CH", "addr:housenumber": "44", "addr:postcode": "8001", "addr:street": "Rennweg", "building": "yes", "source": "Stadt Z\u00fcrich Open Government Data; Geomatik + Vermessung; Tiefbau- und Entsorgungsdepartement"}}, {"type": "way", "id": 288353544, "nodes": [2919116339, 2919116343, 2919116341, 2919116361, 2919116351, 2919116340, 2919116312, 2919116335, 2919116337, 2919116339], "tags": {"addr:city": "Z\u00fcrich", "addr:country": "CH", "addr:housenumber": "46", "addr:postcode": "8001", "addr:street": "Rennweg", "building": "yes", "source": "Stadt Z\u00fcrich Open Government Data; Geomatik + Vermessung; Tiefbau- und Entsorgungsdepartement"}}, {"type": "way", "id": 288353545, "nodes": [2919116361, 2919116363, 2919116371, 2919116377, 2919116373, 2919116387, 2919116359, 1031294726, 1031293613, 2919116340, 2919116351, 2919116361], "tags": {"addr:city": "Z\u00fcrich", "addr:country": "CH", "addr:housenumber": "48", "addr:postcode": "8001", "addr:street": "Rennweg", "building": "yes", "source": "Stadt Z\u00fcrich Open Government Data; Geomatik + Vermessung; Tiefbau- und Entsorgungsdepartement"}}, {"type": "way", "id": 288353546, "nodes": [2919116087, 2919116306, 2919116324, 2919116320, 2919116081, 2919116073, 2919116079, 2919116082, 2919116087], "tags": {"addr:city": "Z\u00fcrich", "addr:country": "CH", "addr:housenumber": "5", "addr:postcode": "8001", "addr:street": "Kaminfegergasse", "building": "yes", "source": "Stadt Z\u00fcrich Open Government Data; Geomatik + Vermessung; Tiefbau- und Entsorgungsdepartement"}}, {"type": "way", "id": 288353547, "nodes": [2919116348, 2919116347, 2919116345, 2919116330, 2919116327, 2919116314, 2919116313, 2919116311, 2919116310, 2919116316, 2919116318, 2919116348], "tags": {"addr:city": "Z\u00fcrich", "addr:country": "CH", "addr:housenumber": "5", "addr:postcode": "8001", "addr:street": "Lindenhofstrasse", "building": "yes", "source": "Stadt Z\u00fcrich Open Government Data; Geomatik + Vermessung; Tiefbau- und Entsorgungsdepartement"}}, {"type": "way", "id": 288353548, "nodes": [2919116398, 2919116400, 2919116409, 2919116410, 2919116411, 2919116430, 2919116428, 2919116398], "tags": {"addr:city": "Z\u00fcrich", "addr:country": "CH", "addr:housenumber": "5", "addr:postcode": "8001", "addr:street": "Oetenbachgasse", "building": "yes", "source": "Stadt Z\u00fcrich Open Government Data; Geomatik + Vermessung; Tiefbau- und Entsorgungsdepartement"}}, {"type": "way", "id": 288353549, "nodes": [2919116387, 2919116393, 2919116407, 2919116413, 2919116402, 2919116403, 2919116395, 2919116359, 2919116387], "tags": {"addr:city": "Z\u00fcrich", "addr:country": "CH", "addr:housenumber": "50", "addr:postcode": "8001", "addr:street": "Rennweg", "building": "yes", "building:levels": "5", "source": "Stadt Z\u00fcrich Open Government Data; Geomatik + Vermessung; Tiefbau- und Entsorgungsdepartement"}}, {"type": "way", "id": 288353550, "nodes": [2919116336, 2919116355, 2919116350, 2919116323, 2919116336], "tags": {"addr:city": "Z\u00fcrich", "addr:country": "CH", "addr:housenumber": "5a", "addr:postcode": "8001", "addr:street": "Oetenbachgasse", "building": "yes", "source": "Stadt Z\u00fcrich Open Government Data; Geomatik + Vermessung; Tiefbau- und Entsorgungsdepartement"}}, {"type": "way", "id": 288353551, "nodes": [2919116352, 2919116331, 2919116334, 2919116353, 2919116352], "tags": {"addr:city": "Z\u00fcrich", "addr:country": "CH", "addr:housename": "Kafega", "addr:housenumber": "7", "addr:postcode": "8001", "addr:street": "Kaminfegergasse", "building": "yes", "source": "Stadt Z\u00fcrich Open Government Data;Geomatik + Vermessung;Tiefbau- und Entsorgungsdepartement"}}, {"type": "way", "id": 288353552, "nodes": [2919116097, 2919116346, 2919116348, 2919116318, 2919116316, 2919116310, 2919116308, 2919116304, 2919116098, 2919116096, 2919116097], "tags": {"addr:city": "Z\u00fcrich", "addr:country": "CH", "addr:housenumber": "7", "addr:postcode": "8001", "addr:street": "Lindenhofstrasse", "building": "apartments", "source": "Stadt Z\u00fcrich Open Government Data; Geomatik + Vermessung; Tiefbau- und Entsorgungsdepartement"}}, {"type": "way", "id": 288353553, "nodes": [2919116397, 2919116374, 2919116380, 2919116399, 2919116397], "tags": {"addr:city": "Z\u00fcrich", "addr:country": "CH", "addr:housenumber": "9", "addr:postcode": "8001", "addr:street": "Kaminfegergasse", "building": "yes", "source": "Stadt Z\u00fcrich Open Government Data; Geomatik + Vermessung; Tiefbau- und Entsorgungsdepartement"}}, {"type": "way", "id": 288353554, "nodes": [2919116346, 2919116357, 2919116382, 2919116370, 2919116364, 2919116347, 2919116348, 2919116346], "tags": {"addr:city": "Z\u00fcrich", "addr:country": "CH", "addr:housenumber": "9", "addr:postcode": "8001", "addr:street": "Lindenhofstrasse", "building": "apartments", "source": "Stadt Z\u00fcrich Open Government Data; Geomatik + Vermessung; Tiefbau- und Entsorgungsdepartement"}}, {"type": "way", "id": 288517108, "nodes": [1037301391, 2920747560, 2920747561, 2920747550, 2920747548, 2920747527, 2920747523, 2920747530, 2920747525, 2920747520, 2920747519, 2920747524, 2920747529, 2920747542, 2920747541, 2920747539, 2920747522, 2920747521, 2920747518, 2920747297, 6845207028, 2920747292, 2920747509, 2920747510, 2920747511, 2920747512, 2920747514, 2920747516, 2920747506, 2920747291, 1516540541, 2920747508, 2920747282, 2920747285, 2920747286, 2920747577, 1037301307, 1037301391], "tags": {"addr:city": "Z\u00fcrich", "addr:country": "CH", "addr:postcode": "8001", "building": "yes", "building:levels": "6", "name": "Grosser Widder", "source": "Stadt Z\u00fcrich Open Government Data;Geomatik + Vermessung;Tiefbau- und Entsorgungsdepartement"}}, {"type": "way", "id": 288517111, "nodes": [2920747288, 2920747289, 2920747293, 2920747294, 2920747502, 2920747504, 2920747507, 2920747503, 2920747298, 2920747296, 2920747288], "tags": {"addr:city": "Z\u00fcrich", "addr:country": "CH", "addr:housenumber": "10", "addr:postcode": "8001", "addr:street": "Widdergasse", "building": "retail", "source": "Stadt Z\u00fcrich Open Government Data; Geomatik + Vermessung; Tiefbau- und Entsorgungsdepartement"}}, {"type": "way", "id": 288517113, "nodes": [2920747290, 2920747287, 2920747288, 2920747296, 2920747298, 2920747503, 2920747501, 2920747290], "tags": {"addr:city": "Z\u00fcrich", "addr:country": "CH", "addr:housenumber": "20", "addr:postcode": "8001", "addr:street": "Augustinergasse", "building": "retail", "building:levels": "6", "source": "Stadt Z\u00fcrich Open Government Data; Geomatik + Vermessung; Tiefbau- und Entsorgungsdepartement"}}, {"type": "way", "id": 288517116, "nodes": [2920747292, 2920747290, 2920747501, 2920747510, 2920747509, 2920747292], "tags": {"addr:city": "Z\u00fcrich", "addr:country": "CH", "addr:housenumber": "22", "addr:postcode": "8001", "addr:street": "Augustinergasse", "building": "retail", "building:levels": "6", "source": "Stadt Z\u00fcrich Open Government Data; Geomatik + Vermessung; Tiefbau- und Entsorgungsdepartement"}}, {"type": "way", "id": 288517118, "nodes": [2920747533, 2920747528, 2920747526, 2920747300, 2920747297, 2920747518, 2920747521, 2920747522, 2920747539, 2920747540, 2920747535, 2920747534, 2920747533], "tags": {"addr:city": "Z\u00fcrich", "addr:country": "CH", "addr:housenumber": "30", "addr:postcode": "8001", "addr:street": "Augustinergasse", "building": "yes", "source": "Stadt Z\u00fcrich Open Government Data; Geomatik + Vermessung; Tiefbau- und Entsorgungsdepartement"}}, {"type": "way", "id": 288517120, "nodes": [2920747541, 2920747553, 2920747570, 2920747563, 2920747558, 2920747545, 2920747538, 2920747537, 2920747533, 2920747534, 2920747547, 2920747549, 2920747539, 2920747541], "tags": {"addr:city": "Z\u00fcrich", "addr:country": "CH", "addr:housenumber": "30a", "addr:postcode": "8001", "addr:street": "Augustinergasse", "building": "yes", "source": "Stadt Z\u00fcrich Open Government Data; Geomatik + Vermessung; Tiefbau- und Entsorgungsdepartement"}}, {"type": "way", "id": 288517123, "nodes": [2920747546, 2920747531, 2920747532, 2920747536, 1037301309, 1037301428, 2920747300, 2920747526, 2920747528, 2920747533, 2920747537, 2920747538, 2920747545, 2920747546], "tags": {"addr:city": "Z\u00fcrich", "addr:country": "CH", "addr:housenumber": "34", "addr:postcode": "8001", "addr:street": "Augustinergasse", "building": "yes", "source": "Stadt Z\u00fcrich Open Government Data; Geomatik + Vermessung; Tiefbau- und Entsorgungsdepartement"}}, {"type": "way", "id": 288517125, "nodes": [2920747558, 2920747559, 2920747546, 2920747545, 2920747558], "tags": {"addr:city": "Z\u00fcrich", "addr:country": "CH", "addr:housenumber": "34a", "addr:postcode": "8001", "addr:street": "Augustinergasse", "building": "yes", "source": "Stadt Z\u00fcrich Open Government Data; Geomatik + Vermessung; Tiefbau- und Entsorgungsdepartement"}}, {"type": "way", "id": 288517128, "nodes": [2920747596, 2920747593, 2920747572, 2920747571, 2920747569, 2920747564, 2920747563, 2920747568, 2920747565, 2920747579, 2920747583, 2920747596], "tags": {"addr:city": "Z\u00fcrich", "addr:country": "CH", "addr:housenumber": "36", "addr:postcode": "8001", "addr:street": "Augustinergasse", "building": "yes", "source": "Stadt Z\u00fcrich Open Government Data; Geomatik + Vermessung; Tiefbau- und Entsorgungsdepartement"}}, {"type": "way", "id": 288517130, "nodes": [2920747594, 2920747595, 2920747590, 2920747589, 2920747588, 2920747574, 1037301713, 1037301252, 2920747594], "tags": {"addr:city": "Z\u00fcrich", "addr:country": "CH", "addr:housenumber": "40", "addr:postcode": "8001", "addr:street": "Augustinergasse", "building": "yes", "source": "Stadt Z\u00fcrich Open Government Data; Geomatik + Vermessung; Tiefbau- und Entsorgungsdepartement"}}, {"type": "way", "id": 288517133, "nodes": [1037301713, 2920747552, 2920747513, 1037301575, 1037301713], "tags": {"addr:city": "Z\u00fcrich", "addr:country": "CH", "addr:housenumber": "42", "addr:postcode": "8001", "addr:street": "Augustinergasse", "building": "retail", "source": "Stadt Z\u00fcrich Open Government Data; Geomatik + Vermessung; Tiefbau- und Entsorgungsdepartement"}}, {"type": "way", "id": 288517135, "nodes": [2920747552, 2920747551, 2920747515, 2920747513, 2920747552], "tags": {"addr:city": "Z\u00fcrich", "addr:country": "CH", "addr:housenumber": "44", "addr:postcode": "8001", "addr:street": "Augustinergasse", "building": "retail", "source": "Stadt Z\u00fcrich Open Government Data; Geomatik + Vermessung; Tiefbau- und Entsorgungsdepartement"}}, {"type": "way", "id": 288517137, "nodes": [2920747588, 2920747587, 2920747585, 2920747584, 2920747582, 2920747580, 2920747566, 2920747567, 2920747555, 2920747556, 2920747573, 2920747574, 2920747588], "tags": {"addr:city": "Z\u00fcrich", "addr:country": "CH", "addr:housenumber": "44a", "addr:postcode": "8001", "addr:street": "Augustinergasse", "building": "yes", "source": "Stadt Z\u00fcrich Open Government Data; Geomatik + Vermessung; Tiefbau- und Entsorgungsdepartement"}}, {"type": "way", "id": 288517140, "nodes": [2920747551, 1037301667, 1037301370, 1037301562, 2920747517, 2920747515, 2920747551], "tags": {"addr:city": "Z\u00fcrich", "addr:country": "CH", "addr:housenumber": "46", "addr:postcode": "8001", "addr:street": "Augustinergasse", "building": "yes", "source": "Stadt Z\u00fcrich Open Government Data; Geomatik + Vermessung; Tiefbau- und Entsorgungsdepartement"}}, {"type": "way", "id": 288517142, "nodes": [2920747289, 2920747291, 2920747506, 2920747516, 2920747514, 2920747512, 2920747511, 2920747505, 2920747504, 2920747502, 2920747294, 2920747293, 2920747289], "tags": {"addr:city": "Z\u00fcrich", "addr:country": "CH", "addr:housenumber": "8", "addr:postcode": "8001", "addr:street": "Widdergasse", "building": "retail", "source": "Stadt Z\u00fcrich Open Government Data; Geomatik + Vermessung; Tiefbau- und Entsorgungsdepartement"}}, {"type": "way", "id": 289026055, "nodes": [2925754159, 2925754155, 2925754144, 2925754146, 2925754159], "tags": {"addr:city": "Z\u00fcrich", "addr:country": "CH", "addr:housenumber": "17a", "addr:postcode": "8001", "addr:street": "Schl\u00fcsselgasse", "building": "yes", "source": "Stadt Z\u00fcrich Open Government Data; Geomatik + Vermessung; Tiefbau- und Entsorgungsdepartement"}}, {"type": "way", "id": 289026057, "nodes": [2925754164, 2205041366, 2925754175, 2925754176, 2205041340, 2925754166, 2925754163, 2925754164], "tags": {"addr:city": "Z\u00fcrich", "addr:country": "CH", "addr:postcode": "8001", "building": "yes", "name": "Zur Gr\u00fcnen Ecke", "source": "Stadt Z\u00fcrich Open Government Data;Geomatik + Vermessung;Tiefbau- und Entsorgungsdepartement"}}, {"type": "way", "id": 289026058, "nodes": [2925754133, 2925754126, 2925754127, 2925754137, 2925754136, 2925754133], "tags": {"addr:city": "Z\u00fcrich", "addr:country": "CH", "addr:housenumber": "10", "addr:postcode": "8001", "addr:street": "Augustinergasse", "building": "yes", "source": "Stadt Z\u00fcrich Open Government Data; Geomatik + Vermessung; Tiefbau- und Entsorgungsdepartement"}}, {"type": "way", "id": 289026059, "nodes": [2925754145, 2925754133, 2925754136, 2925754142, 2925754150, 2925754148, 2925754145], "tags": {"addr:city": "Z\u00fcrich", "addr:country": "CH", "addr:housenumber": "12", "addr:postcode": "8001", "addr:street": "Augustinergasse", "building": "yes", "source": "Stadt Z\u00fcrich Open Government Data; Geomatik + Vermessung; Tiefbau- und Entsorgungsdepartement"}}, {"type": "way", "id": 289026060, "nodes": [2925754172, 2925754169, 2925754154, 2925754156, 2925754172], "tags": {"addr:city": "Z\u00fcrich", "addr:country": "CH", "addr:housenumber": "13", "addr:postcode": "8001", "addr:street": "Glockengasse", "building": "yes", "source": "Stadt Z\u00fcrich Open Government Data; Geomatik + Vermessung; Tiefbau- und Entsorgungsdepartement"}}, {"type": "way", "id": 289026061, "nodes": [2925754168, 2925754158, 2925754145, 2925754148, 2925754154, 2925754169, 2925754168], "tags": {"addr:city": "Z\u00fcrich", "addr:country": "CH", "addr:housenumber": "14", "addr:postcode": "8001", "addr:street": "Augustinergasse", "building": "yes", "name": "James Joyce Corner", "source": "Stadt Z\u00fcrich Open Government Data; Geomatik + Vermessung; Tiefbau- und Entsorgungsdepartement", "start_date": "1330"}}, {"type": "way", "id": 289026062, "nodes": [2925754152, 2925754164, 2925754163, 2925754162, 2925754159, 2925754146, 2925754151, 2925754147, 2925754152], "tags": {"addr:city": "Z\u00fcrich", "addr:country": "CH", "addr:housenumber": "17", "addr:postcode": "8001", "addr:street": "Strehlgasse", "building": "apartments", "source": "Stadt Z\u00fcrich Open Government Data; Geomatik + Vermessung; Tiefbau- und Entsorgungsdepartement"}}, {"type": "way", "id": 289026063, "nodes": [2925754179, 3645826594, 2925754178, 2925754182, 2925754184, 2925754179], "tags": {"addr:city": "Z\u00fcrich", "addr:country": "CH", "addr:housenumber": "2", "addr:postcode": "8001", "addr:street": "Glockengasse", "building": "yes", "source": "Stadt Z\u00fcrich Open Government Data; Geomatik + Vermessung; Tiefbau- und Entsorgungsdepartement"}}, {"type": "way", "id": 289026064, "nodes": [2925754182, 2925754185, 2925754195, 2925754193, 2925754190, 2925754188, 2925754184, 2925754182], "tags": {"addr:city": "Z\u00fcrich", "addr:country": "CH", "addr:housenumber": "23", "addr:postcode": "8001", "addr:street": "Strehlgasse", "building": "yes", "source": "Stadt Z\u00fcrich Open Government Data; Geomatik + Vermessung; Tiefbau- und Entsorgungsdepartement"}}, {"type": "way", "id": 289026065, "nodes": [2925754195, 2925754207, 2925754209, 2925754211, 2925754199, 2925754196, 2925754193, 2925754195], "tags": {"addr:city": "Z\u00fcrich", "addr:country": "CH", "addr:housenumber": "25", "addr:postcode": "8001", "addr:street": "Strehlgasse", "building": "yes", "source": "Stadt Z\u00fcrich Open Government Data; Geomatik + Vermessung; Tiefbau- und Entsorgungsdepartement"}}, {"type": "way", "id": 289026066, "nodes": [2925754211, 2925754212, 2925754205, 2925754204, 2925754201, 2925754199, 2925754211], "tags": {"addr:city": "Z\u00fcrich", "addr:country": "CH", "addr:housenumber": "27", "addr:postcode": "8001", "addr:street": "Strehlgasse", "building": "yes", "source": "Stadt Z\u00fcrich Open Government Data; Geomatik + Vermessung; Tiefbau- und Entsorgungsdepartement"}}, {"type": "way", "id": 289026067, "nodes": [2925754181, 2925754180, 2925754183, 2925754186, 2925754191, 2925754201, 2925754204, 2925754205, 2925754212, 3645952051, 2925754213, 2925754210, 2925754203, 2925754194, 2925754189, 2925754187, 2925754181], "tags": {"addr:city": "Z\u00fcrich", "addr:country": "CH", "addr:housenumber": "29", "addr:postcode": "8001", "addr:street": "Strehlgasse", "building": "yes", "source": "Stadt Z\u00fcrich Open Government Data; Geomatik + Vermessung; Tiefbau- und Entsorgungsdepartement"}}, {"type": "way", "id": 289026068, "nodes": [2925754166, 2925754174, 2925754170, 2925754171, 2925754161, 2925754160, 2925754153, 2925754155, 2925754159, 2925754162, 2925754163, 2925754166], "tags": {"addr:city": "Z\u00fcrich", "addr:country": "CH", "addr:housenumber": "3", "addr:postcode": "8001", "addr:street": "Glockengasse", "building": "yes", "source": "Stadt Z\u00fcrich Open Government Data; Geomatik + Vermessung; Tiefbau- und Entsorgungsdepartement"}}, {"type": "way", "id": 289026069, "nodes": [2925754103, 3881822126, 2925754104, 2925754105, 2925754108, 2925754107, 2925754115, 2925754113, 2925754111, 2925754103], "tags": {"addr:city": "Z\u00fcrich", "addr:country": "CH", "addr:housenumber": "3", "addr:postcode": "8001", "addr:street": "St. Peterhofstatt", "building": "yes", "source": "Stadt Z\u00fcrich Open Government Data; Geomatik + Vermessung; Tiefbau- und Entsorgungsdepartement"}}, {"type": "way", "id": 289026070, "nodes": [2925754213, 2925754214, 1037539705, 1037539961, 2925754197, 2925754198, 2925754202, 2925754203, 2925754210, 2925754213], "tags": {"addr:city": "Z\u00fcrich", "addr:country": "CH", "addr:housenumber": "31", "addr:postcode": "8001", "addr:street": "Strehlgasse", "building": "yes", "source": "Stadt Z\u00fcrich Open Government Data; Geomatik + Vermessung; Tiefbau- und Entsorgungsdepartement"}}, {"type": "way", "id": 289026071, "nodes": [2925754102, 2925754101, 2925754103, 2925754111, 2925754116, 2925754114, 2925754106, 2925754102], "tags": {"addr:city": "Z\u00fcrich", "addr:country": "CH", "addr:housenumber": "4", "addr:postcode": "8001", "addr:street": "Augustinergasse", "building": "yes", "source": "Stadt Z\u00fcrich Open Government Data; Geomatik + Vermessung; Tiefbau- und Entsorgungsdepartement"}}, {"type": "way", "id": 289026072, "nodes": [2925754180, 2925754179, 2925754184, 2925754188, 2925754190, 2925754191, 2925754186, 2925754183, 2925754180], "tags": {"addr:city": "Z\u00fcrich", "addr:country": "CH", "addr:housenumber": "4", "addr:postcode": "8001", "addr:street": "Glockengasse", "building": "yes", "name": "Kleiner Riese", "source": "Stadt Z\u00fcrich Open Government Data; Geomatik + Vermessung; Tiefbau- und Entsorgungsdepartement"}}, {"type": "way", "id": 289026073, "nodes": [2925754113, 2925754124, 2925754123, 2925754122, 2925754117, 2925754116, 2925754111, 2925754113], "tags": {"addr:city": "Z\u00fcrich", "addr:country": "CH", "addr:housenumber": "4", "addr:postcode": "8001", "addr:street": "St. Peterhofstatt", "building": "yes", "source": "Stadt Z\u00fcrich Open Government Data; Geomatik + Vermessung; Tiefbau- und Entsorgungsdepartement"}}, {"type": "way", "id": 289026074, "nodes": [2925754171, 1041912174, 2925754165, 1041911935, 2925754161, 2925754171], "tags": {"addr:city": "Z\u00fcrich", "addr:country": "CH", "addr:housenumber": "5", "addr:postcode": "8001", "addr:street": "Glockengasse", "building": "yes", "source": "Stadt Z\u00fcrich Open Government Data; Geomatik + Vermessung; Tiefbau- und Entsorgungsdepartement"}}, {"type": "way", "id": 289026075, "nodes": [2925754109, 2925696800, 2925754102, 2925754106, 2925754114, 2925754109], "tags": {"addr:city": "Z\u00fcrich", "addr:country": "CH", "addr:housenumber": "6", "addr:postcode": "8001", "addr:street": "Augustinergasse", "building": "yes", "source": "Stadt Z\u00fcrich Open Government Data; Geomatik + Vermessung; Tiefbau- und Entsorgungsdepartement"}}, {"type": "way", "id": 289026076, "nodes": [1037539700, 2925754181, 2925754187, 2925754189, 2925754194, 2925754192, 1037539700], "tags": {"addr:city": "Z\u00fcrich", "addr:country": "CH", "addr:housenumber": "6a", "addr:postcode": "8001", "addr:street": "Glockengasse", "building": "yes", "note": "Hausnummer am Haus ist 8", "source": "Stadt Z\u00fcrich Open Government Data; Geomatik + Vermessung; Tiefbau- und Entsorgungsdepartement"}}, {"type": "way", "id": 289026077, "nodes": [2925754126, 2925754112, 2925754117, 2925754122, 2925754118, 2925754121, 2925754119, 2925754129, 2925754135, 2925754134, 2925754140, 2925754137, 2925754127, 2925754126], "tags": {"addr:city": "Z\u00fcrich", "addr:country": "CH", "addr:housenumber": "8", "addr:postcode": "8001", "addr:street": "Augustinergasse", "building": "yes", "source": "Stadt Z\u00fcrich Open Government Data; Geomatik + Vermessung; Tiefbau- und Entsorgungsdepartement"}}, {"type": "way", "id": 289026078, "nodes": [2925754173, 2925754172, 2925754156, 2925754157, 2925754140, 2925754134, 2925754135, 2925754129, 2925754130, 2925754173], "tags": {"addr:city": "Z\u00fcrich", "addr:country": "CH", "addr:housenumber": "9", "addr:postcode": "8001", "addr:street": "Glockengasse", "building": "yes", "building:levels": "5", "name": "Zur Glocke", "roof:levels": "1", "source": "Stadt Z\u00fcrich Open Government Data; Geomatik + Vermessung; Tiefbau- und Entsorgungsdepartement"}}, {"type": "way", "id": 316234711, "nodes": [3223461561, 1037539431, 1037539601, 1037539726, 1037539542, 1037539677, 3223461761, 3223461562, 4244268255, 4244268254, 3223461561], "tags": {"building": "retail"}}, {"type": "way", "id": 340549186, "nodes": [2925715592, 1041912158, 1041912225, 1041911666, 1041911395, 3477874340, 1041911972, 2925715592], "tags": {"building": "yes"}}, {"type": "way", "id": 1152861642, "nodes": [2918894826, 2918894827, 10723030982, 2918894830, 10723030988, 10723030987, 10723030986, 10723030985, 2918894826], "tags": {"addr:city": "Z\u00fcrich", "addr:country": "CH", "addr:housenumber": "37", "addr:postcode": "8001", "addr:street": "Rennweg", "building": "yes", "source": "Stadt Z\u00fcrich Open Government Data; Geomatik + Vermessung; Tiefbau- und Entsorgungsdepartement"}}]}