{"version": 0.6, "generator": "Overpass API 0.7.60.6 e2dc3e5b", "osm3s": {"timestamp_osm_base": "2023-06-29T15:08:59Z", "copyright": "The data included in this document is from www.openstreetmap.org. The data is made available under ODbL."}, "elements": [{"type": "node", "id": 922501853, "lat": 47.3765835, "lon": 8.5414913}, {"type": "node", "id": 922501892, "lat": 47.3763378, "lon": 8.5412513}, {"type": "node", "id": 922501898, "lat": 47.3765448, "lon": 8.5412266}, {"type": "node", "id": 922501900, "lat": 47.3766819, "lon": 8.5411992}, {"type": "node", "id": 922501902, "lat": 47.3767147, "lon": 8.5414523}, {"type": "node", "id": 922501923, "lat": 47.3763818, "lon": 8.5415552}, {"type": "node", "id": 1110775246, "lat": 47.3765511, "lon": 8.5415014, "tags": {"addr:city": "Z\u00fcrich", "addr:country": "CH", "addr:housenumber": "11", "addr:postcode": "8001", "addr:street": "Bahnhofquai"}}, {"type": "node", "id": 2958698643, "lat": 47.3764349, "lon": 8.5415382, "tags": {"addr:city": "Z\u00fcrich", "addr:country": "CH", "addr:housenumber": "9", "addr:postcode": "8001", "addr:street": "Bahnhofquai"}}, {"type": "node", "id": 2958698650, "lat": 47.3765058, "lon": 8.5412002}, {"type": "node", "id": 2958698651, "lat": 47.3765115, "lon": 8.541237}, {"type": "node", "id": 2958698655, "lat": 47.3766803, "lon": 8.5411848}, {"type": "way", "id": 50003701, "nodes": [922501923, 2958698643, 1110775246, 922501853, 922501898, 2958698651, 2958698650, 922501892, 922501923], "tags": {"building": "commercial", "owner": "PSP Swiss Property", "source": "Stadt Z\u00fcrich Open Government Data;Geomatik + Vermessung;Tiefbau- und Entsorgungsdepartement"}}, {"type": "way", "id": 78630001, "nodes": [922501853, 922501902, 922501900, 2958698655, 922501898, 922501853], "tags": {"addr:city": "Z\u00fcrich", "addr:country": "CH", "addr:housenumber": "15", "addr:postcode": "8001", "addr:street": "Bahnhofquai", "building": "commercial", "note": "Erg\u00e4nzung 28.4.19: Die Geb\u00e4ude werden inzwischen restauriert. Alle drei Geb\u00e4ude durch Brand im August 2018 v\u00f6llig zerst\u00f6rt. Daher Ruine, da das Geb\u00e4ude nicht mehr im Bau ist. Mehrere Etagen sind eingest\u00fcrzt", "owner": "PSP Swiss Property", "source": "Stadt Z\u00fcrich Open Government Data;Geomatik + Vermessung;Tiefbau- und Entsorgungsdepartement"}}]}