{"version": 0.6, "generator": "Overpass API 0.7.60.6 e2dc3e5b", "osm3s": {"timestamp_osm_base": "2023-06-29T15:24:04Z", "copyright": "The data included in this document is from www.openstreetmap.org. The data is made available under ODbL."}, "elements": [{"type": "node", "id": 633678237, "lat": 47.3693583, "lon": 8.5439341, "tags": {"addr:city": "Z\u00fcrich", "addr:country": "CH", "addr:housenumber": "1", "addr:postcode": "8001", "addr:street": "Kirchgasse"}}, {"type": "node", "id": 633678238, "lat": 47.3693492, "lon": 8.5437944, "tags": {"addr:city": "Z\u00fcrich", "addr:country": "CH", "addr:housenumber": "20", "addr:postcode": "8001", "addr:street": "Limmatquai"}}, {"type": "node", "id": 1031582158, "lat": 47.3696019, "lon": 8.5437693}, {"type": "node", "id": 1031582173, "lat": 47.369526, "lon": 8.5432954}, {"type": "node", "id": 1031582230, "lat": 47.3691577, "lon": 8.5438979}, {"type": "node", "id": 1031582243, "lat": 47.3694545, "lon": 8.5438833}, {"type": "node", "id": 1031582453, "lat": 47.3695146, "lon": 8.5438353}, {"type": "node", "id": 1031582510, "lat": 47.3692233, "lon": 8.5437903}, {"type": "node", "id": 1031582567, "lat": 47.3696444, "lon": 8.543864}, {"type": "node", "id": 1031582598, "lat": 47.3691477, "lon": 8.543879}, {"type": "node", "id": 1031582660, "lat": 47.3696206, "lon": 8.5437544}, {"type": "node", "id": 1031582672, "lat": 47.3697745, "lon": 8.5432112}, {"type": "node", "id": 1031582697, "lat": 47.3694643, "lon": 8.5437106}, {"type": "node", "id": 1031582717, "lat": 47.3691793, "lon": 8.5439397}, {"type": "node", "id": 1031582767, "lat": 47.3695184, "lon": 8.5436767}, {"type": "node", "id": 1031582842, "lat": 47.3689321, "lon": 8.5438395}, {"type": "node", "id": 1031583119, "lat": 47.3696372, "lon": 8.5436053}, {"type": "node", "id": 1031583137, "lat": 47.3695207, "lon": 8.543286}, {"type": "node", "id": 1031583153, "lat": 47.3695348, "lon": 8.5439845}, {"type": "node", "id": 1031583221, "lat": 47.3690533, "lon": 8.5437047}, {"type": "node", "id": 1031583245, "lat": 47.3696404, "lon": 8.5438142}, {"type": "node", "id": 1031583279, "lat": 47.3691369, "lon": 8.5436111}, {"type": "node", "id": 1031583300, "lat": 47.3693038, "lon": 8.5438362}, {"type": "node", "id": 1031583326, "lat": 47.3695583, "lon": 8.543801}, {"type": "node", "id": 1031583389, "lat": 47.3690417, "lon": 8.5440361}, {"type": "node", "id": 1031583403, "lat": 47.3693745, "lon": 8.5439643}, {"type": "node", "id": 1031583440, "lat": 47.3691938, "lon": 8.5439675}, {"type": "node", "id": 1031583553, "lat": 47.3695234, "lon": 8.5431736}, {"type": "node", "id": 1031583586, "lat": 47.3694474, "lon": 8.5438208}, {"type": "node", "id": 1031583622, "lat": 47.3692531, "lon": 8.5438464}, {"type": "node", "id": 1031583638, "lat": 47.3696822, "lon": 8.5437823}, {"type": "node", "id": 1031583726, "lat": 47.3693928, "lon": 8.5437542}, {"type": "node", "id": 1970612927, "lat": 47.3692641, "lon": 8.5440912}, {"type": "node", "id": 1970612933, "lat": 47.3694759, "lon": 8.5437906}, {"type": "node", "id": 1970612935, "lat": 47.3695024, "lon": 8.5438473}, {"type": "node", "id": 2862727031, "lat": 47.3697141, "lon": 8.5437615, "tags": {"addr:city": "Z\u00fcrich", "addr:country": "CH", "addr:housenumber": "1", "addr:postcode": "8001", "addr:street": "Laternengasse"}}, {"type": "node", "id": 2862727032, "lat": 47.369462, "lon": 8.5438049, "tags": {"addr:city": "Z\u00fcrich", "addr:country": "CH", "addr:housenumber": "22", "addr:postcode": "8001", "addr:street": "Limmatquai"}}, {"type": "node", "id": 2862727033, "lat": 47.369712, "lon": 8.5438524, "tags": {"addr:city": "Z\u00fcrich", "addr:country": "CH", "addr:housenumber": "3", "addr:postcode": "8001", "addr:street": "Laternengasse"}}, {"type": "node", "id": 2862727034, "lat": 47.3697571, "lon": 8.5435663, "tags": {"addr:city": "Z\u00fcrich", "addr:country": "CH", "addr:housenumber": "28", "addr:postcode": "8001", "addr:street": "Limmatquai"}}, {"type": "node", "id": 2862727039, "lat": 47.3698179, "lon": 8.5439391, "tags": {"addr:city": "Z\u00fcrich", "addr:country": "CH", "addr:housenumber": "8", "addr:postcode": "8001", "addr:street": "Grossm\u00fcnsterplatz"}}, {"type": "node", "id": 2862727094, "lat": 47.3693381, "lon": 8.5440062}, {"type": "node", "id": 2862728745, "lat": 47.3696748, "lon": 8.5439043}, {"type": "node", "id": 2862728749, "lat": 47.3696846, "lon": 8.5435927}, {"type": "node", "id": 2862728753, "lat": 47.3697125, "lon": 8.5438514}, {"type": "node", "id": 2862728754, "lat": 47.369713, "lon": 8.5437624}, {"type": "node", "id": 2862728755, "lat": 47.3697138, "lon": 8.5438024}, {"type": "node", "id": 2862728761, "lat": 47.3697558, "lon": 8.5440262}, {"type": "node", "id": 2862728768, "lat": 47.3698277, "lon": 8.5437696}, {"type": "node", "id": 2862728769, "lat": 47.3698298, "lon": 8.5435408}, {"type": "node", "id": 2862728770, "lat": 47.369859, "lon": 8.5437234}, {"type": "node", "id": 2862728771, "lat": 47.3698794, "lon": 8.5438539}, {"type": "node", "id": 5209300314, "lat": 47.3694885, "lon": 8.5432334}, {"type": "node", "id": 5209300315, "lat": 47.369489, "lon": 8.5432207}, {"type": "node", "id": 5209300316, "lat": 47.3695059, "lon": 8.5433025}, {"type": "node", "id": 5209300317, "lat": 47.3695087, "lon": 8.5432364}, {"type": "node", "id": 5209300318, "lat": 47.3695092, "lon": 8.543223}, {"type": "node", "id": 5209300319, "lat": 47.3695112, "lon": 8.543315}, {"type": "node", "id": 5209300320, "lat": 47.3695114, "lon": 8.5431514}, {"type": "node", "id": 5209300663, "lat": 47.3696829, "lon": 8.5432874}, {"type": "node", "id": 5209300664, "lat": 47.3696975, "lon": 8.5430543}, {"type": "node", "id": 5209300665, "lat": 47.3697022, "lon": 8.543249}, {"type": "node", "id": 5209300666, "lat": 47.3697039, "lon": 8.5430802}, {"type": "node", "id": 5209300667, "lat": 47.3697058, "lon": 8.5430513}, {"type": "node", "id": 5209300668, "lat": 47.3697088, "lon": 8.5432738}, {"type": "node", "id": 5209300669, "lat": 47.3697112, "lon": 8.5430766}, {"type": "node", "id": 5209300670, "lat": 47.3697118, "lon": 8.543244}, {"type": "node", "id": 5209300671, "lat": 47.3697177, "lon": 8.5432681}, {"type": "node", "id": 5209301184, "lat": 47.3695998, "lon": 8.5431038}, {"type": "node", "id": 5209301185, "lat": 47.3696035, "lon": 8.5433276}, {"type": "node", "id": 5209301186, "lat": 47.3696053, "lon": 8.5432992}, {"type": "node", "id": 5209301187, "lat": 47.3696058, "lon": 8.5431289}, {"type": "node", "id": 5209301188, "lat": 47.3696114, "lon": 8.5433233}, {"type": "node", "id": 5209301189, "lat": 47.3696269, "lon": 8.5430887}, {"type": "node", "id": 5209301190, "lat": 47.3696335, "lon": 8.5431152}, {"type": "node", "id": 5209301191, "lat": 47.3696335, "lon": 8.5432846}, {"type": "node", "id": 5209301192, "lat": 47.3696354, "lon": 8.5430845}, {"type": "node", "id": 5209301193, "lat": 47.3696397, "lon": 8.543311}, {"type": "node", "id": 5209301194, "lat": 47.3697388, "lon": 8.5432301}, {"type": "node", "id": 5209301196, "lat": 47.3697449, "lon": 8.5432556}, {"type": "node", "id": 5209301197, "lat": 47.3697446, "lon": 8.5430595}, {"type": "node", "id": 5209301198, "lat": 47.369747, "lon": 8.5432258}, {"type": "node", "id": 5209301202, "lat": 47.369753, "lon": 8.5432511}, {"type": "node", "id": 5209301221, "lat": 47.3695189, "lon": 8.5431433}, {"type": "node", "id": 5209301222, "lat": 47.3695316, "lon": 8.5431657}, {"type": "node", "id": 5209301223, "lat": 47.3695564, "lon": 8.5431251}, {"type": "node", "id": 5209301224, "lat": 47.3696412, "lon": 8.5431114}, {"type": "node", "id": 5209301225, "lat": 47.3696415, "lon": 8.5432805}, {"type": "node", "id": 5209301226, "lat": 47.369648, "lon": 8.5433061}, {"type": "node", "id": 5209301227, "lat": 47.3696623, "lon": 8.5430724}, {"type": "node", "id": 5209301228, "lat": 47.3696683, "lon": 8.5430979}, {"type": "node", "id": 5209301229, "lat": 47.3696687, "lon": 8.5432664}, {"type": "node", "id": 5209301230, "lat": 47.3696712, "lon": 8.5430675}, {"type": "node", "id": 5209301231, "lat": 47.369675, "lon": 8.5432921}, {"type": "node", "id": 5209301232, "lat": 47.3696762, "lon": 8.5432625}, {"type": "node", "id": 5209301233, "lat": 47.3696765, "lon": 8.5430933}, {"type": "node", "id": 5209301321, "lat": 47.3695567, "lon": 8.5433478}, {"type": "node", "id": 5209301322, "lat": 47.369558, "lon": 8.5433172}, {"type": "node", "id": 5209301323, "lat": 47.3695624, "lon": 8.5431504}, {"type": "node", "id": 5209301324, "lat": 47.3695647, "lon": 8.5431217}, {"type": "node", "id": 5209301325, "lat": 47.3695661, "lon": 8.5433476}, {"type": "node", "id": 5209301326, "lat": 47.3695677, "lon": 8.5433187}, {"type": "node", "id": 5209301327, "lat": 47.3695696, "lon": 8.5431468}, {"type": "node", "id": 5209301328, "lat": 47.3695916, "lon": 8.5431072}, {"type": "node", "id": 5209301329, "lat": 47.3695969, "lon": 8.5433036}, {"type": "node", "id": 5209301330, "lat": 47.3695973, "lon": 8.5431331}, {"type": "node", "id": 5892954691, "lat": 47.3694728, "lon": 8.5437316, "tags": {"entrance": "yes"}}, {"type": "way", "id": 88876976, "nodes": [1031583221, 1031582842, 1031583389, 1031582230, 1031582598, 1031583221], "tags": {"addr:city": "Z\u00fcrich", "addr:country": "CH", "addr:housenumber": "16", "addr:postcode": "8001", "addr:street": "Limmatquai", "building": "retail", "source": "Stadt Z\u00fcrich Open Government Data;Geomatik + Vermessung;Tiefbau- und Entsorgungsdepartement"}}, {"type": "way", "id": 88876988, "nodes": [2862727094, 1970612927, 1031583440, 1031582717, 1031582230, 1031582598, 1031582510, 1031583622, 2862727094], "tags": {"addr:city": "Z\u00fcrich", "addr:country": "CH", "addr:housenumber": "32", "addr:postcode": "8001", "addr:street": "Schiffl\u00e4nde", "building": "yes", "source": "Stadt Z\u00fcrich Open Government Data; Geomatik + Vermessung; Tiefbau- und Entsorgungsdepartement"}}, {"type": "way", "id": 88877001, "nodes": [1031582767, 1031582697, 5892954691, 1031582453, 1031583326, 1031582767], "tags": {"addr:city": "Z\u00fcrich", "addr:country": "CH", "addr:housenumber": "24", "addr:postcode": "8001", "addr:street": "Limmatquai", "building": "apartments", "source": "Stadt Z\u00fcrich Open Government Data; Geomatik + Vermessung; Tiefbau- und Entsorgungsdepartement"}}, {"type": "way", "id": 88877034, "nodes": [1031583119, 1031582767, 1031583326, 1031582158, 1031582660, 1031583245, 1031583638, 1031583119], "tags": {"addr:city": "Z\u00fcrich", "addr:country": "CH", "addr:housenumber": "26", "addr:postcode": "8001", "addr:street": "Limmatquai", "building": "apartments", "source": "Stadt Z\u00fcrich Open Government Data; Geomatik + Vermessung; Tiefbau- und Entsorgungsdepartement"}}, {"type": "way", "id": 88877041, "nodes": [1031583221, 1031583279, 1031582510, 1031582598, 1031583221], "tags": {"addr:city": "Z\u00fcrich", "addr:country": "CH", "addr:housenumber": "18", "addr:postcode": "8001", "addr:street": "Limmatquai", "building": "retail", "source": "Stadt Z\u00fcrich Open Government Data; Geomatik + Vermessung; Tiefbau- und Entsorgungsdepartement"}}, {"type": "way", "id": 88877167, "nodes": [1031582158, 1031582567, 1031583153, 1031583586, 2862727032, 1970612933, 1970612935, 1031582453, 1031583326, 1031582158], "tags": {"addr:city": "Z\u00fcrich", "addr:country": "CH", "addr:postcode": "8001", "building": "yes", "source": "Stadt Z\u00fcrich Open Government Data; Geomatik + Vermessung; Tiefbau- und Entsorgungsdepartement"}}, {"type": "way", "id": 88877178, "nodes": [1031583403, 633678237, 1031583300, 633678238, 1031583726, 1031582243, 1031583403], "tags": {"addr:city": "Z\u00fcrich", "addr:country": "CH", "addr:postcode": "8001", "building": "yes", "source": "Stadt Z\u00fcrich Open Government Data; Geomatik + Vermessung; Tiefbau- und Entsorgungsdepartement"}}, {"type": "way", "id": 112795856, "nodes": [5209301222, 5209301221, 5209300320, 1031583553, 5209300318, 5209300315, 5209300314, 5209300317, 1031583137, 5209300316, 5209300319, 1031582173, 5209301322, 5209301321, 5209301325, 5209301326, 5209301329, 5209301185, 5209301188, 5209301186, 5209301191, 5209301193, 5209301226, 5209301225, 5209301229, 5209301231, 5209300663, 5209301232, 5209300665, 5209300668, 5209300671, 5209300670, 5209301194, 5209301196, 5209301202, 5209301198, 1031582672, 5209301197, 5209300669, 5209300667, 5209300664, 5209300666, 5209301233, 5209301230, 5209301227, 5209301228, 5209301224, 5209301192, 5209301189, 5209301190, 5209301187, 5209301184, 5209301328, 5209301330, 5209301327, 5209301324, 5209301223, 5209301323, 5209301222], "tags": {"addr:city": "Z\u00fcrich", "addr:housenumber": "31", "addr:postcode": "8001", "addr:street": "Limmatquai", "amenity": "place_of_worship", "building": "church", "denomination": "protestant", "name": "Wasserkirche", "religion": "christian", "wheelchair": "no", "wikidata": "Q477189", "wikipedia": "de:Wasserkirche"}}, {"type": "way", "id": 282345885, "nodes": [2862728769, 2862727034, 2862728749, 2862727031, 2862728754, 2862728755, 2862728768, 2862728770, 2862728769], "tags": {"addr:city": "Z\u00fcrich", "addr:country": "CH", "addr:postcode": "8001", "building": "apartments", "source": "Stadt Z\u00fcrich Open Government Data; Geomatik + Vermessung; Tiefbau- und Entsorgungsdepartement"}}, {"type": "way", "id": 282345886, "nodes": [2862728755, 2862728753, 2862727033, 2862728745, 2862728761, 2862727039, 2862728771, 2862728768, 2862728755], "tags": {"addr:city": "Z\u00fcrich", "addr:country": "CH", "addr:postcode": "8001", "building": "yes", "source": "Stadt Z\u00fcrich Open Government Data; Geomatik + Vermessung; Tiefbau- und Entsorgungsdepartement"}}]}