{"version": 0.6, "generator": "Overpass API 0.7.60.6 e2dc3e5b", "osm3s": {"timestamp_osm_base": "2023-06-29T12:47:33Z", "copyright": "The data included in this document is from www.openstreetmap.org. The data is made available under ODbL."}, "elements": [{"type": "node", "id": 357504457, "lat": 47.3682556, "lon": 8.541992}, {"type": "node", "id": 357504467, "lat": 47.3686703, "lon": 8.5420197}, {"type": "node", "id": 360334511, "lat": 47.3684617, "lon": 8.5419976}, {"type": "node", "id": 1897972495, "lat": 47.3685898, "lon": 8.5420791}, {"type": "node", "id": 1897972503, "lat": 47.3685853, "lon": 8.5422101}, {"type": "node", "id": 1897972505, "lat": 47.3685838, "lon": 8.5423006}, {"type": "node", "id": 1897972507, "lat": 47.3683087, "lon": 8.542058}, {"type": "node", "id": 2959895453, "lat": 47.3682455, "lon": 8.5422741}, {"type": "node", "id": 2959895454, "lat": 47.3683041, "lon": 8.5421894}, {"type": "node", "id": 2959895455, "lat": 47.3686612, "lon": 8.5423065}, {"type": "node", "id": 2959895456, "lat": 47.3683011, "lon": 8.5422768}, {"type": "way", "id": 292433711, "nodes": [1897972505, 2959895455, 357504467, 360334511, 357504457, 2959895453, 2959895456, 2959895454, 1897972507, 1897972495, 1897972503, 1897972505], "tags": {"addr:city": "Z\u00fcrich", "addr:country": "CH", "addr:housenumber": "12", "addr:postcode": "8001", "addr:street": "Stadthausquai", "amenity": "public_bath", "bath:type": "river", "building": "yes", "description": "Flussbad nur f\u00fcr Frauen", "fee": "yes", "female": "yes", "male": "no", "name": "Frauenbad Stadthausquai", "phone": "+41 44 211 95 92", "source": "Stadt Z\u00fcrich Open Government Data;Geomatik + Vermessung;Tiefbau- und Entsorgungsdepartement", "sport": "swimming", "website": "https://www.stadt-zuerich.ch/ssd/de/index/sport/schwimmen/sommerbaeder/frauenbad_stadthausquai.html", "wikidata": "Q972427", "wikipedia": "de:Frauenbad am Stadthausquai"}}]}