{"version": 0.6, "generator": "Overpass API 0.7.60.6 e2dc3e5b", "osm3s": {"timestamp_osm_base": "2023-06-29T15:18:01Z", "copyright": "The data included in this document is from www.openstreetmap.org. The data is made available under ODbL."}, "elements": [{"type": "node", "id": 1037301180, "lat": 47.3727631, "lon": 8.539662}, {"type": "node", "id": 1037301187, "lat": 47.3728691, "lon": 8.5394168}, {"type": "node", "id": 1037301209, "lat": 47.372794, "lon": 8.5393943}, {"type": "node", "id": 1037301217, "lat": 47.3726906, "lon": 8.539713}, {"type": "node", "id": 1037301280, "lat": 47.3725463, "lon": 8.5394961}, {"type": "node", "id": 1037301307, "lat": 47.3725377, "lon": 8.5398384}, {"type": "node", "id": 1037301316, "lat": 47.3727229, "lon": 8.5395179}, {"type": "node", "id": 1037301365, "lat": 47.3726086, "lon": 8.5394643}, {"type": "node", "id": 1037301391, "lat": 47.3725002, "lon": 8.5396273}, {"type": "node", "id": 1037301395, "lat": 47.3726237, "lon": 8.5397728}, {"type": "node", "id": 1037301447, "lat": 47.3724809, "lon": 8.5395225}, {"type": "node", "id": 1037301481, "lat": 47.3729861, "lon": 8.5394997}, {"type": "node", "id": 1037301520, "lat": 47.3728665, "lon": 8.5395909}, {"type": "node", "id": 1037301629, "lat": 47.3729166, "lon": 8.5395566}, {"type": "node", "id": 1037301657, "lat": 47.3729355, "lon": 8.539363}, {"type": "node", "id": 1037301678, "lat": 47.3728006, "lon": 8.5394138}, {"type": "node", "id": 1037301747, "lat": 47.3727156, "lon": 8.5393268}, {"type": "node", "id": 1516539920, "lat": 47.372943, "lon": 8.5393841, "tags": {"addr:city": "Z\u00fcrich", "addr:country": "CH", "addr:housenumber": "1", "addr:postcode": "8001", "addr:street": "Kuttelgasse"}}, {"type": "node", "id": 1516540048, "lat": 47.3731307, "lon": 8.5397869, "tags": {"addr:city": "Z\u00fcrich", "addr:country": "CH", "addr:housenumber": "15", "addr:postcode": "8001", "addr:street": "Fortunagasse"}}, {"type": "node", "id": 1516540192, "lat": 47.3730209, "lon": 8.5396607, "tags": {"addr:city": "Z\u00fcrich", "addr:country": "CH", "addr:housenumber": "26", "addr:postcode": "8001", "addr:street": "Rennweg"}}, {"type": "node", "id": 1516540541, "lat": 47.3722241, "lon": 8.5399124, "tags": {"addr:city": "Z\u00fcrich", "addr:country": "CH", "addr:housenumber": "6", "addr:postcode": "8001", "addr:street": "Widdergasse"}}, {"type": "node", "id": 2917336551, "lat": 47.3724805, "lon": 8.5401028}, {"type": "node", "id": 2917336560, "lat": 47.3725364, "lon": 8.5400459}, {"type": "node", "id": 2917336561, "lat": 47.3725438, "lon": 8.5402585}, {"type": "node", "id": 2917336562, "lat": 47.3725452, "lon": 8.5402703}, {"type": "node", "id": 2917336566, "lat": 47.372572, "lon": 8.5401453}, {"type": "node", "id": 2917336569, "lat": 47.3725947, "lon": 8.539991}, {"type": "node", "id": 2917336570, "lat": 47.372602, "lon": 8.5402185}, {"type": "node", "id": 2917336578, "lat": 47.3726545, "lon": 8.5401867}, {"type": "node", "id": 2917336579, "lat": 47.3726548, "lon": 8.5401812}, {"type": "node", "id": 2917336580, "lat": 47.3726619, "lon": 8.5402046}, {"type": "node", "id": 2917336581, "lat": 47.3726639, "lon": 8.5399447}, {"type": "node", "id": 2917336582, "lat": 47.3726662, "lon": 8.5402153}, {"type": "node", "id": 2917336583, "lat": 47.372671, "lon": 8.5402122}, {"type": "node", "id": 2917336585, "lat": 47.3727267, "lon": 8.5401421}, {"type": "node", "id": 2917336586, "lat": 47.3727355, "lon": 8.5401699}, {"type": "node", "id": 2917336588, "lat": 47.3727479, "lon": 8.5398822}, {"type": "node", "id": 2917336589, "lat": 47.3727959, "lon": 8.540039}, {"type": "node", "id": 2917336590, "lat": 47.3728066, "lon": 8.5400836}, {"type": "node", "id": 2917336591, "lat": 47.3728084, "lon": 8.540091}, {"type": "node", "id": 2917336592, "lat": 47.3728237, "lon": 8.5398212}, {"type": "node", "id": 2917336593, "lat": 47.3728467, "lon": 8.5400133}, {"type": "node", "id": 2917336594, "lat": 47.3728566, "lon": 8.5397941}, {"type": "node", "id": 2917336595, "lat": 47.3728588, "lon": 8.5400588}, {"type": "node", "id": 2917336598, "lat": 47.3728781, "lon": 8.5399902}, {"type": "node", "id": 2917336599, "lat": 47.3728945, "lon": 8.5397654}, {"type": "node", "id": 2917336600, "lat": 47.3729054, "lon": 8.5400129}, {"type": "node", "id": 2917336801, "lat": 47.3729076, "lon": 8.5399523}, {"type": "node", "id": 2917336802, "lat": 47.3729105, "lon": 8.5399517}, {"type": "node", "id": 2917336803, "lat": 47.3729129, "lon": 8.5399734}, {"type": "node", "id": 2917336804, "lat": 47.3729143, "lon": 8.5399645}, {"type": "node", "id": 2917336805, "lat": 47.3729202, "lon": 8.5400676}, {"type": "node", "id": 2917336806, "lat": 47.3729226, "lon": 8.5400014}, {"type": "node", "id": 2917336807, "lat": 47.3729306, "lon": 8.5400243}, {"type": "node", "id": 2917336808, "lat": 47.3729337, "lon": 8.5400221}, {"type": "node", "id": 2917336809, "lat": 47.3729381, "lon": 8.5397284}, {"type": "node", "id": 2917336810, "lat": 47.3729398, "lon": 8.5398989}, {"type": "node", "id": 2917336811, "lat": 47.3729418, "lon": 8.5400563}, {"type": "node", "id": 2917336812, "lat": 47.3729515, "lon": 8.5398896}, {"type": "node", "id": 2917336814, "lat": 47.3729632, "lon": 8.5399203}, {"type": "node", "id": 2917336815, "lat": 47.3729672, "lon": 8.5399985}, {"type": "node", "id": 2917336816, "lat": 47.3729695, "lon": 8.5397021}, {"type": "node", "id": 2917336817, "lat": 47.3729697, "lon": 8.5399789}, {"type": "node", "id": 2917336818, "lat": 47.3729733, "lon": 8.5399938}, {"type": "node", "id": 2917336820, "lat": 47.3729805, "lon": 8.5400491}, {"type": "node", "id": 2917336821, "lat": 47.3729866, "lon": 8.5400467}, {"type": "node", "id": 2917336822, "lat": 47.372989, "lon": 8.5399634}, {"type": "node", "id": 2917336823, "lat": 47.3729965, "lon": 8.5398964}, {"type": "node", "id": 2917336824, "lat": 47.3729999, "lon": 8.5399064}, {"type": "node", "id": 2917336825, "lat": 47.3730003, "lon": 8.5400962}, {"type": "node", "id": 2917336827, "lat": 47.3730221, "lon": 8.5401747}, {"type": "node", "id": 2917336828, "lat": 47.3730235, "lon": 8.5401786}, {"type": "node", "id": 2917336829, "lat": 47.3730276, "lon": 8.5398881}, {"type": "node", "id": 2917336830, "lat": 47.3730419, "lon": 8.5399336}, {"type": "node", "id": 2917336831, "lat": 47.373068, "lon": 8.5399779}, {"type": "node", "id": 2917336832, "lat": 47.3730704, "lon": 8.5399176}, {"type": "node", "id": 2917336833, "lat": 47.3730732, "lon": 8.5396196}, {"type": "node", "id": 2917336834, "lat": 47.3730884, "lon": 8.5399606}, {"type": "node", "id": 2917336835, "lat": 47.3731075, "lon": 8.5398909}, {"type": "node", "id": 2917336836, "lat": 47.3731168, "lon": 8.5400926}, {"type": "node", "id": 2917336838, "lat": 47.3731323, "lon": 8.5401408}, {"type": "node", "id": 2917336839, "lat": 47.373143, "lon": 8.5400616}, {"type": "node", "id": 2917336840, "lat": 47.3731458, "lon": 8.5400676}, {"type": "node", "id": 2917336843, "lat": 47.3731553, "lon": 8.5398564}, {"type": "node", "id": 2917336845, "lat": 47.3731576, "lon": 8.5401229}, {"type": "node", "id": 2917336847, "lat": 47.3731861, "lon": 8.5399814}, {"type": "node", "id": 2917336849, "lat": 47.3731986, "lon": 8.5400122}, {"type": "node", "id": 2917336853, "lat": 47.3732212, "lon": 8.53995}, {"type": "node", "id": 2917336855, "lat": 47.3732694, "lon": 8.5400866}, {"type": "node", "id": 2920747282, "lat": 47.3723541, "lon": 8.540002, "tags": {"addr:city": "Z\u00fcrich", "addr:country": "CH", "addr:housenumber": "1", "addr:postcode": "8001", "addr:street": "Rennweg"}}, {"type": "node", "id": 2920747283, "lat": 47.3729513, "lon": 8.5395282, "tags": {"addr:city": "Z\u00fcrich", "addr:country": "CH", "addr:housenumber": "25", "addr:postcode": "8001", "addr:street": "Rennweg"}}, {"type": "node", "id": 2920747285, "lat": 47.3724323, "lon": 8.5399361, "tags": {"addr:city": "Z\u00fcrich", "addr:country": "CH", "addr:housenumber": "3", "addr:postcode": "8001", "addr:street": "Rennweg"}}, {"type": "node", "id": 2920747286, "lat": 47.3725072, "lon": 8.5398737, "tags": {"addr:city": "Z\u00fcrich", "addr:country": "CH", "addr:housenumber": "7", "addr:postcode": "8001", "addr:street": "Rennweg"}}, {"type": "node", "id": 2920747291, "lat": 47.3721714, "lon": 8.5397572}, {"type": "node", "id": 2920747292, "lat": 47.3721858, "lon": 8.5394403}, {"type": "node", "id": 2920747297, "lat": 47.3722308, "lon": 8.5392909}, {"type": "node", "id": 2920747506, "lat": 47.3722725, "lon": 8.5396936}, {"type": "node", "id": 2920747508, "lat": 47.3722763, "lon": 8.5400684}, {"type": "node", "id": 2920747509, "lat": 47.3722779, "lon": 8.5394707}, {"type": "node", "id": 2920747510, "lat": 47.3722892, "lon": 8.5395577}, {"type": "node", "id": 2920747511, "lat": 47.3722973, "lon": 8.5396191}, {"type": "node", "id": 2920747512, "lat": 47.3722995, "lon": 8.5396364}, {"type": "node", "id": 2920747514, "lat": 47.3723041, "lon": 8.5396402}, {"type": "node", "id": 2920747516, "lat": 47.3723092, "lon": 8.5396744}, {"type": "node", "id": 2920747518, "lat": 47.3723235, "lon": 8.5393517}, {"type": "node", "id": 2920747519, "lat": 47.3723303, "lon": 8.5394885}, {"type": "node", "id": 2920747520, "lat": 47.3723368, "lon": 8.5395193}, {"type": "node", "id": 2920747521, "lat": 47.3723494, "lon": 8.5393916}, {"type": "node", "id": 2920747522, "lat": 47.3723624, "lon": 8.5393533}, {"type": "node", "id": 2920747523, "lat": 47.3723642, "lon": 8.5396146}, {"type": "node", "id": 2920747524, "lat": 47.3723653, "lon": 8.5394326}, {"type": "node", "id": 2920747525, "lat": 47.3723736, "lon": 8.5395044}, {"type": "node", "id": 2920747527, "lat": 47.3723804, "lon": 8.5396885}, {"type": "node", "id": 2920747529, "lat": 47.3723901, "lon": 8.5394422}, {"type": "node", "id": 2920747530, "lat": 47.3723912, "lon": 8.5396023}, {"type": "node", "id": 2920747539, "lat": 47.37241, "lon": 8.5393608}, {"type": "node", "id": 2920747541, "lat": 47.3724121, "lon": 8.539415}, {"type": "node", "id": 2920747542, "lat": 47.3724157, "lon": 8.5394422}, {"type": "node", "id": 2920747548, "lat": 47.3724273, "lon": 8.5396593}, {"type": "node", "id": 2920747550, "lat": 47.372433, "lon": 8.5396773}, {"type": "node", "id": 2920747560, "lat": 47.3724867, "lon": 8.53963}, {"type": "node", "id": 2920747561, "lat": 47.3724892, "lon": 8.5396507}, {"type": "node", "id": 2920747577, "lat": 47.3725393, "lon": 8.5398466}, {"type": "node", "id": 2920747579, "lat": 47.3725514, "lon": 8.539298}, {"type": "node", "id": 2920747581, "lat": 47.3725591, "lon": 8.5395599}, {"type": "node", "id": 2920747583, "lat": 47.3725739, "lon": 8.5392385}, {"type": "node", "id": 2920747596, "lat": 47.3726125, "lon": 8.5391904}, {"type": "node", "id": 2920747603, "lat": 47.3726772, "lon": 8.5393527}, {"type": "node", "id": 2920747605, "lat": 47.3726936, "lon": 8.5397231}, {"type": "node", "id": 2920747608, "lat": 47.372723, "lon": 8.5393488}, {"type": "node", "id": 2920747609, "lat": 47.3727583, "lon": 8.5393281}, {"type": "node", "id": 2920747610, "lat": 47.3727889, "lon": 8.5394223}, {"type": "node", "id": 2920747612, "lat": 47.3728339, "lon": 8.5393668}, {"type": "node", "id": 2920747614, "lat": 47.3728369, "lon": 8.5393748}, {"type": "node", "id": 2920747615, "lat": 47.3728414, "lon": 8.539371}, {"type": "node", "id": 2920747616, "lat": 47.3728458, "lon": 8.5393814}, {"type": "node", "id": 2920747617, "lat": 47.3728542, "lon": 8.5393748}, {"type": "node", "id": 6845207028, "lat": 47.3721972, "lon": 8.5394025}, {"type": "way", "id": 89434849, "nodes": [1037301316, 1037301180, 1037301217, 1037301365, 2920747579, 2920747583, 2920747596, 1037301316], "tags": {"addr:city": "Z\u00fcrich", "addr:country": "CH", "addr:housenumber": "15", "addr:postcode": "8001", "addr:street": "Rennweg", "building": "yes", "name": "Zum Trottbaum", "source": "Stadt Z\u00fcrich Open Government Data; Geomatik + Vermessung; Tiefbau- und Entsorgungsdepartement"}}, {"type": "way", "id": 89434870, "nodes": [1037301217, 2920747605, 1037301395, 2920747581, 1037301280, 1037301365, 1037301217], "tags": {"addr:city": "Z\u00fcrich", "addr:country": "CH", "addr:housenumber": "11", "addr:postcode": "8001", "addr:street": "Rennweg", "building": "yes", "source": "Stadt Z\u00fcrich Open Government Data; Geomatik + Vermessung; Tiefbau- und Entsorgungsdepartement"}}, {"type": "way", "id": 89434873, "nodes": [1037301391, 1037301447, 1037301280, 2920747581, 1037301395, 1037301307, 1037301391], "tags": {"addr:city": "Z\u00fcrich", "addr:country": "CH", "addr:housenumber": "9", "addr:postcode": "8001", "addr:street": "Rennweg", "building": "yes", "source": "Stadt Z\u00fcrich Open Government Data; Geomatik + Vermessung; Tiefbau- und Entsorgungsdepartement"}}, {"type": "way", "id": 89434876, "nodes": [1037301657, 1516539920, 1037301481, 2920747283, 1037301629, 1037301187, 1037301657], "tags": {"addr:city": "Z\u00fcrich", "addr:country": "CH", "addr:postcode": "8001", "building": "yes", "building:levels": "6", "name": "Haus zum B\u00fcffel", "source": "Stadt Z\u00fcrich Open Government Data; Geomatik + Vermessung; Tiefbau- und Entsorgungsdepartement"}}, {"type": "way", "id": 89434898, "nodes": [1037301520, 1037301180, 1037301316, 2920747603, 1037301747, 2920747608, 2920747609, 2920747610, 1037301678, 1037301520], "tags": {"addr:city": "Z\u00fcrich", "addr:country": "CH", "addr:housenumber": "19", "addr:postcode": "8001", "addr:street": "Rennweg", "building": "yes", "source": "Stadt Z\u00fcrich Open Government Data; Geomatik + Vermessung; Tiefbau- und Entsorgungsdepartement"}}, {"type": "way", "id": 89434911, "nodes": [1037301629, 1037301520, 1037301678, 1037301209, 2920747612, 2920747614, 2920747615, 2920747616, 2920747617, 1037301187, 1037301629], "tags": {"addr:city": "Z\u00fcrich", "addr:country": "CH", "addr:housenumber": "23", "addr:postcode": "8001", "addr:street": "Rennweg", "building": "yes", "source": "Stadt Z\u00fcrich Open Government Data; Geomatik + Vermessung; Tiefbau- und Entsorgungsdepartement"}}, {"type": "way", "id": 288184605, "nodes": [2917336843, 1516540048, 2917336833, 1516540192, 2917336816, 2917336829, 2917336830, 2917336831, 2917336834, 2917336832, 2917336835, 2917336843], "tags": {"addr:city": "Z\u00fcrich", "addr:country": "CH", "addr:postcode": "8001", "building": "apartments", "source": "Stadt Z\u00fcrich Open Government Data; Geomatik + Vermessung; Tiefbau- und Entsorgungsdepartement"}}, {"type": "way", "id": 288184608, "nodes": [2917336806, 2917336600, 2917336805, 2917336811, 2917336808, 2917336807, 2917336806], "tags": {"addr:housenumber": "18a", "addr:street": "Rennweg", "building": "yes", "source": "Stadt Z\u00fcrich Open Government Data; Geomatik + Vermessung; Tiefbau- und Entsorgungsdepartement"}}, {"type": "way", "id": 288184611, "nodes": [2917336581, 2917336569, 2917336579, 2917336578, 2917336580, 2917336582, 2917336583, 2917336586, 2917336585, 2917336581], "tags": {"addr:city": "Z\u00fcrich", "addr:country": "CH", "addr:housenumber": "10", "addr:postcode": "8001", "addr:street": "Rennweg", "building": "retail", "source": "Stadt Z\u00fcrich Open Government Data; Geomatik + Vermessung; Tiefbau- und Entsorgungsdepartement"}}, {"type": "way", "id": 288184613, "nodes": [2917336588, 2917336581, 2917336585, 2917336590, 2917336589, 2917336588], "tags": {"addr:city": "Z\u00fcrich", "addr:country": "CH", "addr:housenumber": "12", "addr:postcode": "8001", "addr:street": "Rennweg", "building": "retail", "source": "Stadt Z\u00fcrich Open Government Data; Geomatik + Vermessung; Tiefbau- und Entsorgungsdepartement"}}, {"type": "way", "id": 288184614, "nodes": [2917336847, 2917336849, 2917336839, 2917336840, 2917336836, 2917336831, 2917336830, 2917336822, 2917336817, 2917336818, 2917336815, 2917336820, 2917336821, 2917336825, 2917336827, 2917336828, 2917336838, 2917336845, 2917336855, 2917336853, 2917336847], "tags": {"addr:city": "Z\u00fcrich", "addr:country": "CH", "addr:housenumber": "13", "addr:postcode": "8001", "addr:street": "Fortunagasse", "building": "yes", "source": "Stadt Z\u00fcrich Open Government Data; Geomatik + Vermessung; Tiefbau- und Entsorgungsdepartement"}}, {"type": "way", "id": 288184615, "nodes": [2917336592, 2917336588, 2917336589, 2917336590, 2917336591, 2917336595, 2917336593, 2917336598, 2917336592], "tags": {"addr:city": "Z\u00fcrich", "addr:country": "CH", "addr:housenumber": "14,16", "addr:postcode": "8001", "addr:street": "Rennweg", "building": "retail", "source": "Stadt Z\u00fcrich Open Government Data; Geomatik + Vermessung; Tiefbau- und Entsorgungsdepartement"}}, {"type": "way", "id": 288184616, "nodes": [2917336594, 2917336592, 2917336598, 2917336804, 2917336802, 2917336801, 2917336594], "tags": {"addr:city": "Z\u00fcrich", "addr:country": "CH", "addr:housenumber": "18", "addr:postcode": "8001", "addr:street": "Rennweg", "building": "retail", "source": "Stadt Z\u00fcrich Open Government Data; Geomatik + Vermessung; Tiefbau- und Entsorgungsdepartement"}}, {"type": "way", "id": 288184618, "nodes": [2917336599, 2917336594, 2917336801, 2917336802, 2917336804, 2917336803, 2917336806, 2917336807, 2917336808, 2917336815, 2917336818, 2917336817, 2917336810, 2917336599], "tags": {"addr:city": "Z\u00fcrich", "addr:country": "CH", "addr:housenumber": "20", "addr:postcode": "8001", "addr:street": "Rennweg", "building": "retail", "source": "Stadt Z\u00fcrich Open Government Data; Geomatik + Vermessung; Tiefbau- und Entsorgungsdepartement"}}, {"type": "way", "id": 288184619, "nodes": [2917336809, 2917336599, 2917336810, 2917336812, 2917336814, 2917336823, 2917336809], "tags": {"addr:city": "Z\u00fcrich", "addr:country": "CH", "addr:housenumber": "22", "addr:postcode": "8001", "addr:street": "Rennweg", "building": "retail", "source": "Stadt Z\u00fcrich Open Government Data; Geomatik + Vermessung; Tiefbau- und Entsorgungsdepartement"}}, {"type": "way", "id": 288184620, "nodes": [2917336816, 2917336809, 2917336823, 2917336824, 2917336829, 2917336816], "tags": {"addr:city": "Z\u00fcrich", "addr:country": "CH", "addr:housenumber": "24", "addr:postcode": "8001", "addr:street": "Rennweg", "building": "retail", "source": "Stadt Z\u00fcrich Open Government Data; Geomatik + Vermessung; Tiefbau- und Entsorgungsdepartement"}}, {"type": "way", "id": 288184625, "nodes": [2917336560, 2917336551, 2917336561, 2917336562, 2917336570, 2917336566, 2917336560], "tags": {"addr:city": "Z\u00fcrich", "addr:country": "CH", "addr:housenumber": "6", "addr:postcode": "8001", "addr:street": "Rennweg", "building": "retail", "source": "Stadt Z\u00fcrich Open Government Data; Geomatik + Vermessung; Tiefbau- und Entsorgungsdepartement"}}, {"type": "way", "id": 288184626, "nodes": [2917336569, 2917336560, 2917336566, 2917336570, 2917336579, 2917336569], "tags": {"addr:city": "Z\u00fcrich", "addr:country": "CH", "addr:housenumber": "8", "addr:postcode": "8001", "addr:street": "Rennweg", "building": "retail", "source": "Stadt Z\u00fcrich Open Government Data; Geomatik + Vermessung; Tiefbau- und Entsorgungsdepartement"}}, {"type": "way", "id": 288517108, "nodes": [1037301391, 2920747560, 2920747561, 2920747550, 2920747548, 2920747527, 2920747523, 2920747530, 2920747525, 2920747520, 2920747519, 2920747524, 2920747529, 2920747542, 2920747541, 2920747539, 2920747522, 2920747521, 2920747518, 2920747297, 6845207028, 2920747292, 2920747509, 2920747510, 2920747511, 2920747512, 2920747514, 2920747516, 2920747506, 2920747291, 1516540541, 2920747508, 2920747282, 2920747285, 2920747286, 2920747577, 1037301307, 1037301391], "tags": {"addr:city": "Z\u00fcrich", "addr:country": "CH", "addr:postcode": "8001", "building": "yes", "building:levels": "6", "name": "Grosser Widder", "source": "Stadt Z\u00fcrich Open Government Data;Geomatik + Vermessung;Tiefbau- und Entsorgungsdepartement"}}]}