{"version": 0.6, "generator": "Overpass API 0.7.60.6 e2dc3e5b", "osm3s": {"timestamp_osm_base": "2023-06-29T15:23:04Z", "copyright": "The data included in this document is from www.openstreetmap.org. The data is made available under ODbL."}, "elements": [{"type": "node", "id": 358159888, "lat": 47.3732592, "lon": 8.532572}, {"type": "node", "id": 358159891, "lat": 47.3731743, "lon": 8.532904}, {"type": "node", "id": 358159892, "lat": 47.3738088, "lon": 8.5332335}, {"type": "node", "id": 358159895, "lat": 47.3739182, "lon": 8.5329929}, {"type": "node", "id": 358160014, "lat": 47.3740425, "lon": 8.5331103}, {"type": "node", "id": 358160017, "lat": 47.373875, "lon": 8.5332578}, {"type": "node", "id": 358160019, "lat": 47.3742164, "lon": 8.5335913}, {"type": "node", "id": 358160021, "lat": 47.3743134, "lon": 8.5333749}, {"type": "node", "id": 3349674612, "lat": 47.3734675, "lon": 8.5330575, "tags": {"addr:city": "Z\u00fcrich", "addr:country": "CH", "addr:housenumber": "3", "addr:postcode": "8001", "addr:street": "Gessnerallee"}}, {"type": "node", "id": 3349674618, "lat": 47.3737155, "lon": 8.5331848, "tags": {"addr:city": "Z\u00fcrich", "addr:country": "CH", "addr:housenumber": "5", "addr:postcode": "8001", "addr:street": "Gessnerallee"}}, {"type": "node", "id": 3349674619, "lat": 47.3732312, "lon": 8.5326824, "tags": {"addr:city": "Z\u00fcrich", "addr:country": "CH", "addr:housenumber": "50", "addr:postcode": "8001", "addr:street": "Sihlstrasse"}}, {"type": "node", "id": 3349675712, "lat": 47.3733499, "lon": 8.5326298}, {"type": "node", "id": 3349675713, "lat": 47.3733627, "lon": 8.5325845}, {"type": "node", "id": 3349675716, "lat": 47.3739489, "lon": 8.5330928}, {"type": "node", "id": 3349675721, "lat": 47.3740195, "lon": 8.5331618}, {"type": "node", "id": 3750297514, "lat": 47.3729765, "lon": 8.5321818}, {"type": "node", "id": 3750297515, "lat": 47.3729804, "lon": 8.5321992}, {"type": "node", "id": 3750297516, "lat": 47.3729889, "lon": 8.5322096}, {"type": "node", "id": 3750297517, "lat": 47.37299, "lon": 8.5321346}, {"type": "node", "id": 3750297518, "lat": 47.3730012, "lon": 8.5321281}, {"type": "node", "id": 3750297519, "lat": 47.3730104, "lon": 8.5321285}, {"type": "node", "id": 3750297521, "lat": 47.3730219, "lon": 8.5321355}, {"type": "node", "id": 3750301225, "lat": 47.3730623, "lon": 8.5321622}, {"type": "node", "id": 3750301226, "lat": 47.3730785, "lon": 8.5322841}, {"type": "node", "id": 3750301227, "lat": 47.3730791, "lon": 8.5322677}, {"type": "node", "id": 3750301228, "lat": 47.3730844, "lon": 8.5322984}, {"type": "node", "id": 3750301229, "lat": 47.373101, "lon": 8.5321864}, {"type": "node", "id": 3750301230, "lat": 47.3731065, "lon": 8.5321757}, {"type": "node", "id": 3750301231, "lat": 47.3731133, "lon": 8.5321712}, {"type": "node", "id": 3750301232, "lat": 47.3731236, "lon": 8.5321728}, {"type": "node", "id": 3750301233, "lat": 47.3731234, "lon": 8.5323237}, {"type": "node", "id": 3750301234, "lat": 47.3731575, "lon": 8.5321945}, {"type": "node", "id": 5777113931, "lat": 47.3732059, "lon": 8.5329205, "tags": {"addr:city": "Z\u00fcrich", "addr:country": "CH", "addr:housenumber": "1", "addr:postcode": "8001", "addr:street": "Gessnerallee"}}, {"type": "node", "id": 5777113932, "lat": 47.373756, "lon": 8.5328312}, {"type": "node", "id": 5777113933, "lat": 47.3738381, "lon": 8.532939}, {"type": "node", "id": 5777113934, "lat": 47.3738519, "lon": 8.5328943}, {"type": "node", "id": 5777113935, "lat": 47.3738317, "lon": 8.5330119}, {"type": "node", "id": 5777113936, "lat": 47.3738463, "lon": 8.5331325}, {"type": "node", "id": 5777113937, "lat": 47.3738645, "lon": 8.5330305}, {"type": "node", "id": 5777113938, "lat": 47.3738076, "lon": 8.5331119}, {"type": "node", "id": 5777113939, "lat": 47.3738521, "lon": 8.5331382}, {"type": "node", "id": 5777113940, "lat": 47.3738905, "lon": 8.5330539}, {"type": "way", "id": 31969340, "nodes": [358159888, 3349674619, 358159891, 5777113931, 3349674612, 3349674618, 358159892, 5777113939, 5777113936, 5777113938, 5777113935, 5777113937, 5777113940, 358159895, 5777113933, 5777113934, 5777113932, 3349675713, 3349675712, 358159888], "tags": {"addr:city": "Z\u00fcrich", "addr:country": "CH", "addr:postcode": "8001", "building": "commercial", "building:levels": "6", "source": "Stadt Z\u00fcrich Open Government Data; Geomatik + Vermessung; Tiefbau- und Entsorgungsdepartement"}}, {"type": "way", "id": 31969344, "nodes": [358160014, 3349675721, 3349675716, 358160017, 358160019, 358160021, 358160014], "tags": {"addr:city": "Z\u00fcrich", "addr:country": "CH", "addr:housenumber": "9", "addr:postcode": "8001", "addr:street": "Gessnerallee", "building": "yes", "source": "Stadt Z\u00fcrich Open Government Data; Geomatik + Vermessung; Tiefbau- und Entsorgungsdepartement"}}, {"type": "way", "id": 371466684, "nodes": [3750301234, 3750301232, 3750301231, 3750301230, 3750301229, 3750301225, 3750297521, 3750297519, 3750297518, 3750297517, 3750297514, 3750297515, 3750297516, 3750301227, 3750301226, 3750301228, 3750301233, 3750301234], "tags": {"building": "parking", "layer": "1"}}, {"type": "way", "id": 609970357, "nodes": [5777113939, 5777113940, 5777113937, 5777113935, 5777113938, 5777113936, 5777113939], "tags": {"building": "roof", "layer": "1"}}]}