{"version": 0.6, "generator": "Overpass API 0.7.60.6 e2dc3e5b", "osm3s": {"timestamp_osm_base": "2023-06-29T15:22:02Z", "copyright": "The data included in this document is from www.openstreetmap.org. The data is made available under ODbL."}, "elements": [{"type": "node", "id": 358130559, "lat": 47.3687971, "lon": 8.5397827}, {"type": "node", "id": 358130638, "lat": 47.3686905, "lon": 8.540031}, {"type": "node", "id": 358131189, "lat": 47.3690958, "lon": 8.5399276}, {"type": "node", "id": 361475167, "lat": 47.368474, "lon": 8.5383888}, {"type": "node", "id": 361475650, "lat": 47.3678411, "lon": 8.5392457}, {"type": "node", "id": 361475652, "lat": 47.3679345, "lon": 8.5397788}, {"type": "node", "id": 361475654, "lat": 47.3687821, "lon": 8.5394629}, {"type": "node", "id": 361475655, "lat": 47.3687434, "lon": 8.5392444}, {"type": "node", "id": 361475656, "lat": 47.3684688, "lon": 8.5393464}, {"type": "node", "id": 361475658, "lat": 47.3685226, "lon": 8.5388257}, {"type": "node", "id": 361475662, "lat": 47.3684618, "lon": 8.5386895}, {"type": "node", "id": 1041912077, "lat": 47.3692466, "lon": 8.5398718}, {"type": "node", "id": 1041912177, "lat": 47.3692047, "lon": 8.5396315}, {"type": "node", "id": 1042029158, "lat": 47.3676965, "lon": 8.538508}, {"type": "node", "id": 1042029160, "lat": 47.3690141, "lon": 8.5388668}, {"type": "node", "id": 1042029161, "lat": 47.3687763, "lon": 8.5388789}, {"type": "node", "id": 1042029172, "lat": 47.3687239, "lon": 8.5387683}, {"type": "node", "id": 1042029174, "lat": 47.3678116, "lon": 8.5389822}, {"type": "node", "id": 1042029177, "lat": 47.3688249, "lon": 8.5385512}, {"type": "node", "id": 1042029180, "lat": 47.3690798, "lon": 8.5388996}, {"type": "node", "id": 1042029182, "lat": 47.3690005, "lon": 8.5388772}, {"type": "node", "id": 1042029185, "lat": 47.3680156, "lon": 8.538591}, {"type": "node", "id": 1042029188, "lat": 47.3678355, "lon": 8.5385916}, {"type": "node", "id": 1042029190, "lat": 47.3685344, "lon": 8.5389382}, {"type": "node", "id": 1042029191, "lat": 47.3682435, "lon": 8.5383855}, {"type": "node", "id": 1042029202, "lat": 47.3690629, "lon": 8.5388762}, {"type": "node", "id": 1042029204, "lat": 47.368946, "lon": 8.5385933}, {"type": "node", "id": 1042029205, "lat": 47.3689702, "lon": 8.5389441}, {"type": "node", "id": 1042029210, "lat": 47.3677539, "lon": 8.538842}, {"type": "node", "id": 1042029215, "lat": 47.3683991, "lon": 8.5389353}, {"type": "node", "id": 1042029218, "lat": 47.3688586, "lon": 8.5386682}, {"type": "node", "id": 1042029229, "lat": 47.3689904, "lon": 8.5388882}, {"type": "node", "id": 1042029237, "lat": 47.3678597, "lon": 8.5387309}, {"type": "node", "id": 1042029242, "lat": 47.3688118, "lon": 8.5385208}, {"type": "node", "id": 1042029251, "lat": 47.3690468, "lon": 8.5388636}, {"type": "node", "id": 1042029255, "lat": 47.3679668, "lon": 8.5384729}, {"type": "node", "id": 1042029263, "lat": 47.3684115, "lon": 8.5382358}, {"type": "node", "id": 1042029269, "lat": 47.3689674, "lon": 8.5389771}, {"type": "node", "id": 1042029272, "lat": 47.3691586, "lon": 8.5393254}, {"type": "node", "id": 1042029277, "lat": 47.3679053, "lon": 8.5383206}, {"type": "node", "id": 1042029278, "lat": 47.3694068, "lon": 8.5387332}, {"type": "node", "id": 1042029285, "lat": 47.3681865, "lon": 8.5384388}, {"type": "node", "id": 1042029288, "lat": 47.3689822, "lon": 8.5388976}, {"type": "node", "id": 1042029289, "lat": 47.368753, "lon": 8.5383782}, {"type": "node", "id": 1042029293, "lat": 47.3689093, "lon": 8.5387737}, {"type": "node", "id": 1042029296, "lat": 47.3680774, "lon": 8.5387421}, {"type": "node", "id": 1042029302, "lat": 47.3684504, "lon": 8.538644}, {"type": "node", "id": 1042029306, "lat": 47.3691471, "lon": 8.5385792}, {"type": "node", "id": 1042029308, "lat": 47.3690277, "lon": 8.538865}, {"type": "node", "id": 1042029311, "lat": 47.368717, "lon": 8.5390717}, {"type": "node", "id": 1042029316, "lat": 47.3687125, "lon": 8.5389434}, {"type": "node", "id": 1042029320, "lat": 47.369098, "lon": 8.5389236}, {"type": "node", "id": 1042029321, "lat": 47.3689769, "lon": 8.5389177}, {"type": "node", "id": 1042029324, "lat": 47.3690523, "lon": 8.5384823}, {"type": "node", "id": 1042029328, "lat": 47.3693475, "lon": 8.5386282}, {"type": "node", "id": 1042029329, "lat": 47.3689557, "lon": 8.5387842}, {"type": "node", "id": 1115159459, "lat": 47.3693765, "lon": 8.5386812, "tags": {"addr:city": "Z\u00fcrich", "addr:country": "CH", "addr:housenumber": "4", "addr:place": "Paradeplatz", "addr:postcode": "8001"}}, {"type": "node", "id": 2201204154, "lat": 47.3682125, "lon": 8.5396727, "tags": {"addr:city": "Z\u00fcrich", "addr:country": "CH", "addr:housenumber": "9", "addr:postcode": "8001", "addr:street": "Bahnhofstrasse"}}, {"type": "node", "id": 2936682617, "lat": 47.3689005, "lon": 8.5397473}, {"type": "node", "id": 2936682619, "lat": 47.3689519, "lon": 8.5401113}, {"type": "node", "id": 2936682624, "lat": 47.3690707, "lon": 8.5396813}, {"type": "node", "id": 2936682625, "lat": 47.3691117, "lon": 8.5399219}, {"type": "node", "id": 2936682626, "lat": 47.3691148, "lon": 8.5400663}, {"type": "node", "id": 2936682632, "lat": 47.3692218, "lon": 8.5396252}, {"type": "node", "id": 2936682634, "lat": 47.3692628, "lon": 8.5398658}, {"type": "node", "id": 2938530161, "lat": 47.3686351, "lon": 8.5398445}, {"type": "node", "id": 2938530162, "lat": 47.3686688, "lon": 8.5400392}, {"type": "node", "id": 2938530164, "lat": 47.368713, "lon": 8.54019}, {"type": "node", "id": 2938530174, "lat": 47.3688481, "lon": 8.5401535}, {"type": "node", "id": 3338263047, "lat": 47.368634, "lon": 8.5395167, "tags": {"addr:city": "Z\u00fcrich", "addr:country": "CH", "addr:housenumber": "11", "addr:postcode": "8001", "addr:street": "Bahnhofstrasse"}}, {"type": "node", "id": 3338263049, "lat": 47.3680769, "lon": 8.5390347, "tags": {"addr:city": "Z\u00fcrich", "addr:country": "CH", "addr:housenumber": "12", "addr:postcode": "8001", "addr:street": "Talstrasse"}}, {"type": "node", "id": 3338263051, "lat": 47.3688729, "lon": 8.5394294, "tags": {"addr:city": "Z\u00fcrich", "addr:country": "CH", "addr:housenumber": "13", "addr:postcode": "8001", "addr:street": "Bahnhofstrasse"}}, {"type": "node", "id": 3338263052, "lat": 47.3690848, "lon": 8.5393504, "tags": {"addr:city": "Z\u00fcrich", "addr:country": "CH", "addr:housenumber": "17", "addr:postcode": "8001", "addr:street": "Bahnhofstrasse"}}, {"type": "node", "id": 3338263057, "lat": 47.36773, "lon": 8.5387018, "tags": {"addr:city": "Z\u00fcrich", "addr:country": "CH", "addr:housenumber": "26", "addr:postcode": "8002", "addr:street": "B\u00f6rsenstrasse"}}, {"type": "node", "id": 3338263061, "lat": 47.3679227, "lon": 8.5388837, "tags": {"addr:city": "Z\u00fcrich", "addr:country": "CH", "addr:housenumber": "9", "addr:postcode": "8002", "addr:street": "Talstrasse"}}, {"type": "node", "id": 3338263062, "lat": 47.3691947, "lon": 8.5388529, "tags": {"addr:city": "Z\u00fcrich", "addr:country": "CH", "addr:housenumber": "9", "addr:postcode": "8001", "addr:street": "Tiefenh\u00f6fe"}}, {"type": "node", "id": 3338263063, "lat": 47.3681373, "lon": 8.5383184}, {"type": "node", "id": 3338263064, "lat": 47.3681965, "lon": 8.5382657}, {"type": "node", "id": 3338263067, "lat": 47.3685837, "lon": 8.5390424}, {"type": "node", "id": 3338263068, "lat": 47.3686016, "lon": 8.5388691}, {"type": "node", "id": 3338263069, "lat": 47.3686097, "lon": 8.5388865}, {"type": "node", "id": 3338263070, "lat": 47.368645, "lon": 8.5389606}, {"type": "node", "id": 3338263071, "lat": 47.3686711, "lon": 8.5390135}, {"type": "node", "id": 3338263072, "lat": 47.3686968, "lon": 8.5389075}, {"type": "node", "id": 3338263074, "lat": 47.368764, "lon": 8.5387306}, {"type": "node", "id": 3338263076, "lat": 47.3687757, "lon": 8.538755}, {"type": "node", "id": 3338263078, "lat": 47.3688122, "lon": 8.5388424}, {"type": "node", "id": 3338263079, "lat": 47.3688228, "lon": 8.5388644}, {"type": "node", "id": 3338263083, "lat": 47.36889, "lon": 8.538646}, {"type": "node", "id": 3338263085, "lat": 47.3689359, "lon": 8.5385761}, {"type": "node", "id": 3338263089, "lat": 47.3690818, "lon": 8.5385368}, {"type": "node", "id": 3338263090, "lat": 47.3691032, "lon": 8.5385122}, {"type": "node", "id": 3338263091, "lat": 47.3691321, "lon": 8.5387131}, {"type": "node", "id": 3338263092, "lat": 47.3691829, "lon": 8.5388024}, {"type": "node", "id": 3338263593, "lat": 47.3692065, "lon": 8.5389025}, {"type": "node", "id": 3338263595, "lat": 47.3692344, "lon": 8.5387649}, {"type": "node", "id": 3338263596, "lat": 47.3692743, "lon": 8.5385191}, {"type": "node", "id": 3338263597, "lat": 47.3692864, "lon": 8.5388641}, {"type": "node", "id": 4237457392, "lat": 47.3679686, "lon": 8.5391319, "tags": {"amenity": "atm", "brand": "Z\u00fcrcher Kantonalbank", "brand:wikidata": "Q248476", "drive_through": "no", "level": "0", "name": "Z\u00fcrcher Kantonalbank", "operator": "Z\u00fcrcher Kantonalbank", "operator:wikidata": "Q248476", "short_name": "ZKB"}}, {"type": "node", "id": 4237460095, "lat": 47.3683828, "lon": 8.5387601}, {"type": "node", "id": 4237467991, "lat": 47.3679944, "lon": 8.5386115}, {"type": "node", "id": 4237477591, "lat": 47.3680611, "lon": 8.5387591}, {"type": "node", "id": 5894452431, "lat": 47.3685167, "lon": 8.5395577, "tags": {"barrier": "gate"}}, {"type": "node", "id": 5894452439, "lat": 47.368481, "lon": 8.5393418}, {"type": "node", "id": 5894452440, "lat": 47.3684987, "lon": 8.5391563}, {"type": "node", "id": 5894452441, "lat": 47.3684188, "lon": 8.5387276}, {"type": "node", "id": 8725681878, "lat": 47.3686121, "lon": 8.5390334}, {"type": "node", "id": 8725681883, "lat": 47.3685294, "lon": 8.5392427}, {"type": "node", "id": 8725681884, "lat": 47.3684543, "lon": 8.5388881}, {"type": "node", "id": 8725681886, "lat": 47.3684456, "lon": 8.5390073}, {"type": "node", "id": 8725681887, "lat": 47.3686335, "lon": 8.5391646}, {"type": "node", "id": 9706132693, "lat": 47.3684204, "lon": 8.5389171}, {"type": "node", "id": 9706132695, "lat": 47.368457, "lon": 8.5388856}, {"type": "node", "id": 9706132696, "lat": 47.3686616, "lon": 8.5388347}, {"type": "node", "id": 9706132697, "lat": 47.3686609, "lon": 8.5388325}, {"type": "node", "id": 9706132698, "lat": 47.3685228, "lon": 8.5388271}, {"type": "node", "id": 9706185804, "lat": 47.368209, "lon": 8.5383108}, {"type": "node", "id": 9706185805, "lat": 47.3682323, "lon": 8.5383678}, {"type": "node", "id": 9706185806, "lat": 47.3682134, "lon": 8.5383069}, {"type": "node", "id": 9706185807, "lat": 47.3682352, "lon": 8.5383652}, {"type": "node", "id": 10718518039, "lat": 47.3689856, "lon": 8.539715}, {"type": "node", "id": 10718518040, "lat": 47.3689332, "lon": 8.5399799}, {"type": "way", "id": 32233973, "nodes": [361475650, 361475652, 2201204154, 5894452431, 3338263047, 361475654, 361475655, 5894452439, 361475656, 1042029215, 9706132693, 8725681884, 9706132695, 361475658, 361475662, 5894452441, 4237460095, 3338263049, 4237457392, 361475650], "tags": {"building": "commercial", "owner": "Z\u00fcrcher Kantonalbank", "source": "Stadt Z\u00fcrich Open Government Data;Geomatik + Vermessung;Tiefbau- und Entsorgungsdepartement"}}, {"type": "way", "id": 89903740, "nodes": [361475658, 361475662, 1042029302, 1042029289, 1042029242, 1042029177, 9706132698, 361475658], "tags": {"addr:city": "Z\u00fcrich", "addr:country": "CH", "addr:housenumber": "16", "addr:postcode": "8001", "addr:street": "Talstrasse", "building": "yes", "source": "Stadt Z\u00fcrich Open Government Data; Geomatik + Vermessung; Tiefbau- und Entsorgungsdepartement"}}, {"type": "way", "id": 89903741, "nodes": [1042029218, 1042029293, 3338263079, 3338263078, 1042029161, 1042029172, 3338263074, 3338263076, 1042029218], "tags": {"addr:city": "Z\u00fcrich", "addr:country": "CH", "addr:housenumber": "5", "addr:postcode": "8001", "addr:street": "Tiefenh\u00f6fe", "building": "yes", "source": "Stadt Z\u00fcrich Open Government Data; Geomatik + Vermessung; Tiefbau- und Entsorgungsdepartement"}}, {"type": "way", "id": 89903744, "nodes": [1042029161, 1042029316, 3338263072, 3338263070, 3338263071, 8725681878, 3338263067, 1042029190, 3338263068, 3338263069, 9706132696, 9706132697, 1042029172, 1042029161], "tags": {"addr:city": "Z\u00fcrich", "addr:country": "CH", "addr:housenumber": "4", "addr:postcode": "8001", "addr:street": "Tiefenh\u00f6fe", "building": "yes", "source": "Stadt Z\u00fcrich Open Government Data; Geomatik + Vermessung; Tiefbau- und Entsorgungsdepartement"}}, {"type": "way", "id": 89903745, "nodes": [1042029277, 1042029255, 1042029188, 1042029237, 4237467991, 1042029185, 1042029296, 4237477591, 3338263061, 1042029174, 1042029210, 3338263057, 1042029158, 1042029277], "tags": {"building": "commercial", "source": "Stadt Z\u00fcrich Open Government Data; Geomatik + Vermessung; Tiefbau- und Entsorgungsdepartement"}}, {"type": "way", "id": 89903746, "nodes": [1042029296, 361475167, 1042029263, 1042029191, 9706185807, 9706185805, 9706185804, 9706185806, 3338263064, 3338263063, 1042029285, 1042029185, 1042029296], "tags": {"addr:city": "Z\u00fcrich", "addr:country": "CH", "addr:housenumber": "11", "addr:postcode": "8001", "addr:street": "Talstrasse", "building": "commercial", "owner": "BVK Immobilien", "source": "Stadt Z\u00fcrich Open Government Data; Geomatik + Vermessung; Tiefbau- und Entsorgungsdepartement", "start_date": "1927"}}, {"type": "way", "id": 89903751, "nodes": [1042029306, 1042029329, 3338263083, 3338263085, 1042029204, 1042029324, 3338263089, 3338263090, 1042029306], "tags": {"addr:city": "Z\u00fcrich", "addr:country": "CH", "addr:housenumber": "6", "addr:postcode": "8001", "addr:street": "Tiefenh\u00f6fe", "building": "yes", "source": "Stadt Z\u00fcrich Open Government Data; Geomatik + Vermessung; Tiefbau- und Entsorgungsdepartement"}}, {"type": "way", "id": 89971681, "nodes": [1042029205, 1042029269, 1042029311, 361475655, 361475654, 3338263051, 3338263052, 1042029272, 1042029320, 1042029180, 1042029202, 1042029251, 1042029308, 1042029160, 1042029182, 1042029229, 1042029288, 1042029321, 1042029205], "tags": {"building": "commercial", "building:levels": "4", "name": "Eidgenoss", "owner": "Swiss Life", "roof:levels": "1"}}, {"type": "way", "id": 290141836, "nodes": [2936682617, 10718518040, 2936682619, 2936682626, 358131189, 2936682625, 2936682624, 10718518039, 2936682617], "tags": {"addr:city": "Z\u00fcrich", "addr:country": "CH", "addr:postcode": "8001", "building": "yes", "source": "Stadt Z\u00fcrich Open Government Data; Geomatik + Vermessung; Tiefbau- und Entsorgungsdepartement"}}, {"type": "way", "id": 290141841, "nodes": [2936682632, 1041912177, 2936682624, 2936682625, 1041912077, 2936682634, 2936682632], "tags": {"addr:city": "Z\u00fcrich", "addr:country": "CH", "addr:housenumber": "22", "addr:postcode": "8001", "addr:street": "Bahnhofstrasse", "building": "yes", "source": "Stadt Z\u00fcrich Open Government Data; Geomatik + Vermessung; Tiefbau- und Entsorgungsdepartement"}}, {"type": "way", "id": 290296847, "nodes": [358130559, 2938530161, 2938530162, 358130638, 2938530164, 2938530174, 358130559], "tags": {"addr:city": "Z\u00fcrich", "addr:country": "CH", "addr:housenumber": "18", "addr:postcode": "8001", "addr:street": "Bahnhofstrasse", "building": "yes", "source": "Stadt Z\u00fcrich Open Government Data; Geomatik + Vermessung; Tiefbau- und Entsorgungsdepartement"}}, {"type": "way", "id": 327111342, "nodes": [3338263593, 3338263062, 3338263092, 3338263595, 1042029328, 1115159459, 1042029278, 3338263597, 3338263593], "tags": {"addr:city": "Z\u00fcrich", "addr:country": "CH", "addr:postcode": "8001", "building": "retail", "building:levels": "5", "roof:levels": "1", "source": "Stadt Z\u00fcrich Open Government Data; Geomatik + Vermessung; Tiefbau- und Entsorgungsdepartement"}}, {"type": "way", "id": 327111348, "nodes": [3338263092, 3338263091, 3338263596, 1042029328, 3338263595, 3338263092], "tags": {"addr:city": "Z\u00fcrich", "addr:country": "CH", "addr:housenumber": "5", "addr:place": "Paradeplatz", "addr:postcode": "8001", "building": "retail", "building:levels": "5", "roof:levels": "1", "source": "Stadt Z\u00fcrich Open Government Data; Geomatik + Vermessung; Tiefbau- und Entsorgungsdepartement"}}, {"type": "way", "id": 942285777, "nodes": [8725681878, 8725681887, 8725681883, 5894452440, 8725681886, 8725681884, 9706132695, 361475658, 9706132698, 1042029190, 3338263067, 8725681878], "tags": {"building": "yes"}}]}