{"version": 0.6, "generator": "Overpass API 0.7.60.6 e2dc3e5b", "osm3s": {"timestamp_osm_base": "2023-06-29T15:20:01Z", "copyright": "The data included in this document is from www.openstreetmap.org. The data is made available under ODbL."}, "elements": [{"type": "node", "id": 26888809, "lat": 47.370316, "lon": 8.53949}, {"type": "node", "id": 1041996201, "lat": 47.3701979, "lon": 8.5398424}, {"type": "node", "id": 1041996236, "lat": 47.3711962, "lon": 8.5400796}, {"type": "node", "id": 1041996248, "lat": 47.3704884, "lon": 8.5401012}, {"type": "node", "id": 1041996251, "lat": 47.371028, "lon": 8.5400927}, {"type": "node", "id": 1041996264, "lat": 47.3706954, "lon": 8.5399715}, {"type": "node", "id": 1041996279, "lat": 47.3711672, "lon": 8.5399005}, {"type": "node", "id": 1041996328, "lat": 47.3709497, "lon": 8.5400736}, {"type": "node", "id": 1041996354, "lat": 47.3707381, "lon": 8.5400867}, {"type": "node", "id": 1041996426, "lat": 47.3710485, "lon": 8.5401295}, {"type": "node", "id": 1041996441, "lat": 47.3705401, "lon": 8.5400816}, {"type": "node", "id": 1041996447, "lat": 47.3703157, "lon": 8.5397245}, {"type": "node", "id": 1041996463, "lat": 47.3709341, "lon": 8.5399976}, {"type": "node", "id": 1041996472, "lat": 47.3705881, "lon": 8.5402108}, {"type": "node", "id": 1041996491, "lat": 47.3710402, "lon": 8.5400874}, {"type": "node", "id": 1042858357, "lat": 47.3703651, "lon": 8.5402078}, {"type": "node", "id": 2926175165, "lat": 47.3707375, "lon": 8.5398587, "tags": {"addr:city": "Z\u00fcrich", "addr:country": "CH", "addr:housenumber": "1", "addr:postcode": "8001", "addr:street": "Zeugwartgasse"}}, {"type": "node", "id": 2926175166, "lat": 47.3705032, "lon": 8.5398887, "tags": {"addr:city": "Z\u00fcrich", "addr:country": "CH", "addr:housenumber": "20", "addr:postcode": "8001", "addr:street": "In Gassen"}}, {"type": "node", "id": 2926175167, "lat": 47.3708417, "lon": 8.5398902, "tags": {"addr:city": "Z\u00fcrich", "addr:country": "CH", "addr:housenumber": "3", "addr:postcode": "8001", "addr:street": "Zeugwartgasse"}}, {"type": "node", "id": 2926175168, "lat": 47.3708832, "lon": 8.5390053, "tags": {"addr:city": "Z\u00fcrich", "addr:country": "CH", "addr:housenumber": "32", "addr:postcode": "8001", "addr:street": "Bahnhofstrasse"}}, {"type": "node", "id": 2926175169, "lat": 47.3702729, "lon": 8.5392398}, {"type": "node", "id": 2926175170, "lat": 47.3702759, "lon": 8.5392316}, {"type": "node", "id": 2926175171, "lat": 47.3703185, "lon": 8.5394914}, {"type": "node", "id": 2926175172, "lat": 47.3704575, "lon": 8.539793}, {"type": "node", "id": 2926175173, "lat": 47.3705454, "lon": 8.5399745}, {"type": "node", "id": 2926175174, "lat": 47.3706372, "lon": 8.5395316}, {"type": "node", "id": 2926175175, "lat": 47.370668, "lon": 8.5390859}, {"type": "node", "id": 2926175176, "lat": 47.3706699, "lon": 8.5398877}, {"type": "node", "id": 2926175177, "lat": 47.3706733, "lon": 8.5396783}, {"type": "node", "id": 2926175178, "lat": 47.3707229, "lon": 8.5394859}, {"type": "node", "id": 2926175179, "lat": 47.3707272, "lon": 8.5395033}, {"type": "node", "id": 2926175180, "lat": 47.3707378, "lon": 8.5394981}, {"type": "node", "id": 2926175181, "lat": 47.3707401, "lon": 8.5395148}, {"type": "node", "id": 2926175182, "lat": 47.3707621, "lon": 8.53963}, {"type": "node", "id": 2926175183, "lat": 47.3707729, "lon": 8.5396879}, {"type": "node", "id": 2926175184, "lat": 47.3708012, "lon": 8.5398333}, {"type": "node", "id": 2926175185, "lat": 47.3708289, "lon": 8.5398217}, {"type": "node", "id": 2926175186, "lat": 47.3708464, "lon": 8.5394781}, {"type": "node", "id": 2926175188, "lat": 47.3708744, "lon": 8.5396462}, {"type": "node", "id": 2926175189, "lat": 47.3709834, "lon": 8.5389682}, {"type": "node", "id": 2926175190, "lat": 47.3710209, "lon": 8.5392307}, {"type": "node", "id": 2926175191, "lat": 47.3710255, "lon": 8.539223}, {"type": "node", "id": 2926963000, "lat": 47.3709564, "lon": 8.5400707}, {"type": "node", "id": 2926967201, "lat": 47.3709581, "lon": 8.540077}, {"type": "node", "id": 2926967206, "lat": 47.370981, "lon": 8.5400591}, {"type": "node", "id": 2926967208, "lat": 47.3709823, "lon": 8.5400659}, {"type": "node", "id": 2926967213, "lat": 47.3710177, "lon": 8.5400437}, {"type": "node", "id": 2927334025, "lat": 47.3704026, "lon": 8.5399117, "tags": {"addr:city": "Z\u00fcrich", "addr:country": "CH", "addr:housenumber": "17", "addr:postcode": "8001", "addr:street": "In Gassen"}}, {"type": "node", "id": 2927334034, "lat": 47.3702444, "lon": 8.53994, "tags": {"addr:city": "Z\u00fcrich", "addr:country": "CH", "addr:housenumber": "6", "addr:postcode": "8001", "addr:street": "Waaggasse"}}, {"type": "node", "id": 2927334070, "lat": 47.3702925, "lon": 8.5400437}, {"type": "node", "id": 2927334076, "lat": 47.3703336, "lon": 8.5401351}, {"type": "node", "id": 2927334084, "lat": 47.3703879, "lon": 8.5401873}, {"type": "node", "id": 2927334085, "lat": 47.370386, "lon": 8.540182}, {"type": "node", "id": 5255883909, "lat": 47.3708498, "lon": 8.5399368}, {"type": "node", "id": 5255883910, "lat": 47.3711187, "lon": 8.5398221}, {"type": "node", "id": 6549508247, "lat": 47.3704507, "lon": 8.540018}, {"type": "node", "id": 6549508248, "lat": 47.3704471, "lon": 8.5401341}, {"type": "node", "id": 6549508249, "lat": 47.3704083, "lon": 8.5401629}, {"type": "node", "id": 10716433667, "lat": 47.3705642, "lon": 8.540146, "tags": {"entrance": "main"}}, {"type": "node", "id": 10716433668, "lat": 47.3706728, "lon": 8.5399875, "tags": {"entrance": "yes"}}, {"type": "node", "id": 10721583193, "lat": 47.3705407, "lon": 8.5399734}, {"type": "way", "id": 89902503, "nodes": [1041996426, 1041996491, 1041996251, 2926967213, 2926967206, 2926967208, 2926967201, 2926963000, 1041996328, 1041996463, 1041996279, 1041996236, 1041996426], "tags": {"addr:city": "Z\u00fcrich", "addr:country": "CH", "addr:housenumber": "1", "addr:postcode": "8001", "addr:street": "St. Peterstrasse", "building": "yes", "source": "Stadt Z\u00fcrich Open Government Data; Geomatik + Vermessung; Tiefbau- und Entsorgungsdepartement"}}, {"type": "way", "id": 89902508, "nodes": [1041996472, 10716433667, 1041996441, 10716433668, 1041996264, 1041996354, 1041996472], "tags": {"addr:city": "Z\u00fcrich", "addr:country": "CH", "addr:postcode": "8001", "building": "retail", "source": "Stadt Z\u00fcrich Open Government Data; Geomatik + Vermessung; Tiefbau- und Entsorgungsdepartement"}}, {"type": "way", "id": 89902518, "nodes": [1041996447, 2927334025, 6549508247, 1041996248, 6549508248, 6549508249, 2927334085, 2927334084, 1042858357, 2927334076, 2927334070, 2927334034, 1041996201, 1041996447], "tags": {"addr:city": "Z\u00fcrich", "addr:country": "CH", "addr:postcode": "8001", "building": "retail", "owner": "PSP Swiss Property", "source": "Stadt Z\u00fcrich Open Government Data; Geomatik + Vermessung; Tiefbau- und Entsorgungsdepartement"}}, {"type": "way", "id": 289067302, "nodes": [2926175189, 2926175191, 2926175190, 5255883910, 5255883909, 2926175167, 2926175185, 2926175184, 2926175183, 2926175188, 2926175186, 2926175181, 2926175180, 2926175175, 2926175168, 2926175189], "tags": {"building": "commercial", "name": "Leuenhof", "owner": "Swiss Prime Anlagestiftung", "source": "Stadt Z\u00fcrich Open Government Data; Geomatik + Vermessung; Tiefbau- und Entsorgungsdepartement"}}, {"type": "way", "id": 289067303, "nodes": [2926175172, 2926175166, 10721583193, 2926175173, 2926175176, 2926175165, 2926175184, 2926175183, 2926175182, 2926175177, 2926175172], "tags": {"building": "commercial", "source": "Stadt Z\u00fcrich Open Government Data; Geomatik + Vermessung; Tiefbau- und Entsorgungsdepartement"}}, {"type": "way", "id": 289067304, "nodes": [2926175175, 2926175170, 2926175169, 26888809, 2926175171, 2926175172, 2926175177, 2926175174, 2926175178, 2926175179, 2926175180, 2926175175], "tags": {"addr:city": "Z\u00fcrich", "addr:country": "CH", "addr:housenumber": "30", "addr:postcode": "8001", "addr:street": "Bahnhofstrasse", "alt_name": "Griederhaus", "building": "commercial", "building:levels": "4", "name": "Peterhof", "owner": "Swatch Group", "roof:levels": "1", "source": "Stadt Z\u00fcrich Open Government Data;Geomatik + Vermessung;Tiefbau- und Entsorgungsdepartement", "start_date": "1913"}}]}