{"version": 0.6, "generator": "Overpass API 0.7.60.6 e2dc3e5b", "osm3s": {"timestamp_osm_base": "2023-06-29T15:17:00Z", "copyright": "The data included in this document is from www.openstreetmap.org. The data is made available under ODbL."}, "elements": [{"type": "node", "id": 358130643, "lat": 47.36827, "lon": 8.540704}, {"type": "node", "id": 2938529541, "lat": 47.3689769, "lon": 8.541356, "tags": {"addr:city": "Z\u00fcrich", "addr:country": "CH", "addr:housenumber": "1", "addr:postcode": "8001", "addr:street": "Kappelergasse"}}, {"type": "node", "id": 2938529544, "lat": 47.3681614, "lon": 8.5414452, "tags": {"addr:city": "Z\u00fcrich", "addr:country": "CH", "addr:housenumber": "10", "addr:postcode": "8001", "addr:street": "B\u00f6rsenstrasse"}}, {"type": "node", "id": 2938529545, "lat": 47.3683237, "lon": 8.5417125, "tags": {"addr:city": "Z\u00fcrich", "addr:country": "CH", "addr:housenumber": "11", "addr:postcode": "8001", "addr:street": "Stadthausquai"}}, {"type": "node", "id": 2938529546, "lat": 47.3681488, "lon": 8.5408154, "tags": {"addr:city": "Z\u00fcrich", "addr:country": "CH", "addr:housenumber": "12", "addr:postcode": "8001", "addr:street": "B\u00f6rsenstrasse"}}, {"type": "node", "id": 2938529547, "lat": 47.3682823, "lon": 8.5411466, "tags": {"addr:city": "Z\u00fcrich", "addr:country": "CH", "addr:housenumber": "12", "addr:postcode": "8001", "addr:street": "Fraum\u00fcnsterstrasse"}}, {"type": "node", "id": 2938529548, "lat": 47.3684996, "lon": 8.5417241, "tags": {"addr:city": "Z\u00fcrich", "addr:country": "CH", "addr:housenumber": "13", "addr:postcode": "8001", "addr:street": "Stadthausquai"}}, {"type": "node", "id": 2938529549, "lat": 47.3684862, "lon": 8.5410853, "tags": {"addr:city": "Z\u00fcrich", "addr:country": "CH", "addr:housenumber": "14", "addr:postcode": "8001", "addr:street": "Fraum\u00fcnsterstrasse"}}, {"type": "node", "id": 2938529550, "lat": 47.3687111, "lon": 8.5417378, "tags": {"addr:city": "Z\u00fcrich", "addr:country": "CH", "addr:housenumber": "15", "addr:postcode": "8001", "addr:street": "Stadthausquai"}}, {"type": "node", "id": 2938529551, "lat": 47.3688121, "lon": 8.5409873, "tags": {"addr:city": "Z\u00fcrich", "addr:country": "CH", "addr:housenumber": "16", "addr:postcode": "8001", "addr:street": "Fraum\u00fcnsterstrasse"}}, {"type": "node", "id": 2938529555, "lat": 47.3682843, "lon": 8.5409027, "tags": {"addr:city": "Z\u00fcrich", "addr:country": "CH", "addr:housenumber": "9", "addr:postcode": "8001", "addr:street": "Fraum\u00fcnsterstrasse"}}, {"type": "node", "id": 2938530124, "lat": 47.3681026, "lon": 8.540528}, {"type": "node", "id": 2938530125, "lat": 47.3681046, "lon": 8.5405391}, {"type": "node", "id": 2938530126, "lat": 47.3681086, "lon": 8.5405685}, {"type": "node", "id": 2938530127, "lat": 47.3681104, "lon": 8.5405442}, {"type": "node", "id": 2938530128, "lat": 47.3681117, "lon": 8.5405916}, {"type": "node", "id": 2938530129, "lat": 47.3681127, "lon": 8.5405622}, {"type": "node", "id": 2938530130, "lat": 47.368119, "lon": 8.5405972}, {"type": "node", "id": 2938530131, "lat": 47.3681315, "lon": 8.5406922}, {"type": "node", "id": 2938530132, "lat": 47.368147, "lon": 8.5411876}, {"type": "node", "id": 2938530133, "lat": 47.3681657, "lon": 8.5409394}, {"type": "node", "id": 2938530134, "lat": 47.3681752, "lon": 8.5417033}, {"type": "node", "id": 2938530141, "lat": 47.3682459, "lon": 8.5404841}, {"type": "node", "id": 2938530142, "lat": 47.3682485, "lon": 8.5405475}, {"type": "node", "id": 2938530143, "lat": 47.3682533, "lon": 8.5405382}, {"type": "node", "id": 2938530144, "lat": 47.3682626, "lon": 8.5406503}, {"type": "node", "id": 2938530146, "lat": 47.3683767, "lon": 8.5406716}, {"type": "node", "id": 2938530148, "lat": 47.3684031, "lon": 8.5408661}, {"type": "node", "id": 2938530149, "lat": 47.3684807, "lon": 8.54064}, {"type": "node", "id": 2938530151, "lat": 47.3685092, "lon": 8.5408348}, {"type": "node", "id": 2938530153, "lat": 47.3685343, "lon": 8.5406238}, {"type": "node", "id": 2938530154, "lat": 47.3685482, "lon": 8.5410671}, {"type": "node", "id": 2938530155, "lat": 47.3685624, "lon": 8.5408186}, {"type": "node", "id": 2938530157, "lat": 47.3685845, "lon": 8.5417306}, {"type": "node", "id": 2938530158, "lat": 47.3685888, "lon": 8.5406072}, {"type": "node", "id": 2938530159, "lat": 47.3685964, "lon": 8.5414033}, {"type": "node", "id": 2938530160, "lat": 47.3686165, "lon": 8.5408018}, {"type": "node", "id": 2938530163, "lat": 47.3686924, "lon": 8.5405758}, {"type": "node", "id": 2938530165, "lat": 47.3687217, "lon": 8.540769}, {"type": "node", "id": 2938530169, "lat": 47.3687614, "lon": 8.5405549}, {"type": "node", "id": 2938530170, "lat": 47.3687689, "lon": 8.5405972}, {"type": "node", "id": 2938530171, "lat": 47.3687977, "lon": 8.5405496}, {"type": "node", "id": 2938530172, "lat": 47.3688027, "lon": 8.5405861}, {"type": "node", "id": 2938530173, "lat": 47.3688235, "lon": 8.5407396}, {"type": "node", "id": 2938530178, "lat": 47.3689011, "lon": 8.540536}, {"type": "node", "id": 2938530180, "lat": 47.3689212, "lon": 8.5409554}, {"type": "node", "id": 2938530181, "lat": 47.3689262, "lon": 8.5407102}, {"type": "node", "id": 2938530182, "lat": 47.3690324, "lon": 8.5417591}, {"type": "node", "id": 5281831649, "lat": 47.3681581, "lon": 8.5411842}, {"type": "node", "id": 5281831650, "lat": 47.3681856, "lon": 8.5417039}, {"type": "node", "id": 5291778933, "lat": 47.3686339, "lon": 8.5412493}, {"type": "node", "id": 5291778934, "lat": 47.368653, "lon": 8.5413816}, {"type": "node", "id": 5291778935, "lat": 47.3686482, "lon": 8.54151}, {"type": "node", "id": 5291778936, "lat": 47.3687511, "lon": 8.5415147}, {"type": "node", "id": 5291778937, "lat": 47.3687103, "lon": 8.5412289}, {"type": "way", "id": 290296830, "nodes": [2938530154, 2938529549, 2938529547, 5281831649, 2938530132, 2938529544, 2938530134, 5281831650, 2938529545, 2938529548, 2938530157, 2938530159, 2938530154], "tags": {"addr:city": "Z\u00fcrich", "addr:country": "CH", "addr:postcode": "8001", "building": "commercial", "name": "Metropol", "note": "Bis 2012 im Besitz der Bank Clariden Leu/Credit Suisse", "owner": "Schweizerische Nationalbank (SNB)", "source": "Stadt Z\u00fcrich Open Government Data; Geomatik + Vermessung; Tiefbau- und Entsorgungsdepartement", "start_date": "1893", "wikidata": "Q29574344"}}, {"type": "way", "id": 290296832, "nodes": [2938530144, 2938530131, 2938529546, 2938530133, 2938529555, 2938530148, 2938530146, 358130643, 2938530144], "tags": {"addr:city": "Z\u00fcrich", "addr:country": "CH", "addr:postcode": "8001", "building": "yes", "name": "Zum L\u00f6wensteig", "source": "Stadt Z\u00fcrich Open Government Data; Geomatik + Vermessung; Tiefbau- und Entsorgungsdepartement"}}, {"type": "way", "id": 290296833, "nodes": [2938530180, 2938529551, 2938530154, 2938530159, 2938530157, 2938529550, 2938530182, 2938529541, 2938530180]}, {"type": "way", "id": 290296835, "nodes": [2938530148, 2938530151, 2938530149, 2938530146, 2938530148], "tags": {"addr:city": "Z\u00fcrich", "addr:country": "CH", "addr:housenumber": "11", "addr:postcode": "8001", "addr:street": "Fraum\u00fcnsterstrasse", "building": "yes", "source": "Stadt Z\u00fcrich Open Government Data; Geomatik + Vermessung; Tiefbau- und Entsorgungsdepartement"}}, {"type": "way", "id": 290296838, "nodes": [2938530151, 2938530155, 2938530160, 2938530158, 2938530153, 2938530149, 2938530151], "tags": {"addr:city": "Z\u00fcrich", "addr:country": "CH", "addr:housenumber": "13", "addr:postcode": "8001", "addr:street": "Fraum\u00fcnsterstrasse", "building": "yes", "source": "Stadt Z\u00fcrich Open Government Data; Geomatik + Vermessung; Tiefbau- und Entsorgungsdepartement"}}, {"type": "way", "id": 290296841, "nodes": [2938530141, 2938530124, 2938530125, 2938530127, 2938530129, 2938530126, 2938530128, 2938530130, 2938530131, 2938530144, 2938530142, 2938530143, 2938530141], "tags": {"addr:city": "Z\u00fcrich", "addr:country": "CH", "addr:housenumber": "14", "addr:postcode": "8001", "addr:street": "B\u00f6rsenstrasse", "building": "yes", "source": "Stadt Z\u00fcrich Open Government Data; Geomatik + Vermessung; Tiefbau- und Entsorgungsdepartement"}}, {"type": "way", "id": 290296842, "nodes": [2938530160, 2938530165, 2938530163, 2938530158, 2938530160], "tags": {"addr:city": "Z\u00fcrich", "addr:country": "CH", "addr:housenumber": "15", "addr:postcode": "8001", "addr:street": "Fraum\u00fcnsterstrasse", "building": "yes", "source": "Stadt Z\u00fcrich Open Government Data; Geomatik + Vermessung; Tiefbau- und Entsorgungsdepartement"}}, {"type": "way", "id": 290296846, "nodes": [2938530165, 2938530173, 2938530172, 2938530170, 2938530169, 2938530163, 2938530165], "tags": {"addr:city": "Z\u00fcrich", "addr:country": "CH", "addr:housenumber": "17", "addr:postcode": "8001", "addr:street": "Fraum\u00fcnsterstrasse", "building": "yes", "source": "Stadt Z\u00fcrich Open Government Data; Geomatik + Vermessung; Tiefbau- und Entsorgungsdepartement"}}, {"type": "way", "id": 290296848, "nodes": [2938530181, 2938530178, 2938530171, 2938530172, 2938530173, 2938530181], "tags": {"addr:city": "Z\u00fcrich", "addr:country": "CH", "addr:housenumber": "19", "addr:postcode": "8001", "addr:street": "Fraum\u00fcnsterstrasse", "building": "yes", "source": "Stadt Z\u00fcrich Open Government Data; Geomatik + Vermessung; Tiefbau- und Entsorgungsdepartement"}}, {"type": "way", "id": 547682939, "nodes": [5291778937, 5291778936, 5291778935, 5291778934, 5291778933, 5291778937]}, {"type": "relation", "id": 7821613, "members": [{"type": "way", "ref": 290296833, "role": "outer"}, {"type": "way", "ref": 547682939, "role": "inner"}], "tags": {"addr:city": "Z\u00fcrich", "addr:country": "CH", "addr:postcode": "8001", "building": "commercial", "name": "Fraum\u00fcnsterpost", "owner": "Swiss Prime Site (SPS)", "start_date": "1891", "type": "multipolygon", "wikidata": "Q29933561"}}]}