{"version": 0.6, "generator": "Overpass API 0.7.60.6 e2dc3e5b", "osm3s": {"timestamp_osm_base": "2023-06-29T12:49:34Z", "copyright": "The data included in this document is from www.openstreetmap.org. The data is made available under ODbL."}, "elements": [{"type": "node", "id": 430731933, "lat": 47.3738639, "lon": 8.537253}, {"type": "node", "id": 430731936, "lat": 47.3739102, "lon": 8.5378591}, {"type": "node", "id": 430731938, "lat": 47.3739741, "lon": 8.5379199}, {"type": "node", "id": 430731941, "lat": 47.3746194, "lon": 8.5377122}, {"type": "node", "id": 430731945, "lat": 47.3746058, "lon": 8.5373422}, {"type": "node", "id": 430731948, "lat": 47.3745566, "lon": 8.5371702, "tags": {"addr:city": "Z\u00fcrich", "addr:country": "CH", "addr:housenumber": "25", "addr:postcode": "8001", "addr:street": "Uraniastrasse"}}, {"type": "node", "id": 430731950, "lat": 47.3745207, "lon": 8.5370556}, {"type": "node", "id": 430731953, "lat": 47.3744873, "lon": 8.5369632}, {"type": "node", "id": 430731956, "lat": 47.3744283, "lon": 8.536849}, {"type": "node", "id": 430731965, "lat": 47.3743696, "lon": 8.5367604}, {"type": "node", "id": 430731968, "lat": 47.3741392, "lon": 8.5365459}, {"type": "node", "id": 430731971, "lat": 47.3738823, "lon": 8.5369217}, {"type": "node", "id": 430731975, "lat": 47.3738687, "lon": 8.5369759}, {"type": "node", "id": 430731977, "lat": 47.3738562, "lon": 8.5370655, "tags": {"addr:city": "Z\u00fcrich", "addr:country": "CH", "addr:housenumber": "6", "addr:postcode": "8001", "addr:street": "Sihlstrasse", "entrance": "yes"}}, {"type": "node", "id": 430731980, "lat": 47.3738559, "lon": 8.5371811}, {"type": "node", "id": 937593836, "lat": 47.3747366, "lon": 8.5365816}, {"type": "node", "id": 937593843, "lat": 47.3745699, "lon": 8.5367232}, {"type": "node", "id": 937593871, "lat": 47.374665, "lon": 8.536936}, {"type": "node", "id": 937593888, "lat": 47.3747008, "lon": 8.5365361}, {"type": "node", "id": 937593893, "lat": 47.3746133, "lon": 8.5367978}, {"type": "node", "id": 937593896, "lat": 47.3747516, "lon": 8.5368749}, {"type": "node", "id": 1783649767, "lat": 47.3739427, "lon": 8.537895, "tags": {"addr:city": "Z\u00fcrich", "addr:country": "CH", "addr:housenumber": "4", "addr:postcode": "8001", "addr:street": "Sihlstrasse", "entrance": "yes"}}, {"type": "node", "id": 3250568447, "lat": 47.374053, "lon": 8.5365745}, {"type": "node", "id": 3250568448, "lat": 47.3740699, "lon": 8.5365457, "tags": {"entrance": "yes"}}, {"type": "node", "id": 3250568449, "lat": 47.3740885, "lon": 8.5365335}, {"type": "node", "id": 3250568450, "lat": 47.374111, "lon": 8.5365326}, {"type": "node", "id": 3250568665, "lat": 47.3745928, "lon": 8.5373354}, {"type": "node", "id": 3324778742, "lat": 47.3741509, "lon": 8.5365257}, {"type": "node", "id": 3324778747, "lat": 47.374304, "lon": 8.5366654}, {"type": "node", "id": 3327353669, "lat": 47.3747394, "lon": 8.5367224}, {"type": "node", "id": 3327353670, "lat": 47.3747556, "lon": 8.5367057}, {"type": "node", "id": 3327353671, "lat": 47.374758, "lon": 8.5367899}, {"type": "node", "id": 3344372625, "lat": 47.3743197, "lon": 8.5378048, "tags": {"addr:city": "Z\u00fcrich", "addr:country": "CH", "addr:housenumber": "1", "addr:postcode": "8001", "addr:street": "Seidengasse"}}, {"type": "node", "id": 3344372626, "lat": 47.3745821, "lon": 8.5372608}, {"type": "node", "id": 3344372627, "lat": 47.374611, "lon": 8.5375151, "tags": {"entrance": "yes"}}, {"type": "way", "id": 37037045, "nodes": [430731933, 430731936, 1783649767, 430731938, 3344372625, 430731941, 3344372627, 430731945, 3250568665, 3344372626, 430731948, 430731950, 430731953, 430731956, 430731965, 3324778747, 3324778742, 430731968, 3250568450, 3250568449, 3250568448, 3250568447, 430731971, 430731975, 430731977, 430731980, 430731933], "tags": {"addr:city": "Z\u00fcrich", "addr:country": "CH", "addr:postcode": "8001", "building": "retail", "name": "Jelmoli", "note": "actually consisting of three buildings, interconnected at different levels", "opening_hours": "Mo-Fr 09:30-20:00; Sa 09:00-20:00", "operator": "Wincasa", "owner": "Swiss Prime Site (SPS)", "shop": "department_store", "source": "Stadt Z\u00fcrich Open Government Data; Geomatik + Vermessung; Tiefbau- und Entsorgungsdepartement", "wheelchair": "yes", "wheelchair:description": "Beste Behindertentoilette der Stadt - 3. Stock", "wikidata": "Q21031096"}}, {"type": "way", "id": 80338522, "nodes": [937593843, 937593893, 937593871, 937593896, 3327353671, 3327353669, 3327353670, 937593836, 937593888, 937593843], "tags": {"addr:city": "Z\u00fcrich", "addr:country": "CH", "addr:housenumber": "12", "addr:postcode": "8001", "addr:street": "Uraniastrasse", "building": "office", "building:levels": "5", "source": "Stadt Z\u00fcrich Open Government Data; Geomatik + Vermessung; Tiefbau- und Entsorgungsdepartement"}}]}