{"version": 0.6, "generator": "Overpass API 0.7.60.6 e2dc3e5b", "osm3s": {"timestamp_osm_base": "2023-06-29T11:06:28Z", "copyright": "The data included in this document is from www.openstreetmap.org. The data is made available under ODbL."}, "elements": [{"type": "node", "id": 893470277, "lat": 47.3718329, "lon": 8.5446462}, {"type": "node", "id": 893470281, "lat": 47.3718402, "lon": 8.5450095}, {"type": "node", "id": 893470294, "lat": 47.37195, "lon": 8.5448698}, {"type": "node", "id": 893470379, "lat": 47.3718887, "lon": 8.5447503}, {"type": "node", "id": 893470432, "lat": 47.3718405, "lon": 8.5448743}, {"type": "node", "id": 894788898, "lat": 47.3716682, "lon": 8.5448366}, {"type": "node", "id": 895787670, "lat": 47.3717281, "lon": 8.5449507}, {"type": "node", "id": 1972634405, "lat": 47.3717816, "lon": 8.5449958}, {"type": "node", "id": 1972634418, "lat": 47.3718379, "lon": 8.5448995}, {"type": "node", "id": 1972634421, "lat": 47.371841, "lon": 8.5449286}, {"type": "node", "id": 1972634422, "lat": 47.3718451, "lon": 8.5449146}, {"type": "node", "id": 1972634424, "lat": 47.3718474, "lon": 8.5448856}, {"type": "node", "id": 2877921868, "lat": 47.3717852, "lon": 8.5448853}, {"type": "node", "id": 2877921874, "lat": 47.3718023, "lon": 8.544918}, {"type": "node", "id": 2877921875, "lat": 47.3718087, "lon": 8.5450441}, {"type": "node", "id": 2877921877, "lat": 47.3718231, "lon": 8.5448271}, {"type": "node", "id": 2877921878, "lat": 47.3718351, "lon": 8.5449987}, {"type": "node", "id": 2877921882, "lat": 47.3718454, "lon": 8.5448686}, {"type": "way", "id": 75684682, "nodes": [893470294, 893470379, 2877921877, 2877921882, 893470432, 1972634424, 1972634418, 1972634422, 1972634421, 1972634405, 2877921875, 893470281, 2877921878, 893470294], "tags": {"addr:city": "Z\u00fcrich", "addr:country": "CH", "addr:housenumber": "12", "addr:postcode": "8001", "addr:street": "Spiegelgasse", "building": "yes", "source": "Stadt Z\u00fcrich Open Government Data; Geomatik + Vermessung; Tiefbau- und Entsorgungsdepartement"}}, {"type": "way", "id": 75684690, "nodes": [893470432, 2877921882, 2877921877, 893470379, 893470277, 894788898, 895787670, 2877921868, 2877921874, 893470432], "tags": {"addr:city": "Z\u00fcrich", "addr:country": "CH", "addr:housenumber": "26", "addr:postcode": "8001", "addr:street": "Obere Z\u00e4une", "building": "yes", "name": "zum Brunnen Thurm", "source": "Stadt Z\u00fcrich Open Government Data; Geomatik + Vermessung; Tiefbau- und Entsorgungsdepartement", "wikidata": "Q992849"}}]}