{"version": 0.6, "generator": "Overpass API 0.7.60.6 e2dc3e5b", "osm3s": {"timestamp_osm_base": "2023-06-29T12:48:33Z", "copyright": "The data included in this document is from www.openstreetmap.org. The data is made available under ODbL."}, "elements": [{"type": "node", "id": 357213810, "lat": 47.3735265, "lon": 8.5274275}, {"type": "node", "id": 357213904, "lat": 47.3735486, "lon": 8.5273627}, {"type": "node", "id": 357213905, "lat": 47.3736432, "lon": 8.5274324}, {"type": "node", "id": 393961430, "lat": 47.3739662, "lon": 8.5270739}, {"type": "node", "id": 393961432, "lat": 47.3737002, "lon": 8.5274752}, {"type": "node", "id": 393961434, "lat": 47.3737712, "lon": 8.527531}, {"type": "node", "id": 393961468, "lat": 47.3740732, "lon": 8.5274057, "tags": {"addr:city": "Z\u00fcrich", "addr:country": "CH", "addr:housenumber": "18", "addr:postcode": "8004", "addr:street": "Kanzleistrasse"}}, {"type": "node", "id": 393961469, "lat": 47.3737611, "lon": 8.5278493}, {"type": "node", "id": 393961474, "lat": 47.3739378, "lon": 8.5278945}, {"type": "node", "id": 393961475, "lat": 47.3741559, "lon": 8.5275427}, {"type": "node", "id": 890983572, "lat": 47.373849, "lon": 8.5274306, "tags": {"addr:city": "Z\u00fcrich", "addr:country": "CH", "addr:housenumber": "15", "addr:postcode": "8004", "addr:street": "Kanzleistrasse"}}, {"type": "node", "id": 890983594, "lat": 47.3736265, "lon": 8.5274815}, {"type": "node", "id": 890983621, "lat": 47.3738654, "lon": 8.5276716}, {"type": "node", "id": 890983654, "lat": 47.3738394, "lon": 8.52796, "tags": {"addr:city": "Z\u00fcrich", "addr:country": "CH", "addr:housenumber": "7", "addr:postcode": "8004", "addr:street": "St. Jakobstrasse"}}, {"type": "node", "id": 890983681, "lat": 47.3739572, "lon": 8.527291, "tags": {"addr:city": "Z\u00fcrich", "addr:country": "CH", "addr:housenumber": "17", "addr:postcode": "8004", "addr:street": "Kanzleistrasse"}}, {"type": "node", "id": 3461321815, "lat": 47.3734133, "lon": 8.527754}, {"type": "node", "id": 3461321816, "lat": 47.3734979, "lon": 8.5278166}, {"type": "node", "id": 3461321820, "lat": 47.3735199, "lon": 8.5278137}, {"type": "node", "id": 3461321822, "lat": 47.3735382, "lon": 8.5278017}, {"type": "node", "id": 3461321827, "lat": 47.3736205, "lon": 8.5274971}, {"type": "node", "id": 3461321828, "lat": 47.3735925, "lon": 8.5274761}, {"type": "node", "id": 3461321829, "lat": 47.3735978, "lon": 8.5274604}, {"type": "node", "id": 3461321830, "lat": 47.3735958, "lon": 8.5272238}, {"type": "node", "id": 3461321832, "lat": 47.3736033, "lon": 8.5277418}, {"type": "node", "id": 3461321836, "lat": 47.3736152, "lon": 8.5275201}, {"type": "node", "id": 3461321838, "lat": 47.37372, "lon": 8.5275953}, {"type": "node", "id": 3461321839, "lat": 47.3736904, "lon": 8.5272935}, {"type": "node", "id": 3461321842, "lat": 47.3737353, "lon": 8.5273717}, {"type": "node", "id": 3461321846, "lat": 47.3737589, "lon": 8.5278089}, {"type": "node", "id": 3461321856, "lat": 47.3738227, "lon": 8.5272586}, {"type": "node", "id": 3461321864, "lat": 47.3738838, "lon": 8.5280291}, {"type": "node", "id": 3461321865, "lat": 47.3738915, "lon": 8.5273758}, {"type": "node", "id": 3461321872, "lat": 47.3739527, "lon": 8.5279199}, {"type": "node", "id": 3461321875, "lat": 47.3740144, "lon": 8.5277253}, {"type": "node", "id": 3461321879, "lat": 47.3740387, "lon": 8.5271859}, {"type": "node", "id": 3461321880, "lat": 47.3740376, "lon": 8.5277655}, {"type": "way", "id": 34346881, "nodes": [3461321872, 393961474, 3461321880, 3461321875, 393961475, 393961468, 890983621, 3461321846, 393961469, 890983654, 3461321864, 3461321872], "tags": {"building": "yes"}}, {"type": "way", "id": 75470571, "nodes": [357213904, 357213905, 890983594, 3461321829, 3461321828, 357213810, 357213904], "tags": {"addr:city": "Z\u00fcrich", "addr:country": "CH", "addr:housenumber": "64", "addr:postcode": "8004", "addr:street": "Badenerstrasse", "building": "yes"}}, {"type": "way", "id": 338944148, "nodes": [3461321828, 3461321827, 3461321836, 3461321838, 3461321832, 3461321822, 3461321820, 3461321816, 3461321815, 357213810, 3461321828], "tags": {"addr:city": "Z\u00fcrich", "addr:postcode": "8004", "building": "apartments"}}, {"type": "way", "id": 338944156, "nodes": [3461321830, 357213904, 357213905, 3461321839, 3461321830], "tags": {"addr:city": "Z\u00fcrich", "addr:country": "CH", "addr:housenumber": "66", "addr:postcode": "8004", "addr:street": "Badenerstrasse", "building": "yes"}}, {"type": "way", "id": 338944169, "nodes": [3461321865, 890983681, 3461321879, 393961430, 3461321856, 3461321865], "tags": {"building": "yes"}}, {"type": "way", "id": 338944175, "nodes": [3461321856, 3461321842, 393961432, 393961434, 890983572, 3461321865, 3461321856], "tags": {"building": "yes"}}]}