{"version": 0.6, "generator": "Overpass API 0.7.60.6 e2dc3e5b", "osm3s": {"timestamp_osm_base": "2023-06-29T15:20:01Z", "copyright": "The data included in this document is from www.openstreetmap.org. The data is made available under ODbL."}, "elements": [{"type": "node", "id": 1042923513, "lat": 47.3701278, "lon": 8.5415463}, {"type": "node", "id": 1042923521, "lat": 47.3701242, "lon": 8.541665}, {"type": "node", "id": 1042923524, "lat": 47.3703113, "lon": 8.5418583}, {"type": "node", "id": 1042923541, "lat": 47.3701961, "lon": 8.5416052}, {"type": "node", "id": 1042923554, "lat": 47.3702964, "lon": 8.5416381}, {"type": "node", "id": 1042923557, "lat": 47.3702228, "lon": 8.5416054}, {"type": "node", "id": 1042923602, "lat": 47.3701989, "lon": 8.5415354}, {"type": "node", "id": 1042923615, "lat": 47.3699524, "lon": 8.5415357}, {"type": "node", "id": 1042923618, "lat": 47.3702219, "lon": 8.5418657}, {"type": "node", "id": 1042923643, "lat": 47.3701967, "lon": 8.5415467}, {"type": "node", "id": 1042923661, "lat": 47.3700217, "lon": 8.5416582}, {"type": "node", "id": 1042923675, "lat": 47.3699397, "lon": 8.5418507}, {"type": "node", "id": 1042923707, "lat": 47.370194, "lon": 8.5413849}, {"type": "node", "id": 1042923717, "lat": 47.3700236, "lon": 8.5415386}, {"type": "node", "id": 1042923727, "lat": 47.3703089, "lon": 8.5415768}, {"type": "node", "id": 2927417947, "lat": 47.3703002, "lon": 8.5416986, "tags": {"addr:city": "Z\u00fcrich", "addr:country": "CH", "addr:housenumber": "1", "addr:postcode": "8001", "addr:street": "K\u00e4mbelgasse"}}, {"type": "node", "id": 2927417948, "lat": 47.3700807, "lon": 8.5418583, "tags": {"addr:city": "Z\u00fcrich", "addr:country": "CH", "addr:housenumber": "1", "addr:postcode": "8001", "addr:street": "W\u00fchre"}}, {"type": "node", "id": 2927417951, "lat": 47.3703414, "lon": 8.541811, "tags": {"addr:city": "Z\u00fcrich", "addr:country": "CH", "addr:housenumber": "2", "addr:postcode": "8001", "addr:street": "K\u00e4mbelgasse"}}, {"type": "node", "id": 2927417952, "lat": 47.3699461, "lon": 8.5416931, "tags": {"addr:city": "Z\u00fcrich", "addr:country": "CH", "addr:housenumber": "20", "addr:postcode": "8001", "addr:street": "M\u00fcnsterhof"}}, {"type": "node", "id": 2927417953, "lat": 47.3702665, "lon": 8.5418621, "tags": {"addr:city": "Z\u00fcrich", "addr:country": "CH", "addr:housenumber": "3", "addr:postcode": "8001", "addr:street": "W\u00fchre"}}, {"type": "node", "id": 2927417956, "lat": 47.3703939, "lon": 8.5418902, "tags": {"addr:city": "Z\u00fcrich", "addr:country": "CH", "addr:housenumber": "6", "addr:postcode": "8001", "addr:street": "W\u00fchre"}}, {"type": "node", "id": 2927417962, "lat": 47.3700467, "lon": 8.5416599}, {"type": "node", "id": 2927417963, "lat": 47.3700517, "lon": 8.5416548}, {"type": "node", "id": 2927417965, "lat": 47.370093, "lon": 8.5416559}, {"type": "node", "id": 2927417966, "lat": 47.3700976, "lon": 8.5416639}, {"type": "node", "id": 2927417970, "lat": 47.3702115, "lon": 8.5413841}, {"type": "node", "id": 2927417971, "lat": 47.3702181, "lon": 8.5417363}, {"type": "node", "id": 2927417972, "lat": 47.3702189, "lon": 8.5417773}, {"type": "node", "id": 2927417973, "lat": 47.3702216, "lon": 8.541534}, {"type": "node", "id": 2927417974, "lat": 47.3702324, "lon": 8.5416023}, {"type": "node", "id": 2927417975, "lat": 47.3702339, "lon": 8.5417756}, {"type": "node", "id": 2927417976, "lat": 47.3702347, "lon": 8.5416434}, {"type": "node", "id": 2927417977, "lat": 47.3702926, "lon": 8.5415773}, {"type": "node", "id": 2927417978, "lat": 47.3703088, "lon": 8.5413812}, {"type": "node", "id": 2927417982, "lat": 47.3703323, "lon": 8.5415599}, {"type": "node", "id": 2927417983, "lat": 47.370334, "lon": 8.5417251}, {"type": "node", "id": 2927417984, "lat": 47.3703487, "lon": 8.5418976}, {"type": "node", "id": 2927417985, "lat": 47.3704093, "lon": 8.5415462}, {"type": "node", "id": 2927417986, "lat": 47.3704167, "lon": 8.5416431}, {"type": "node", "id": 2927417987, "lat": 47.3704208, "lon": 8.5416969}, {"type": "node", "id": 2927417989, "lat": 47.3704371, "lon": 8.541877}, {"type": "node", "id": 2927417990, "lat": 47.3704377, "lon": 8.5418847}, {"type": "node", "id": 2927417993, "lat": 47.3704445, "lon": 8.5416949}, {"type": "node", "id": 2927417996, "lat": 47.3704582, "lon": 8.5418641}, {"type": "node", "id": 3561463031, "lat": 47.3703088, "lon": 8.5414083, "tags": {"addr:housenumber": "19a", "addr:street": "M\u00fcnsterhof", "entrance": "yes"}}, {"type": "node", "id": 6109097525, "lat": 47.3701989, "lon": 8.5415095, "tags": {"addr:city": "Z\u00fcrich", "addr:country": "CH", "addr:housenumber": "19", "addr:postcode": "8001", "addr:street": "M\u00fcnsterhof", "entrance": "yes"}}, {"type": "way", "id": 89973397, "nodes": [1042923554, 2927417947, 1042923524, 2927417953, 1042923618, 2927417972, 2927417975, 2927417976, 1042923554], "tags": {"addr:city": "Z\u00fcrich", "addr:country": "CH", "addr:postcode": "8001", "building": "yes", "source": "Stadt Z\u00fcrich Open Government Data; Geomatik + Vermessung; Tiefbau- und Entsorgungsdepartement"}}, {"type": "way", "id": 89973398, "nodes": [1042923643, 1042923541, 1042923557, 2927417971, 2927417972, 1042923618, 2927417948, 1042923675, 2927417952, 1042923615, 1042923717, 1042923661, 2927417962, 2927417963, 2927417965, 2927417966, 1042923521, 1042923513, 1042923643], "tags": {"addr:city": "Z\u00fcrich", "addr:country": "CH", "addr:postcode": "8001", "building": "yes", "building:levels": "3", "name": "Zunfthaus zur Meisen", "roof:levels": "1", "source": "Stadt Z\u00fcrich Open Government Data; Geomatik + Vermessung; Tiefbau- und Entsorgungsdepartement"}}, {"type": "way", "id": 289190134, "nodes": [2927417983, 2927417951, 2927417984, 2927417956, 2927417990, 2927417989, 2927417996, 2927417993, 2927417987, 2927417983], "tags": {"addr:city": "Z\u00fcrich", "addr:country": "CH", "addr:postcode": "8001", "building": "yes", "source": "Stadt Z\u00fcrich Open Government Data; Geomatik + Vermessung; Tiefbau- und Entsorgungsdepartement"}}, {"type": "way", "id": 289190135, "nodes": [2927417978, 3561463031, 1042923727, 2927417977, 1042923554, 2927417976, 2927417974, 2927417973, 1042923602, 6109097525, 1042923707, 2927417970, 2927417978], "tags": {"building": "yes", "building:levels": "5", "source": "Stadt Z\u00fcrich Open Government Data; Geomatik + Vermessung; Tiefbau- und Entsorgungsdepartement"}}, {"type": "way", "id": 289190137, "nodes": [2927417985, 2927417982, 2927417983, 2927417987, 2927417986, 2927417985], "tags": {"addr:city": "Z\u00fcrich", "addr:country": "CH", "addr:housenumber": "4", "addr:postcode": "8001", "addr:street": "K\u00e4mbelgasse", "building": "yes", "source": "Stadt Z\u00fcrich Open Government Data; Geomatik + Vermessung; Tiefbau- und Entsorgungsdepartement"}}]}