{"version": 0.6, "generator": "Overpass API 0.7.60.6 e2dc3e5b", "osm3s": {"timestamp_osm_base": "2023-06-29T15:22:02Z", "copyright": "The data included in this document is from www.openstreetmap.org. The data is made available under ODbL."}, "elements": [{"type": "node", "id": 268493470, "lat": 47.3709723, "lon": 8.5404994}, {"type": "node", "id": 268493485, "lat": 47.3711797, "lon": 8.5410276}, {"type": "node", "id": 268493490, "lat": 47.3711723, "lon": 8.5409707}, {"type": "node", "id": 268493491, "lat": 47.3712241, "lon": 8.5408948}, {"type": "node", "id": 268493492, "lat": 47.3711657, "lon": 8.5404448}, {"type": "node", "id": 921424462, "lat": 47.3723988, "lon": 8.5410589}, {"type": "node", "id": 1013992340, "lat": 47.3710034, "lon": 8.540739}, {"type": "node", "id": 1037301307, "lat": 47.3725377, "lon": 8.5398384}, {"type": "node", "id": 1037301391, "lat": 47.3725002, "lon": 8.5396273}, {"type": "node", "id": 1037539431, "lat": 47.3720075, "lon": 8.5397547}, {"type": "node", "id": 1037539457, "lat": 47.3721415, "lon": 8.5403085}, {"type": "node", "id": 1037539542, "lat": 47.3717601, "lon": 8.5396342}, {"type": "node", "id": 1037539557, "lat": 47.3720837, "lon": 8.5400893}, {"type": "node", "id": 1037539562, "lat": 47.3722189, "lon": 8.5400457}, {"type": "node", "id": 1037539601, "lat": 47.3719697, "lon": 8.5398135}, {"type": "node", "id": 1037539612, "lat": 47.3722459, "lon": 8.5403214}, {"type": "node", "id": 1037539677, "lat": 47.3717698, "lon": 8.5396353}, {"type": "node", "id": 1037539700, "lat": 47.3719955, "lon": 8.5404628}, {"type": "node", "id": 1037539705, "lat": 47.3722363, "lon": 8.5404183}, {"type": "node", "id": 1037539707, "lat": 47.3719762, "lon": 8.5399202}, {"type": "node", "id": 1037539710, "lat": 47.372128, "lon": 8.5401558}, {"type": "node", "id": 1037539726, "lat": 47.3718344, "lon": 8.5398898}, {"type": "node", "id": 1037539820, "lat": 47.3720966, "lon": 8.5397487}, {"type": "node", "id": 1037539821, "lat": 47.3719942, "lon": 8.5403352}, {"type": "node", "id": 1037539961, "lat": 47.3721316, "lon": 8.540399}, {"type": "node", "id": 1037539983, "lat": 47.3722581, "lon": 8.5402142}, {"type": "node", "id": 1037540019, "lat": 47.3721652, "lon": 8.5402331}, {"type": "node", "id": 1037540068, "lat": 47.3721773, "lon": 8.5399498}, {"type": "node", "id": 1041911395, "lat": 47.3714246, "lon": 8.5398739}, {"type": "node", "id": 1041911469, "lat": 47.3712782, "lon": 8.5397977}, {"type": "node", "id": 1041911502, "lat": 47.3714667, "lon": 8.5400007}, {"type": "node", "id": 1041911554, "lat": 47.3715947, "lon": 8.54001}, {"type": "node", "id": 1041911599, "lat": 47.3713935, "lon": 8.5403258}, {"type": "node", "id": 1041911654, "lat": 47.3717409, "lon": 8.5407243}, {"type": "node", "id": 1041911666, "lat": 47.3714408, "lon": 8.5399281}, {"type": "node", "id": 1041911695, "lat": 47.3713603, "lon": 8.5394488}, {"type": "node", "id": 1041911707, "lat": 47.3713988, "lon": 8.5396759}, {"type": "node", "id": 1041911717, "lat": 47.3716882, "lon": 8.5396673}, {"type": "node", "id": 1041911801, "lat": 47.3719515, "lon": 8.540376}, {"type": "node", "id": 1041911804, "lat": 47.3713004, "lon": 8.5392115}, {"type": "node", "id": 1041911827, "lat": 47.371748, "lon": 8.5408052}, {"type": "node", "id": 1041911834, "lat": 47.371265, "lon": 8.5397994}, {"type": "node", "id": 1041911874, "lat": 47.371758, "lon": 8.540067}, {"type": "node", "id": 1041911876, "lat": 47.3713176, "lon": 8.539311}, {"type": "node", "id": 1041911882, "lat": 47.3715232, "lon": 8.5403268}, {"type": "node", "id": 1041911935, "lat": 47.3718681, "lon": 8.5404919}, {"type": "node", "id": 1041911952, "lat": 47.3714811, "lon": 8.5400402}, {"type": "node", "id": 1041911972, "lat": 47.37158, "lon": 8.539744}, {"type": "node", "id": 1041911989, "lat": 47.3713533, "lon": 8.5401044}, {"type": "node", "id": 1041912035, "lat": 47.3717205, "lon": 8.5405481}, {"type": "node", "id": 1041912040, "lat": 47.3713874, "lon": 8.540053}, {"type": "node", "id": 1041912048, "lat": 47.3713379, "lon": 8.5404974}, {"type": "node", "id": 1041912132, "lat": 47.3714658, "lon": 8.54048}, {"type": "node", "id": 1041912158, "lat": 47.3715746, "lon": 8.5399591}, {"type": "node", "id": 1041912174, "lat": 47.3719557, "lon": 8.5404693}, {"type": "node", "id": 1041912219, "lat": 47.3714281, "lon": 8.5397705}, {"type": "node", "id": 1041912225, "lat": 47.3715334, "lon": 8.5398564}, {"type": "node", "id": 1041912299, "lat": 47.3716583, "lon": 8.5401602}, {"type": "node", "id": 1041912311, "lat": 47.3715395, "lon": 8.5404972}, {"type": "node", "id": 1041912313, "lat": 47.3717912, "lon": 8.5404263}, {"type": "node", "id": 1041912415, "lat": 47.371186, "lon": 8.5393283}, {"type": "node", "id": 1041912486, "lat": 47.3718211, "lon": 8.5405935}, {"type": "node", "id": 1041912509, "lat": 47.3713979, "lon": 8.5404185}, {"type": "node", "id": 1041912578, "lat": 47.3714914, "lon": 8.5401471}, {"type": "node", "id": 1041912638, "lat": 47.3713021, "lon": 8.5398771}, {"type": "node", "id": 1041912752, "lat": 47.371805, "lon": 8.540513}, {"type": "node", "id": 1041912755, "lat": 47.3717361, "lon": 8.5398874}, {"type": "node", "id": 1041912804, "lat": 47.3712277, "lon": 8.5393102}, {"type": "node", "id": 1041912808, "lat": 47.3715151, "lon": 8.5402672}, {"type": "node", "id": 1041912862, "lat": 47.37183, "lon": 8.540713}, {"type": "node", "id": 1041912912, "lat": 47.3714698, "lon": 8.5405097}, {"type": "node", "id": 1041913039, "lat": 47.3718392, "lon": 8.5407938}, {"type": "node", "id": 1041996179, "lat": 47.3709546, "lon": 8.5405886}, {"type": "node", "id": 1041996234, "lat": 47.3712215, "lon": 8.5406248}, {"type": "node", "id": 1041996236, "lat": 47.3711962, "lon": 8.5400796}, {"type": "node", "id": 1041996251, "lat": 47.371028, "lon": 8.5400927}, {"type": "node", "id": 1041996274, "lat": 47.3709678, "lon": 8.5406905}, {"type": "node", "id": 1041996279, "lat": 47.3711672, "lon": 8.5399005}, {"type": "node", "id": 1041996305, "lat": 47.3711902, "lon": 8.5406336}, {"type": "node", "id": 1041996307, "lat": 47.3710328, "lon": 8.5401341}, {"type": "node", "id": 1041996317, "lat": 47.3709453, "lon": 8.5405351}, {"type": "node", "id": 1041996328, "lat": 47.3709497, "lon": 8.5400736}, {"type": "node", "id": 1041996417, "lat": 47.3711775, "lon": 8.5405355}, {"type": "node", "id": 1041996420, "lat": 47.371069, "lon": 8.5402911}, {"type": "node", "id": 1041996426, "lat": 47.3710485, "lon": 8.5401295}, {"type": "node", "id": 1041996449, "lat": 47.3709829, "lon": 8.5405806}, {"type": "node", "id": 1041996463, "lat": 47.3709341, "lon": 8.5399976}, {"type": "node", "id": 1041996470, "lat": 47.3711005, "lon": 8.5404632}, {"type": "node", "id": 1041996481, "lat": 47.3712088, "lon": 8.5405266}, {"type": "node", "id": 1041996483, "lat": 47.3712104, "lon": 8.5401787}, {"type": "node", "id": 1041996491, "lat": 47.3710402, "lon": 8.5400874}, {"type": "node", "id": 1516540541, "lat": 47.3722241, "lon": 8.5399124, "tags": {"addr:city": "Z\u00fcrich", "addr:country": "CH", "addr:housenumber": "6", "addr:postcode": "8001", "addr:street": "Widdergasse"}}, {"type": "node", "id": 1516540556, "lat": 47.3721273, "lon": 8.5398274, "tags": {"addr:city": "Z\u00fcrich", "addr:country": "CH", "addr:housenumber": "7", "addr:postcode": "8001", "addr:street": "Widdergasse"}}, {"type": "node", "id": 1852219843, "lat": 47.3710957, "lon": 8.5410513}, {"type": "node", "id": 2205041340, "lat": 47.3719433, "lon": 8.5407157, "tags": {"addr:city": "Z\u00fcrich", "addr:country": "CH", "addr:housenumber": "1", "addr:postcode": "8001", "addr:street": "Glockengasse"}}, {"type": "node", "id": 2205041359, "lat": 47.3723362, "lon": 8.5409024, "tags": {"addr:city": "Z\u00fcrich", "addr:country": "CH", "addr:housenumber": "15", "addr:postcode": "8001", "addr:street": "Wohllebgasse"}}, {"type": "node", "id": 2205041366, "lat": 47.3719413, "lon": 8.5408855, "tags": {"addr:city": "Z\u00fcrich", "addr:country": "CH", "addr:housenumber": "19", "addr:postcode": "8001", "addr:street": "Strehlgasse"}}, {"type": "node", "id": 2205041374, "lat": 47.3722908, "lon": 8.5407952, "tags": {"addr:city": "Z\u00fcrich", "addr:country": "CH", "addr:housenumber": "22", "addr:postcode": "8001", "addr:street": "Strehlgasse"}}, {"type": "node", "id": 2205041378, "lat": 47.3722853, "lon": 8.5406405, "tags": {"addr:city": "Z\u00fcrich", "addr:country": "CH", "addr:housenumber": "24", "addr:postcode": "8001", "addr:street": "Strehlgasse"}}, {"type": "node", "id": 2205041396, "lat": 47.371798, "lon": 8.5404696, "tags": {"addr:city": "Z\u00fcrich", "addr:country": "CH", "addr:housenumber": "5", "addr:postcode": "8001", "addr:street": "St. Peterhofstatt"}}, {"type": "node", "id": 2205041420, "lat": 47.3720852, "lon": 8.5410004, "tags": {"addr:city": "Z\u00fcrich", "addr:country": "CH", "addr:housenumber": "9", "addr:postcode": "8001", "addr:street": "Schwanengasse"}}, {"type": "node", "id": 2454047087, "lat": 47.3710302, "lon": 8.5409461}, {"type": "node", "id": 2917046560, "lat": 47.3723956, "lon": 8.540781, "tags": {"addr:city": "Z\u00fcrich", "addr:country": "CH", "addr:housenumber": "2", "addr:postcode": "8001", "addr:street": "Pfalzgasse"}}, {"type": "node", "id": 2917046563, "lat": 47.3724586, "lon": 8.5407721, "tags": {"addr:city": "Z\u00fcrich", "addr:country": "CH", "addr:housenumber": "4", "addr:postcode": "8001", "addr:street": "Pfalzgasse"}}, {"type": "node", "id": 2917046565, "lat": 47.3725325, "lon": 8.5407628, "tags": {"addr:city": "Z\u00fcrich", "addr:country": "CH", "addr:housenumber": "6", "addr:postcode": "8001", "addr:street": "Pfalzgasse"}}, {"type": "node", "id": 2917046567, "lat": 47.3723453, "lon": 8.5407882}, {"type": "node", "id": 2917046568, "lat": 47.3723773, "lon": 8.5409572}, {"type": "node", "id": 2917046570, "lat": 47.3723929, "lon": 8.5410606}, {"type": "node", "id": 2917046571, "lat": 47.3724294, "lon": 8.5409589}, {"type": "node", "id": 2917046572, "lat": 47.3724393, "lon": 8.5410472}, {"type": "node", "id": 2917046576, "lat": 47.3724695, "lon": 8.5409357}, {"type": "node", "id": 2917046577, "lat": 47.3724704, "lon": 8.5409441}, {"type": "node", "id": 2917046578, "lat": 47.3725038, "lon": 8.5409255}, {"type": "node", "id": 2917046582, "lat": 47.372517, "lon": 8.5410143}, {"type": "node", "id": 2917046586, "lat": 47.3725657, "lon": 8.5408858}, {"type": "node", "id": 2917046587, "lat": 47.3725671, "lon": 8.540759}, {"type": "node", "id": 2917046588, "lat": 47.372568, "lon": 8.5409982}, {"type": "node", "id": 2917046589, "lat": 47.3725697, "lon": 8.5408807}, {"type": "node", "id": 2917307819, "lat": 47.3720266, "lon": 8.5409294, "tags": {"addr:city": "Z\u00fcrich", "addr:country": "CH", "addr:housenumber": "14", "addr:postcode": "8001", "addr:street": "Strehlgasse"}}, {"type": "node", "id": 2917307846, "lat": 47.3719968, "lon": 8.5409883}, {"type": "node", "id": 2917307852, "lat": 47.3720251, "lon": 8.5410064}, {"type": "node", "id": 2917307853, "lat": 47.372027, "lon": 8.5410147}, {"type": "node", "id": 2917307857, "lat": 47.3720348, "lon": 8.5410251}, {"type": "node", "id": 2917307859, "lat": 47.3720661, "lon": 8.5410498}, {"type": "node", "id": 2917307860, "lat": 47.3720705, "lon": 8.5408822}, {"type": "node", "id": 2917307862, "lat": 47.3721048, "lon": 8.5409514}, {"type": "node", "id": 2917307875, "lat": 47.3721677, "lon": 8.5409836}, {"type": "node", "id": 2917307878, "lat": 47.3721856, "lon": 8.5408211}, {"type": "node", "id": 2917307881, "lat": 47.3722309, "lon": 8.540811}, {"type": "node", "id": 2917307882, "lat": 47.372232, "lon": 8.5409424}, {"type": "node", "id": 2917307883, "lat": 47.3722335, "lon": 8.5410186}, {"type": "node", "id": 2917307884, "lat": 47.3722372, "lon": 8.5409338}, {"type": "node", "id": 2917307887, "lat": 47.3722472, "lon": 8.5410248}, {"type": "node", "id": 2917307889, "lat": 47.372252, "lon": 8.5410178}, {"type": "node", "id": 2917307893, "lat": 47.3722762, "lon": 8.5407993}, {"type": "node", "id": 2917307897, "lat": 47.3722857, "lon": 8.5410108}, {"type": "node", "id": 2917307898, "lat": 47.3722872, "lon": 8.5410209}, {"type": "node", "id": 2917310404, "lat": 47.3723062, "lon": 8.54079}, {"type": "node", "id": 2917310405, "lat": 47.3723183, "lon": 8.5408001}, {"type": "node", "id": 2917310408, "lat": 47.3723546, "lon": 8.5410053}, {"type": "node", "id": 2917336520, "lat": 47.3724067, "lon": 8.5407062, "tags": {"addr:city": "Z\u00fcrich", "addr:country": "CH", "addr:housenumber": "1", "addr:postcode": "8001", "addr:street": "Pfalzgasse"}}, {"type": "node", "id": 2917336521, "lat": 47.372279, "lon": 8.5405735}, {"type": "node", "id": 2917336522, "lat": 47.3722866, "lon": 8.5407134}, {"type": "node", "id": 2917336523, "lat": 47.372289, "lon": 8.54073}, {"type": "node", "id": 2917336524, "lat": 47.3722894, "lon": 8.5404735}, {"type": "node", "id": 2917336525, "lat": 47.3722906, "lon": 8.5407092}, {"type": "node", "id": 2917336526, "lat": 47.3723011, "lon": 8.5407288}, {"type": "node", "id": 2917336527, "lat": 47.3723052, "lon": 8.5407211}, {"type": "node", "id": 2917336528, "lat": 47.3723377, "lon": 8.5404103}, {"type": "node", "id": 2917336529, "lat": 47.3723379, "lon": 8.5404005}, {"type": "node", "id": 2917336530, "lat": 47.3723469, "lon": 8.5402833}, {"type": "node", "id": 2917336531, "lat": 47.3723713, "lon": 8.54033}, {"type": "node", "id": 2917336532, "lat": 47.3723888, "lon": 8.5404246}, {"type": "node", "id": 2917336533, "lat": 47.3724136, "lon": 8.5404109}, {"type": "node", "id": 2917336534, "lat": 47.3724192, "lon": 8.5405717}, {"type": "node", "id": 2917336535, "lat": 47.3724196, "lon": 8.5404735}, {"type": "node", "id": 2917336536, "lat": 47.3724206, "lon": 8.5404013}, {"type": "node", "id": 2917336537, "lat": 47.372425, "lon": 8.5401827}, {"type": "node", "id": 2917336538, "lat": 47.3724251, "lon": 8.5403951}, {"type": "node", "id": 2917336539, "lat": 47.37243, "lon": 8.5404234}, {"type": "node", "id": 2917336540, "lat": 47.3724368, "lon": 8.5404023}, {"type": "node", "id": 2917336541, "lat": 47.3724449, "lon": 8.5403865}, {"type": "node", "id": 2917336542, "lat": 47.3724513, "lon": 8.5403969}, {"type": "node", "id": 2917336543, "lat": 47.3724628, "lon": 8.5403386}, {"type": "node", "id": 2917336544, "lat": 47.3724642, "lon": 8.5404658}, {"type": "node", "id": 2917336545, "lat": 47.3724664, "lon": 8.5403567}, {"type": "node", "id": 2917336546, "lat": 47.372467, "lon": 8.5403448}, {"type": "node", "id": 2917336547, "lat": 47.3724699, "lon": 8.5405633}, {"type": "node", "id": 2917336548, "lat": 47.3724706, "lon": 8.5405765}, {"type": "node", "id": 2917336549, "lat": 47.3724763, "lon": 8.5405812}, {"type": "node", "id": 2917336550, "lat": 47.3724803, "lon": 8.540371}, {"type": "node", "id": 2917336551, "lat": 47.3724805, "lon": 8.5401028}, {"type": "node", "id": 2917336552, "lat": 47.3724808, "lon": 8.5403195}, {"type": "node", "id": 2917336554, "lat": 47.3724823, "lon": 8.540705}, {"type": "node", "id": 2917336555, "lat": 47.3724905, "lon": 8.5404191}, {"type": "node", "id": 2917336556, "lat": 47.3724951, "lon": 8.5403062}, {"type": "node", "id": 2917336557, "lat": 47.3725069, "lon": 8.5403429}, {"type": "node", "id": 2917336559, "lat": 47.3725333, "lon": 8.5403304}, {"type": "node", "id": 2917336561, "lat": 47.3725438, "lon": 8.5402585}, {"type": "node", "id": 2917336563, "lat": 47.3725468, "lon": 8.540417}, {"type": "node", "id": 2920747282, "lat": 47.3723541, "lon": 8.540002, "tags": {"addr:city": "Z\u00fcrich", "addr:country": "CH", "addr:housenumber": "1", "addr:postcode": "8001", "addr:street": "Rennweg"}}, {"type": "node", "id": 2920747285, "lat": 47.3724323, "lon": 8.5399361, "tags": {"addr:city": "Z\u00fcrich", "addr:country": "CH", "addr:housenumber": "3", "addr:postcode": "8001", "addr:street": "Rennweg"}}, {"type": "node", "id": 2920747286, "lat": 47.3725072, "lon": 8.5398737, "tags": {"addr:city": "Z\u00fcrich", "addr:country": "CH", "addr:housenumber": "7", "addr:postcode": "8001", "addr:street": "Rennweg"}}, {"type": "node", "id": 2920747291, "lat": 47.3721714, "lon": 8.5397572}, {"type": "node", "id": 2920747292, "lat": 47.3721858, "lon": 8.5394403}, {"type": "node", "id": 2920747297, "lat": 47.3722308, "lon": 8.5392909}, {"type": "node", "id": 2920747506, "lat": 47.3722725, "lon": 8.5396936}, {"type": "node", "id": 2920747508, "lat": 47.3722763, "lon": 8.5400684}, {"type": "node", "id": 2920747509, "lat": 47.3722779, "lon": 8.5394707}, {"type": "node", "id": 2920747510, "lat": 47.3722892, "lon": 8.5395577}, {"type": "node", "id": 2920747511, "lat": 47.3722973, "lon": 8.5396191}, {"type": "node", "id": 2920747512, "lat": 47.3722995, "lon": 8.5396364}, {"type": "node", "id": 2920747514, "lat": 47.3723041, "lon": 8.5396402}, {"type": "node", "id": 2920747516, "lat": 47.3723092, "lon": 8.5396744}, {"type": "node", "id": 2920747518, "lat": 47.3723235, "lon": 8.5393517}, {"type": "node", "id": 2920747519, "lat": 47.3723303, "lon": 8.5394885}, {"type": "node", "id": 2920747520, "lat": 47.3723368, "lon": 8.5395193}, {"type": "node", "id": 2920747521, "lat": 47.3723494, "lon": 8.5393916}, {"type": "node", "id": 2920747522, "lat": 47.3723624, "lon": 8.5393533}, {"type": "node", "id": 2920747523, "lat": 47.3723642, "lon": 8.5396146}, {"type": "node", "id": 2920747524, "lat": 47.3723653, "lon": 8.5394326}, {"type": "node", "id": 2920747525, "lat": 47.3723736, "lon": 8.5395044}, {"type": "node", "id": 2920747527, "lat": 47.3723804, "lon": 8.5396885}, {"type": "node", "id": 2920747529, "lat": 47.3723901, "lon": 8.5394422}, {"type": "node", "id": 2920747530, "lat": 47.3723912, "lon": 8.5396023}, {"type": "node", "id": 2920747539, "lat": 47.37241, "lon": 8.5393608}, {"type": "node", "id": 2920747541, "lat": 47.3724121, "lon": 8.539415}, {"type": "node", "id": 2920747542, "lat": 47.3724157, "lon": 8.5394422}, {"type": "node", "id": 2920747548, "lat": 47.3724273, "lon": 8.5396593}, {"type": "node", "id": 2920747550, "lat": 47.372433, "lon": 8.5396773}, {"type": "node", "id": 2920747560, "lat": 47.3724867, "lon": 8.53963}, {"type": "node", "id": 2920747561, "lat": 47.3724892, "lon": 8.5396507}, {"type": "node", "id": 2920747577, "lat": 47.3725393, "lon": 8.5398466}, {"type": "node", "id": 2924910147, "lat": 47.3720368, "lon": 8.5398343, "tags": {"addr:city": "Z\u00fcrich", "addr:country": "CH", "addr:housenumber": "16", "addr:postcode": "8001", "addr:street": "Augustinergasse"}}, {"type": "node", "id": 2924910150, "lat": 47.37216, "lon": 8.5399064, "tags": {"addr:city": "Z\u00fcrich", "addr:country": "CH", "addr:housenumber": "5", "addr:postcode": "8001", "addr:street": "Widdergasse"}}, {"type": "node", "id": 2924910165, "lat": 47.3719748, "lon": 8.5399336}, {"type": "node", "id": 2924910169, "lat": 47.3720071, "lon": 8.5399833}, {"type": "node", "id": 2924910170, "lat": 47.3720119, "lon": 8.5399837}, {"type": "node", "id": 2924910184, "lat": 47.3721517, "lon": 8.5402001}, {"type": "node", "id": 2925696793, "lat": 47.3719534, "lon": 8.5404226, "tags": {"addr:city": "Z\u00fcrich", "addr:country": "CH", "addr:housenumber": "7", "addr:postcode": "8001", "addr:street": "Glockengasse"}}, {"type": "node", "id": 2925696800, "lat": 47.3715505, "lon": 8.5402951}, {"type": "node", "id": 2925699973, "lat": 47.371217, "lon": 8.5392441}, {"type": "node", "id": 2925699978, "lat": 47.3713451, "lon": 8.5394535}, {"type": "node", "id": 2925699980, "lat": 47.371357, "lon": 8.5395247}, {"type": "node", "id": 2925699982, "lat": 47.3713617, "lon": 8.5395522}, {"type": "node", "id": 2925699987, "lat": 47.3713837, "lon": 8.539683}, {"type": "node", "id": 2925699998, "lat": 47.3714094, "lon": 8.5397831}, {"type": "node", "id": 2925699999, "lat": 47.3714139, "lon": 8.5398005}, {"type": "node", "id": 2925715580, "lat": 47.3715165, "lon": 8.5401255, "tags": {"addr:city": "Z\u00fcrich", "addr:country": "CH", "addr:housenumber": "3", "addr:postcode": "8001", "addr:street": "Augustinergasse"}}, {"type": "node", "id": 2925715581, "lat": 47.3715838, "lon": 8.5400688, "tags": {"addr:city": "Z\u00fcrich", "addr:country": "CH", "addr:housenumber": "5", "addr:postcode": "8001", "addr:street": "Augustinergasse"}}, {"type": "node", "id": 2925715583, "lat": 47.3712914, "lon": 8.5399623}, {"type": "node", "id": 2925715584, "lat": 47.3713066, "lon": 8.5400066}, {"type": "node", "id": 2925715585, "lat": 47.3713324, "lon": 8.5404277}, {"type": "node", "id": 2925715587, "lat": 47.3713633, "lon": 8.5399699}, {"type": "node", "id": 2925715588, "lat": 47.371386, "lon": 8.5403284}, {"type": "node", "id": 2925715589, "lat": 47.3714595, "lon": 8.540058}, {"type": "node", "id": 2925715590, "lat": 47.3716004, "lon": 8.5400548}, {"type": "node", "id": 2925715591, "lat": 47.3716076, "lon": 8.5400414}, {"type": "node", "id": 2925715592, "lat": 47.3716417, "lon": 8.5398995}, {"type": "node", "id": 2925715593, "lat": 47.3716632, "lon": 8.5399514}, {"type": "node", "id": 2925715594, "lat": 47.3716666, "lon": 8.5399563}, {"type": "node", "id": 2925715595, "lat": 47.3717372, "lon": 8.5398952}, {"type": "node", "id": 2925715596, "lat": 47.3717493, "lon": 8.5398836}, {"type": "node", "id": 2925715597, "lat": 47.3717547, "lon": 8.5400004}, {"type": "node", "id": 2925715598, "lat": 47.3717632, "lon": 8.5399377}, {"type": "node", "id": 2925715599, "lat": 47.3717805, "lon": 8.5399297}, {"type": "node", "id": 2925716401, "lat": 47.3717923, "lon": 8.5399811}, {"type": "node", "id": 2925754101, "lat": 47.3715536, "lon": 8.5403588}, {"type": "node", "id": 2925754102, "lat": 47.3715583, "lon": 8.5403559}, {"type": "node", "id": 2925754103, "lat": 47.3715623, "lon": 8.5404317}, {"type": "node", "id": 2925754104, "lat": 47.3715752, "lon": 8.5405429}, {"type": "node", "id": 2925754105, "lat": 47.371585, "lon": 8.5405788}, {"type": "node", "id": 2925754106, "lat": 47.3715885, "lon": 8.5403385}, {"type": "node", "id": 2925754107, "lat": 47.3716242, "lon": 8.5405568}, {"type": "node", "id": 2925754108, "lat": 47.3716254, "lon": 8.5405696}, {"type": "node", "id": 2925754109, "lat": 47.3716309, "lon": 8.5402343}, {"type": "node", "id": 2925754111, "lat": 47.3716375, "lon": 8.5404061}, {"type": "node", "id": 2925754112, "lat": 47.3716407, "lon": 8.5402285}, {"type": "node", "id": 2925754113, "lat": 47.3716506, "lon": 8.5405303}, {"type": "node", "id": 2925754114, "lat": 47.3716513, "lon": 8.5403072}, {"type": "node", "id": 2925754115, "lat": 47.3716529, "lon": 8.5405516}, {"type": "node", "id": 2925754116, "lat": 47.3716627, "lon": 8.5403976}, {"type": "node", "id": 2925754117, "lat": 47.3716888, "lon": 8.5403868}, {"type": "node", "id": 2925754118, "lat": 47.3716906, "lon": 8.5403397}, {"type": "node", "id": 2925754119, "lat": 47.3716964, "lon": 8.5403275}, {"type": "node", "id": 2925754121, "lat": 47.3716968, "lon": 8.5403366}, {"type": "node", "id": 2925754122, "lat": 47.3716973, "lon": 8.5403835}, {"type": "node", "id": 2925754123, "lat": 47.3717082, "lon": 8.540379}, {"type": "node", "id": 2925754124, "lat": 47.371725, "lon": 8.5405169}, {"type": "node", "id": 2925754126, "lat": 47.3717395, "lon": 8.5401399}, {"type": "node", "id": 2925754127, "lat": 47.3717556, "lon": 8.5402372}, {"type": "node", "id": 2925754128, "lat": 47.3717558, "lon": 8.5409116}, {"type": "node", "id": 2925754129, "lat": 47.3717646, "lon": 8.5403026}, {"type": "node", "id": 2925754130, "lat": 47.371778, "lon": 8.5404068}, {"type": "node", "id": 2925754133, "lat": 47.3717929, "lon": 8.540097}, {"type": "node", "id": 2925754134, "lat": 47.3717988, "lon": 8.5402516}, {"type": "node", "id": 2925754135, "lat": 47.3718046, "lon": 8.5402893}, {"type": "node", "id": 2925754136, "lat": 47.3718058, "lon": 8.5402024}, {"type": "node", "id": 2925754137, "lat": 47.3718066, "lon": 8.5402169}, {"type": "node", "id": 2925754138, "lat": 47.3718076, "lon": 8.5405286}, {"type": "node", "id": 2925754140, "lat": 47.3718105, "lon": 8.5402331}, {"type": "node", "id": 2925754142, "lat": 47.3718294, "lon": 8.5401862}, {"type": "node", "id": 2925754144, "lat": 47.37184, "lon": 8.5406745}, {"type": "node", "id": 2925754145, "lat": 47.3718415, "lon": 8.5400605}, {"type": "node", "id": 2925754146, "lat": 47.3718443, "lon": 8.5407089}, {"type": "node", "id": 2925754147, "lat": 47.3718473, "lon": 8.5408051}, {"type": "node", "id": 2925754148, "lat": 47.3718474, "lon": 8.5401312}, {"type": "node", "id": 2925754149, "lat": 47.3718509, "lon": 8.5409026}, {"type": "node", "id": 2925754150, "lat": 47.3718521, "lon": 8.5401735}, {"type": "node", "id": 2925754151, "lat": 47.371854, "lon": 8.5407973}, {"type": "node", "id": 2925754152, "lat": 47.3718612, "lon": 8.5409001}, {"type": "node", "id": 2925754153, "lat": 47.371869, "lon": 8.5405847}, {"type": "node", "id": 2925754154, "lat": 47.3718775, "lon": 8.5401213}, {"type": "node", "id": 2925754155, "lat": 47.3718783, "lon": 8.5406639}, {"type": "node", "id": 2925754156, "lat": 47.3718803, "lon": 8.5401735}, {"type": "node", "id": 2925754157, "lat": 47.3718807, "lon": 8.5402099}, {"type": "node", "id": 2925754158, "lat": 47.3718815, "lon": 8.5400391}, {"type": "node", "id": 2925754159, "lat": 47.3718816, "lon": 8.5406977}, {"type": "node", "id": 2925754160, "lat": 47.3718849, "lon": 8.5405817}, {"type": "node", "id": 2925754161, "lat": 47.3718882, "lon": 8.5405314}, {"type": "node", "id": 2925754162, "lat": 47.3718934, "lon": 8.5406942}, {"type": "node", "id": 2925754163, "lat": 47.3718944, "lon": 8.5407023}, {"type": "node", "id": 2925754164, "lat": 47.3719189, "lon": 8.5408891}, {"type": "node", "id": 2925754165, "lat": 47.3719202, "lon": 8.5404736}, {"type": "node", "id": 2925754166, "lat": 47.3719393, "lon": 8.5406896}, {"type": "node", "id": 2925754167, "lat": 47.3719416, "lon": 8.5403741}, {"type": "node", "id": 2925754168, "lat": 47.3719513, "lon": 8.5400281}, {"type": "node", "id": 2925754169, "lat": 47.3719552, "lon": 8.5400959}, {"type": "node", "id": 2925754170, "lat": 47.3719555, "lon": 8.54062}, {"type": "node", "id": 2925754171, "lat": 47.3719556, "lon": 8.5405267}, {"type": "node", "id": 2925754172, "lat": 47.3719568, "lon": 8.5401509}, {"type": "node", "id": 2925754173, "lat": 47.3719596, "lon": 8.5403478}, {"type": "node", "id": 2925754174, "lat": 47.3719605, "lon": 8.5406827}, {"type": "node", "id": 2925754175, "lat": 47.3719638, "lon": 8.5408821}, {"type": "node", "id": 2925754176, "lat": 47.3719667, "lon": 8.5408653}, {"type": "node", "id": 2925754178, "lat": 47.37199, "lon": 8.5408613}, {"type": "node", "id": 2925754179, "lat": 47.371993, "lon": 8.5406705}, {"type": "node", "id": 2925754180, "lat": 47.3719956, "lon": 8.5405858}, {"type": "node", "id": 2925754181, "lat": 47.3719958, "lon": 8.5404987}, {"type": "node", "id": 2925754182, "lat": 47.3720356, "lon": 8.5408429}, {"type": "node", "id": 2925754183, "lat": 47.3720378, "lon": 8.540592}, {"type": "node", "id": 2925754184, "lat": 47.3720388, "lon": 8.5406805}, {"type": "node", "id": 2925754185, "lat": 47.3720407, "lon": 8.5408356}, {"type": "node", "id": 2925754186, "lat": 47.3720428, "lon": 8.5405868}, {"type": "node", "id": 2925754187, "lat": 47.3720442, "lon": 8.5404945}, {"type": "node", "id": 2925754188, "lat": 47.3720504, "lon": 8.540683}, {"type": "node", "id": 2925754189, "lat": 47.3720512, "lon": 8.540491}, {"type": "node", "id": 2925754190, "lat": 47.3720519, "lon": 8.5406733}, {"type": "node", "id": 2925754191, "lat": 47.3720643, "lon": 8.5405927}, {"type": "node", "id": 2925754192, "lat": 47.3720802, "lon": 8.5404532}, {"type": "node", "id": 2925754193, "lat": 47.3720802, "lon": 8.5406823}, {"type": "node", "id": 2925754194, "lat": 47.3720816, "lon": 8.5404886}, {"type": "node", "id": 2925754195, "lat": 47.3720856, "lon": 8.5408166}, {"type": "node", "id": 2925754196, "lat": 47.3720869, "lon": 8.5406832}, {"type": "node", "id": 2925754197, "lat": 47.372089, "lon": 8.5404045}, {"type": "node", "id": 2925754198, "lat": 47.3720906, "lon": 8.540452}, {"type": "node", "id": 2925754199, "lat": 47.3720925, "lon": 8.5406908}, {"type": "node", "id": 2925754200, "lat": 47.3720944, "lon": 8.5403063}, {"type": "node", "id": 2925754201, "lat": 47.3720986, "lon": 8.5406022}, {"type": "node", "id": 2925754202, "lat": 47.3721086, "lon": 8.5404493}, {"type": "node", "id": 2925754203, "lat": 47.3721102, "lon": 8.5404893}, {"type": "node", "id": 2925754204, "lat": 47.3721194, "lon": 8.540608}, {"type": "node", "id": 2925754205, "lat": 47.3721227, "lon": 8.5406142}, {"type": "node", "id": 2925754206, "lat": 47.3721312, "lon": 8.5403809}, {"type": "node", "id": 2925754207, "lat": 47.3721392, "lon": 8.5407892}, {"type": "node", "id": 2925754208, "lat": 47.3721408, "lon": 8.5403807}, {"type": "node", "id": 2925754209, "lat": 47.3721575, "lon": 8.5407611}, {"type": "node", "id": 2925754210, "lat": 47.3721678, "lon": 8.5404935}, {"type": "node", "id": 2925754211, "lat": 47.3721764, "lon": 8.5407088}, {"type": "node", "id": 2925754212, "lat": 47.3721993, "lon": 8.5406305}, {"type": "node", "id": 2925754213, "lat": 47.3722216, "lon": 8.5405098}, {"type": "node", "id": 2925754214, "lat": 47.372228, "lon": 8.5405118}, {"type": "node", "id": 2926175167, "lat": 47.3708417, "lon": 8.5398902, "tags": {"addr:city": "Z\u00fcrich", "addr:country": "CH", "addr:housenumber": "3", "addr:postcode": "8001", "addr:street": "Zeugwartgasse"}}, {"type": "node", "id": 2926175168, "lat": 47.3708832, "lon": 8.5390053, "tags": {"addr:city": "Z\u00fcrich", "addr:country": "CH", "addr:housenumber": "32", "addr:postcode": "8001", "addr:street": "Bahnhofstrasse"}}, {"type": "node", "id": 2926175175, "lat": 47.370668, "lon": 8.5390859}, {"type": "node", "id": 2926175180, "lat": 47.3707378, "lon": 8.5394981}, {"type": "node", "id": 2926175181, "lat": 47.3707401, "lon": 8.5395148}, {"type": "node", "id": 2926175183, "lat": 47.3707729, "lon": 8.5396879}, {"type": "node", "id": 2926175184, "lat": 47.3708012, "lon": 8.5398333}, {"type": "node", "id": 2926175185, "lat": 47.3708289, "lon": 8.5398217}, {"type": "node", "id": 2926175186, "lat": 47.3708464, "lon": 8.5394781}, {"type": "node", "id": 2926175188, "lat": 47.3708744, "lon": 8.5396462}, {"type": "node", "id": 2926175189, "lat": 47.3709834, "lon": 8.5389682}, {"type": "node", "id": 2926175190, "lat": 47.3710209, "lon": 8.5392307}, {"type": "node", "id": 2926175191, "lat": 47.3710255, "lon": 8.539223}, {"type": "node", "id": 2926962993, "lat": 47.3708866, "lon": 8.5404108}, {"type": "node", "id": 2926963000, "lat": 47.3709564, "lon": 8.5400707}, {"type": "node", "id": 2926967201, "lat": 47.3709581, "lon": 8.540077}, {"type": "node", "id": 2926967202, "lat": 47.3709654, "lon": 8.5401596}, {"type": "node", "id": 2926967204, "lat": 47.3709704, "lon": 8.5401562}, {"type": "node", "id": 2926967206, "lat": 47.370981, "lon": 8.5400591}, {"type": "node", "id": 2926967208, "lat": 47.3709823, "lon": 8.5400659}, {"type": "node", "id": 2926967209, "lat": 47.3709827, "lon": 8.5402243}, {"type": "node", "id": 2926967210, "lat": 47.3709885, "lon": 8.5402289}, {"type": "node", "id": 2926967211, "lat": 47.3709961, "lon": 8.5406825}, {"type": "node", "id": 2926967213, "lat": 47.3710177, "lon": 8.5400437}, {"type": "node", "id": 2926967214, "lat": 47.3710181, "lon": 8.540368}, {"type": "node", "id": 2926967215, "lat": 47.3710285, "lon": 8.540117}, {"type": "node", "id": 2926967216, "lat": 47.3711743, "lon": 8.5405109}, {"type": "node", "id": 2926967217, "lat": 47.371173, "lon": 8.5405007}, {"type": "node", "id": 2926967219, "lat": 47.3711901, "lon": 8.5409044}, {"type": "node", "id": 2926967220, "lat": 47.3711977, "lon": 8.5409635}, {"type": "node", "id": 3223461561, "lat": 47.3719591, "lon": 8.539592}, {"type": "node", "id": 3223461562, "lat": 47.3718593, "lon": 8.5396766}, {"type": "node", "id": 3223461761, "lat": 47.3718332, "lon": 8.5395924}, {"type": "node", "id": 3477874340, "lat": 47.3714218, "lon": 8.5398637}, {"type": "node", "id": 3645826594, "lat": 47.3719905, "lon": 8.540819, "tags": {"camera:mount": "wall", "camera:type": "dome", "man_made": "surveillance", "surveillance": "outdoor", "surveillance:type": "camera"}}, {"type": "node", "id": 3645952051, "lat": 47.3722101, "lon": 8.5405721, "tags": {"entrance": "main"}}, {"type": "node", "id": 3881822122, "lat": 47.3713346, "lon": 8.5404553}, {"type": "node", "id": 3881822125, "lat": 47.3715282, "lon": 8.5404992}, {"type": "node", "id": 3881822126, "lat": 47.371569, "lon": 8.5404895}, {"type": "node", "id": 3881823379, "lat": 47.371026, "lon": 8.5409132}, {"type": "node", "id": 3881823382, "lat": 47.3710197, "lon": 8.5408651}, {"type": "node", "id": 3881828004, "lat": 47.3712179, "lon": 8.5406258}, {"type": "node", "id": 3881828007, "lat": 47.371214, "lon": 8.5408169}, {"type": "node", "id": 3881828011, "lat": 47.3711934, "lon": 8.5406584, "tags": {"entrance": "main"}}, {"type": "node", "id": 3881828014, "lat": 47.3709998, "lon": 8.5407114, "tags": {"entrance": "yes"}}, {"type": "node", "id": 3881828015, "lat": 47.3710802, "lon": 8.540932}, {"type": "node", "id": 3881835214, "lat": 47.3711965, "lon": 8.5406819}, {"type": "node", "id": 3881835216, "lat": 47.3712242, "lon": 8.540674}, {"type": "node", "id": 3881835217, "lat": 47.3712212, "lon": 8.5406506}, {"type": "node", "id": 3881835218, "lat": 47.3712173, "lon": 8.5408423, "tags": {"entrance": "yes"}}, {"type": "node", "id": 3881835219, "lat": 47.371244, "lon": 8.5408589}, {"type": "node", "id": 3881835220, "lat": 47.3712203, "lon": 8.5408656}, {"type": "node", "id": 3881835221, "lat": 47.3712377, "lon": 8.5408102}, {"type": "node", "id": 3881835222, "lat": 47.371023, "lon": 8.5408898, "tags": {"entrance": "yes"}}, {"type": "node", "id": 3881835227, "lat": 47.371241, "lon": 8.5408356}, {"type": "node", "id": 4244268254, "lat": 47.371919, "lon": 8.5396191}, {"type": "node", "id": 4244268255, "lat": 47.3719234, "lon": 8.5396332}, {"type": "node", "id": 5255883909, "lat": 47.3708498, "lon": 8.5399368}, {"type": "node", "id": 5255883910, "lat": 47.3711187, "lon": 8.5398221}, {"type": "node", "id": 6845207028, "lat": 47.3721972, "lon": 8.5394025}, {"type": "way", "id": 24701951, "nodes": [268493470, 1041996449, 1041996179, 1041996274, 2926967211, 3881828014, 1013992340, 3881823382, 3881835222, 3881823379, 2454047087, 3881828015, 1852219843, 268493485, 268493490, 2926967220, 2926967219, 268493491, 3881835220, 3881835218, 3881828007, 3881835214, 3881828011, 1041996305, 3881828004, 1041996234, 1041996481, 1041996417, 2926967216, 2926967217, 268493492, 1041996470, 268493470], "tags": {"addr:city": "Z\u00fcrich", "addr:country": "CH", "addr:housenumber": "1", "addr:postcode": "8001", "addr:street": "St. Peterhofstatt", "amenity": "place_of_worship", "building": "church", "denomination": "protestant", "height": "64", "name": "St. Peter", "name:ko": "\uc131 \ud53c\ud130 \uad50\ud68c", "opening_hours": "Mo-Fr 08:00-18:00; Sa 10:00-16:00; Su 11:00-17:00", "religion": "christian", "service_times": "Su 10:00", "uzh_landmark": "true", "website": "https://www.st-peter-zh.ch/", "wheelchair": "limited", "wikidata": "Q690687", "wikipedia": "de:St. Peter (Z\u00fcrich)"}}, {"type": "way", "id": 89469956, "nodes": [1037539961, 2925754206, 2925754208, 1037539457, 1037539612, 1037539705, 1037539961], "tags": {"addr:city": "Z\u00fcrich", "addr:country": "CH", "addr:housenumber": "33", "addr:postcode": "8001", "addr:street": "Strehlgasse", "building": "yes", "source": "Stadt Z\u00fcrich Open Government Data; Geomatik + Vermessung; Tiefbau- und Entsorgungsdepartement"}}, {"type": "way", "id": 89469975, "nodes": [1037539983, 1037539562, 1037539710, 2924910184, 1037540019, 1037539983], "tags": {"addr:city": "Z\u00fcrich", "addr:country": "CH", "addr:housenumber": "1", "addr:postcode": "8001", "addr:street": "Widdergasse", "building": "office", "source": "Stadt Z\u00fcrich Open Government Data; Geomatik + Vermessung; Tiefbau- und Entsorgungsdepartement"}}, {"type": "way", "id": 89469990, "nodes": [1037540068, 2924910150, 1516540556, 1037539820, 2924910147, 1037539707, 2924910165, 2924910169, 2924910170, 1037539557, 1037540068], "tags": {"addr:city": "Z\u00fcrich", "addr:country": "CH", "addr:postcode": "8001", "building": "yes", "source": "Stadt Z\u00fcrich Open Government Data; Geomatik + Vermessung; Tiefbau- und Entsorgungsdepartement"}}, {"type": "way", "id": 89469991, "nodes": [1037539457, 2925754208, 2925754206, 1037539961, 2925754197, 2925754198, 2925754192, 1037539700, 1037539821, 2925754200, 1037539457], "tags": {"addr:city": "Z\u00fcrich", "addr:country": "CH", "addr:housenumber": "8", "addr:postcode": "8001", "addr:street": "Glockengasse", "building": "yes", "building:levels": "5", "roof:levels": "1", "source": "Stadt Z\u00fcrich Open Government Data; Geomatik + Vermessung; Tiefbau- und Entsorgungsdepartement"}}, {"type": "way", "id": 89470009, "nodes": [1037539562, 1037540068, 1037539557, 1037539710, 1037539562], "tags": {"addr:city": "Z\u00fcrich", "addr:country": "CH", "addr:housenumber": "16", "addr:postcode": "8001", "addr:street": "Glockengasse", "building": "retail", "source": "Stadt Z\u00fcrich Open Government Data; Geomatik + Vermessung; Tiefbau- und Entsorgungsdepartement"}}, {"type": "way", "id": 89896343, "nodes": [2925715590, 2925715581, 2925715580, 1041912578, 1041912808, 1041911599, 1041911989, 2925715589, 1041911952, 1041912158, 1041911554, 2925715591, 2925715590], "tags": {"building": "yes", "source": "Stadt Z\u00fcrich Open Government Data; Geomatik + Vermessung; Tiefbau- und Entsorgungsdepartement"}}, {"type": "way", "id": 89896371, "nodes": [1041912808, 1041911882, 1041912311, 3881822125, 1041912912, 1041912132, 1041912048, 3881822122, 2925715585, 1041912509, 2925715588, 1041911599, 1041912808], "tags": {"addr:city": "Z\u00fcrich", "addr:country": "CH", "addr:housenumber": "2", "addr:postcode": "8001", "addr:street": "St. Peterhofstatt", "building": "yes", "source": "Stadt Z\u00fcrich Open Government Data; Geomatik + Vermessung; Tiefbau- und Entsorgungsdepartement"}}, {"type": "way", "id": 89896422, "nodes": [1041911554, 1041912158, 2925715592, 1041911972, 1041911717, 1041912755, 2925715595, 2925715594, 2925715593, 1041911554], "tags": {"addr:city": "Z\u00fcrich", "addr:country": "CH", "addr:housenumber": "1", "addr:postcode": "8001", "addr:street": "Augustinerhof", "building": "yes", "source": "Stadt Z\u00fcrich Open Government Data; Geomatik + Vermessung; Tiefbau- und Entsorgungsdepartement"}}, {"type": "way", "id": 89896426, "nodes": [2925699973, 1041911804, 1041911876, 1041911695, 2925699978, 2925699980, 2925699982, 2925699987, 1041911707, 1041912219, 2925699998, 2925699999, 1041912638, 1041911469, 1041911834, 1041912415, 1041912804, 2925699973], "tags": {"addr:city": "Z\u00fcrich", "addr:country": "CH", "addr:housenumber": "10", "addr:postcode": "8001", "addr:street": "St. Peterstrasse", "building": "yes", "source": "Stadt Z\u00fcrich Open Government Data; Geomatik + Vermessung; Tiefbau- und Entsorgungsdepartement"}}, {"type": "way", "id": 89896451, "nodes": [1041911935, 2925754161, 2925754160, 2925754153, 1041912486, 1041912862, 1041911654, 1041912035, 2925754138, 1041912752, 1041911935], "tags": {"addr:city": "Z\u00fcrich", "addr:country": "CH", "addr:housenumber": "6", "addr:postcode": "8001", "addr:street": "St. Peterhofstatt", "building": "yes", "name": "Lavaterhaus"}}, {"type": "way", "id": 89896479, "nodes": [1041911554, 2925715593, 2925715594, 2925715595, 1041912755, 2925715596, 2925715598, 2925715599, 2925716401, 2925715597, 1041911874, 1041912299, 2925715591, 1041911554], "tags": {"addr:city": "Z\u00fcrich", "addr:country": "CH", "addr:housenumber": "9", "addr:postcode": "8001", "addr:street": "Augustinergasse", "building": "yes", "name": "Strauhof", "source": "Stadt Z\u00fcrich Open Government Data; Geomatik + Vermessung; Tiefbau- und Entsorgungsdepartement", "start_date": "1727"}}, {"type": "way", "id": 89896495, "nodes": [1041912158, 1041911952, 1041911502, 1041912040, 2925715587, 2925715584, 2925715583, 1041911395, 1041911666, 1041912225, 1041912158], "tags": {"addr:city": "Z\u00fcrich", "addr:country": "CH", "addr:housenumber": "1b", "addr:postcode": "8001", "addr:street": "Augustinerhof", "building": "yes", "source": "Stadt Z\u00fcrich Open Government Data; Geomatik + Vermessung; Tiefbau- und Entsorgungsdepartement"}}, {"type": "way", "id": 89896529, "nodes": [1041912862, 1041913039, 1041911827, 1041911654, 1041912862], "tags": {"addr:city": "Z\u00fcrich", "addr:country": "CH", "addr:housenumber": "8", "addr:postcode": "8001", "addr:street": "St. Peterhofstatt", "building": "yes", "name": "Kleine Mugg", "source": "Stadt Z\u00fcrich Open Government Data; Geomatik + Vermessung; Tiefbau- und Entsorgungsdepartement"}}, {"type": "way", "id": 89896530, "nodes": [1041912313, 2925754167, 1041911801, 2925696793, 1041912174, 2925754165, 1041911935, 1041912752, 2205041396, 1041912313], "tags": {"addr:city": "Z\u00fcrich", "addr:country": "CH", "addr:postcode": "8001", "building": "yes", "building:levels": "5", "name": "Zur grossen Reblaube", "roof:levels": "1", "roof:shape": "gabled", "source": "Stadt Z\u00fcrich Open Government Data; Geomatik + Vermessung; Tiefbau- und Entsorgungsdepartement"}}, {"type": "way", "id": 89902503, "nodes": [1041996426, 1041996491, 1041996251, 2926967213, 2926967206, 2926967208, 2926967201, 2926963000, 1041996328, 1041996463, 1041996279, 1041996236, 1041996426], "tags": {"addr:city": "Z\u00fcrich", "addr:country": "CH", "addr:housenumber": "1", "addr:postcode": "8001", "addr:street": "St. Peterstrasse", "building": "yes", "source": "Stadt Z\u00fcrich Open Government Data; Geomatik + Vermessung; Tiefbau- und Entsorgungsdepartement"}}, {"type": "way", "id": 89902531, "nodes": [1041996420, 1041996483, 1041996236, 1041996426, 1041996307, 1041996420], "tags": {"addr:city": "Z\u00fcrich", "addr:country": "CH", "addr:housenumber": "3", "addr:postcode": "8001", "addr:street": "St. Peterstrasse", "building": "yes", "source": "Stadt Z\u00fcrich Open Government Data; Geomatik + Vermessung; Tiefbau- und Entsorgungsdepartement"}}, {"type": "way", "id": 288155567, "nodes": [921424462, 2917046570, 2917046568, 2917046567, 2917046560, 2917046563, 2917046565, 2917046587, 2917046589, 2917046586, 2917046588, 2917046582, 2917046578, 2917046576, 2917046577, 2917046571, 2917046572, 921424462], "tags": {"addr:city": "Z\u00fcrich", "addr:country": "CH", "addr:postcode": "8001", "building": "yes", "source": "Stadt Z\u00fcrich Open Government Data; Geomatik + Vermessung; Tiefbau- und Entsorgungsdepartement"}}, {"type": "way", "id": 288182265, "nodes": [2917307897, 2917307898, 2917310408, 2205041359, 2917310405, 2917310404, 2205041374, 2917307893, 2917307897], "tags": {"addr:city": "Z\u00fcrich", "addr:country": "CH", "addr:postcode": "8001", "building": "yes", "source": "Stadt Z\u00fcrich Open Government Data; Geomatik + Vermessung; Tiefbau- und Entsorgungsdepartement"}}, {"type": "way", "id": 288182266, "nodes": [2917307862, 2917307860, 2917307819, 2917307846, 2917307852, 2917307853, 2917307857, 2917307859, 2205041420, 2917307862], "tags": {"addr:city": "Z\u00fcrich", "addr:country": "CH", "addr:postcode": "8001", "building": "yes", "name": "Zum grossen Leoparden", "source": "Stadt Z\u00fcrich Open Government Data; Geomatik + Vermessung; Tiefbau- und Entsorgungsdepartement"}}, {"type": "way", "id": 288182269, "nodes": [2917307875, 2917307883, 2917307882, 2917307884, 2917307881, 2917307878, 2917307875], "tags": {"addr:city": "Z\u00fcrich", "addr:country": "CH", "addr:housenumber": "18", "addr:postcode": "8001", "addr:street": "Strehlgasse", "building": "yes", "source": "Stadt Z\u00fcrich Open Government Data; Geomatik + Vermessung; Tiefbau- und Entsorgungsdepartement"}}, {"type": "way", "id": 288182271, "nodes": [2917307883, 2917307887, 2917307889, 2917307897, 2917307893, 2917307881, 2917307884, 2917307882, 2917307883], "tags": {"addr:city": "Z\u00fcrich", "addr:country": "CH", "addr:housenumber": "20", "addr:postcode": "8001", "addr:street": "Strehlgasse", "building": "yes", "source": "Stadt Z\u00fcrich Open Government Data; Geomatik + Vermessung; Tiefbau- und Entsorgungsdepartement"}}, {"type": "way", "id": 288184606, "nodes": [2917336521, 2205041378, 2917336525, 2917336522, 2917336523, 2917336526, 2917336527, 2917336520, 2917336554, 2917336549, 2917336548, 2917336547, 2917336534, 2917336521], "tags": {"addr:city": "Z\u00fcrich", "addr:country": "CH", "addr:postcode": "8001", "building": "yes", "source": "Stadt Z\u00fcrich Open Government Data; Geomatik + Vermessung; Tiefbau- und Entsorgungsdepartement"}}, {"type": "way", "id": 288184610, "nodes": [2917336531, 2917336529, 2917336528, 2917336532, 2917336539, 2917336536, 2917336533, 2917336531], "tags": {"addr:city": "Z\u00fcrich", "addr:country": "CH", "addr:housenumber": "2a", "addr:postcode": "8001", "addr:street": "Rennweg", "building": "yes", "building:levels": "1", "source": "Stadt Z\u00fcrich Open Government Data; Geomatik + Vermessung; Tiefbau- und Entsorgungsdepartement"}}, {"type": "way", "id": 288184617, "nodes": [2917336537, 2917336530, 2917336531, 2917336533, 2917336536, 2917336538, 2917336540, 2917336542, 2917336541, 2917336545, 2917336546, 2917336543, 2917336552, 2917336550, 2917336555, 2917336563, 2917336559, 2917336557, 2917336556, 2917336537], "tags": {"addr:city": "Z\u00fcrich", "addr:country": "CH", "addr:housenumber": "2", "addr:postcode": "8001", "addr:street": "Rennweg", "building": "yes", "building:levels": "3", "name": "Zur Schelle", "roof:levels": "2", "source": "Stadt Z\u00fcrich Open Government Data; Geomatik + Vermessung; Tiefbau- und Entsorgungsdepartement"}}, {"type": "way", "id": 288184621, "nodes": [2917336544, 2917336535, 2917336524, 2917336521, 2917336534, 2917336547, 2917336544], "tags": {"addr:city": "Z\u00fcrich", "addr:country": "CH", "addr:housenumber": "26", "addr:postcode": "8001", "addr:street": "Strehlgasse", "building": "yes", "source": "Stadt Z\u00fcrich Open Government Data; Geomatik + Vermessung; Tiefbau- und Entsorgungsdepartement"}}, {"type": "way", "id": 288184623, "nodes": [2917336551, 2917336537, 2917336556, 2917336561, 2917336551], "tags": {"addr:city": "Z\u00fcrich", "addr:country": "CH", "addr:housenumber": "4", "addr:postcode": "8001", "addr:street": "Rennweg", "building": "yes", "source": "Stadt Z\u00fcrich Open Government Data; Geomatik + Vermessung; Tiefbau- und Entsorgungsdepartement"}}, {"type": "way", "id": 288517108, "nodes": [1037301391, 2920747560, 2920747561, 2920747550, 2920747548, 2920747527, 2920747523, 2920747530, 2920747525, 2920747520, 2920747519, 2920747524, 2920747529, 2920747542, 2920747541, 2920747539, 2920747522, 2920747521, 2920747518, 2920747297, 6845207028, 2920747292, 2920747509, 2920747510, 2920747511, 2920747512, 2920747514, 2920747516, 2920747506, 2920747291, 1516540541, 2920747508, 2920747282, 2920747285, 2920747286, 2920747577, 1037301307, 1037301391], "tags": {"addr:city": "Z\u00fcrich", "addr:country": "CH", "addr:postcode": "8001", "building": "yes", "building:levels": "6", "name": "Grosser Widder", "source": "Stadt Z\u00fcrich Open Government Data;Geomatik + Vermessung;Tiefbau- und Entsorgungsdepartement"}}, {"type": "way", "id": 289026055, "nodes": [2925754159, 2925754155, 2925754144, 2925754146, 2925754159], "tags": {"addr:city": "Z\u00fcrich", "addr:country": "CH", "addr:housenumber": "17a", "addr:postcode": "8001", "addr:street": "Schl\u00fcsselgasse", "building": "yes", "source": "Stadt Z\u00fcrich Open Government Data; Geomatik + Vermessung; Tiefbau- und Entsorgungsdepartement"}}, {"type": "way", "id": 289026057, "nodes": [2925754164, 2205041366, 2925754175, 2925754176, 2205041340, 2925754166, 2925754163, 2925754164], "tags": {"addr:city": "Z\u00fcrich", "addr:country": "CH", "addr:postcode": "8001", "building": "yes", "name": "Zur Gr\u00fcnen Ecke", "source": "Stadt Z\u00fcrich Open Government Data;Geomatik + Vermessung;Tiefbau- und Entsorgungsdepartement"}}, {"type": "way", "id": 289026058, "nodes": [2925754133, 2925754126, 2925754127, 2925754137, 2925754136, 2925754133], "tags": {"addr:city": "Z\u00fcrich", "addr:country": "CH", "addr:housenumber": "10", "addr:postcode": "8001", "addr:street": "Augustinergasse", "building": "yes", "source": "Stadt Z\u00fcrich Open Government Data; Geomatik + Vermessung; Tiefbau- und Entsorgungsdepartement"}}, {"type": "way", "id": 289026059, "nodes": [2925754145, 2925754133, 2925754136, 2925754142, 2925754150, 2925754148, 2925754145], "tags": {"addr:city": "Z\u00fcrich", "addr:country": "CH", "addr:housenumber": "12", "addr:postcode": "8001", "addr:street": "Augustinergasse", "building": "yes", "source": "Stadt Z\u00fcrich Open Government Data; Geomatik + Vermessung; Tiefbau- und Entsorgungsdepartement"}}, {"type": "way", "id": 289026060, "nodes": [2925754172, 2925754169, 2925754154, 2925754156, 2925754172], "tags": {"addr:city": "Z\u00fcrich", "addr:country": "CH", "addr:housenumber": "13", "addr:postcode": "8001", "addr:street": "Glockengasse", "building": "yes", "source": "Stadt Z\u00fcrich Open Government Data; Geomatik + Vermessung; Tiefbau- und Entsorgungsdepartement"}}, {"type": "way", "id": 289026061, "nodes": [2925754168, 2925754158, 2925754145, 2925754148, 2925754154, 2925754169, 2925754168], "tags": {"addr:city": "Z\u00fcrich", "addr:country": "CH", "addr:housenumber": "14", "addr:postcode": "8001", "addr:street": "Augustinergasse", "building": "yes", "name": "James Joyce Corner", "source": "Stadt Z\u00fcrich Open Government Data; Geomatik + Vermessung; Tiefbau- und Entsorgungsdepartement", "start_date": "1330"}}, {"type": "way", "id": 289026062, "nodes": [2925754152, 2925754164, 2925754163, 2925754162, 2925754159, 2925754146, 2925754151, 2925754147, 2925754152], "tags": {"addr:city": "Z\u00fcrich", "addr:country": "CH", "addr:housenumber": "17", "addr:postcode": "8001", "addr:street": "Strehlgasse", "building": "apartments", "source": "Stadt Z\u00fcrich Open Government Data; Geomatik + Vermessung; Tiefbau- und Entsorgungsdepartement"}}, {"type": "way", "id": 289026063, "nodes": [2925754179, 3645826594, 2925754178, 2925754182, 2925754184, 2925754179], "tags": {"addr:city": "Z\u00fcrich", "addr:country": "CH", "addr:housenumber": "2", "addr:postcode": "8001", "addr:street": "Glockengasse", "building": "yes", "source": "Stadt Z\u00fcrich Open Government Data; Geomatik + Vermessung; Tiefbau- und Entsorgungsdepartement"}}, {"type": "way", "id": 289026064, "nodes": [2925754182, 2925754185, 2925754195, 2925754193, 2925754190, 2925754188, 2925754184, 2925754182], "tags": {"addr:city": "Z\u00fcrich", "addr:country": "CH", "addr:housenumber": "23", "addr:postcode": "8001", "addr:street": "Strehlgasse", "building": "yes", "source": "Stadt Z\u00fcrich Open Government Data; Geomatik + Vermessung; Tiefbau- und Entsorgungsdepartement"}}, {"type": "way", "id": 289026065, "nodes": [2925754195, 2925754207, 2925754209, 2925754211, 2925754199, 2925754196, 2925754193, 2925754195], "tags": {"addr:city": "Z\u00fcrich", "addr:country": "CH", "addr:housenumber": "25", "addr:postcode": "8001", "addr:street": "Strehlgasse", "building": "yes", "source": "Stadt Z\u00fcrich Open Government Data; Geomatik + Vermessung; Tiefbau- und Entsorgungsdepartement"}}, {"type": "way", "id": 289026066, "nodes": [2925754211, 2925754212, 2925754205, 2925754204, 2925754201, 2925754199, 2925754211], "tags": {"addr:city": "Z\u00fcrich", "addr:country": "CH", "addr:housenumber": "27", "addr:postcode": "8001", "addr:street": "Strehlgasse", "building": "yes", "source": "Stadt Z\u00fcrich Open Government Data; Geomatik + Vermessung; Tiefbau- und Entsorgungsdepartement"}}, {"type": "way", "id": 289026067, "nodes": [2925754181, 2925754180, 2925754183, 2925754186, 2925754191, 2925754201, 2925754204, 2925754205, 2925754212, 3645952051, 2925754213, 2925754210, 2925754203, 2925754194, 2925754189, 2925754187, 2925754181], "tags": {"addr:city": "Z\u00fcrich", "addr:country": "CH", "addr:housenumber": "29", "addr:postcode": "8001", "addr:street": "Strehlgasse", "building": "yes", "source": "Stadt Z\u00fcrich Open Government Data; Geomatik + Vermessung; Tiefbau- und Entsorgungsdepartement"}}, {"type": "way", "id": 289026068, "nodes": [2925754166, 2925754174, 2925754170, 2925754171, 2925754161, 2925754160, 2925754153, 2925754155, 2925754159, 2925754162, 2925754163, 2925754166], "tags": {"addr:city": "Z\u00fcrich", "addr:country": "CH", "addr:housenumber": "3", "addr:postcode": "8001", "addr:street": "Glockengasse", "building": "yes", "source": "Stadt Z\u00fcrich Open Government Data; Geomatik + Vermessung; Tiefbau- und Entsorgungsdepartement"}}, {"type": "way", "id": 289026069, "nodes": [2925754103, 3881822126, 2925754104, 2925754105, 2925754108, 2925754107, 2925754115, 2925754113, 2925754111, 2925754103], "tags": {"addr:city": "Z\u00fcrich", "addr:country": "CH", "addr:housenumber": "3", "addr:postcode": "8001", "addr:street": "St. Peterhofstatt", "building": "yes", "source": "Stadt Z\u00fcrich Open Government Data; Geomatik + Vermessung; Tiefbau- und Entsorgungsdepartement"}}, {"type": "way", "id": 289026070, "nodes": [2925754213, 2925754214, 1037539705, 1037539961, 2925754197, 2925754198, 2925754202, 2925754203, 2925754210, 2925754213], "tags": {"addr:city": "Z\u00fcrich", "addr:country": "CH", "addr:housenumber": "31", "addr:postcode": "8001", "addr:street": "Strehlgasse", "building": "yes", "source": "Stadt Z\u00fcrich Open Government Data; Geomatik + Vermessung; Tiefbau- und Entsorgungsdepartement"}}, {"type": "way", "id": 289026071, "nodes": [2925754102, 2925754101, 2925754103, 2925754111, 2925754116, 2925754114, 2925754106, 2925754102], "tags": {"addr:city": "Z\u00fcrich", "addr:country": "CH", "addr:housenumber": "4", "addr:postcode": "8001", "addr:street": "Augustinergasse", "building": "yes", "source": "Stadt Z\u00fcrich Open Government Data; Geomatik + Vermessung; Tiefbau- und Entsorgungsdepartement"}}, {"type": "way", "id": 289026072, "nodes": [2925754180, 2925754179, 2925754184, 2925754188, 2925754190, 2925754191, 2925754186, 2925754183, 2925754180], "tags": {"addr:city": "Z\u00fcrich", "addr:country": "CH", "addr:housenumber": "4", "addr:postcode": "8001", "addr:street": "Glockengasse", "building": "yes", "name": "Kleiner Riese", "source": "Stadt Z\u00fcrich Open Government Data; Geomatik + Vermessung; Tiefbau- und Entsorgungsdepartement"}}, {"type": "way", "id": 289026073, "nodes": [2925754113, 2925754124, 2925754123, 2925754122, 2925754117, 2925754116, 2925754111, 2925754113], "tags": {"addr:city": "Z\u00fcrich", "addr:country": "CH", "addr:housenumber": "4", "addr:postcode": "8001", "addr:street": "St. Peterhofstatt", "building": "yes", "source": "Stadt Z\u00fcrich Open Government Data; Geomatik + Vermessung; Tiefbau- und Entsorgungsdepartement"}}, {"type": "way", "id": 289026074, "nodes": [2925754171, 1041912174, 2925754165, 1041911935, 2925754161, 2925754171], "tags": {"addr:city": "Z\u00fcrich", "addr:country": "CH", "addr:housenumber": "5", "addr:postcode": "8001", "addr:street": "Glockengasse", "building": "yes", "source": "Stadt Z\u00fcrich Open Government Data; Geomatik + Vermessung; Tiefbau- und Entsorgungsdepartement"}}, {"type": "way", "id": 289026075, "nodes": [2925754109, 2925696800, 2925754102, 2925754106, 2925754114, 2925754109], "tags": {"addr:city": "Z\u00fcrich", "addr:country": "CH", "addr:housenumber": "6", "addr:postcode": "8001", "addr:street": "Augustinergasse", "building": "yes", "source": "Stadt Z\u00fcrich Open Government Data; Geomatik + Vermessung; Tiefbau- und Entsorgungsdepartement"}}, {"type": "way", "id": 289026076, "nodes": [1037539700, 2925754181, 2925754187, 2925754189, 2925754194, 2925754192, 1037539700], "tags": {"addr:city": "Z\u00fcrich", "addr:country": "CH", "addr:housenumber": "6a", "addr:postcode": "8001", "addr:street": "Glockengasse", "building": "yes", "note": "Hausnummer am Haus ist 8", "source": "Stadt Z\u00fcrich Open Government Data; Geomatik + Vermessung; Tiefbau- und Entsorgungsdepartement"}}, {"type": "way", "id": 289026077, "nodes": [2925754126, 2925754112, 2925754117, 2925754122, 2925754118, 2925754121, 2925754119, 2925754129, 2925754135, 2925754134, 2925754140, 2925754137, 2925754127, 2925754126], "tags": {"addr:city": "Z\u00fcrich", "addr:country": "CH", "addr:housenumber": "8", "addr:postcode": "8001", "addr:street": "Augustinergasse", "building": "yes", "source": "Stadt Z\u00fcrich Open Government Data; Geomatik + Vermessung; Tiefbau- und Entsorgungsdepartement"}}, {"type": "way", "id": 289026078, "nodes": [2925754173, 2925754172, 2925754156, 2925754157, 2925754140, 2925754134, 2925754135, 2925754129, 2925754130, 2925754173], "tags": {"addr:city": "Z\u00fcrich", "addr:country": "CH", "addr:housenumber": "9", "addr:postcode": "8001", "addr:street": "Glockengasse", "building": "yes", "building:levels": "5", "name": "Zur Glocke", "roof:levels": "1", "source": "Stadt Z\u00fcrich Open Government Data; Geomatik + Vermessung; Tiefbau- und Entsorgungsdepartement"}}, {"type": "way", "id": 289026079, "nodes": [1041911827, 2925754128, 2925754149, 1041913039, 1041911827], "tags": {"addr:city": "Z\u00fcrich", "addr:country": "CH", "addr:housenumber": "9", "addr:postcode": "8001", "addr:street": "St. Peterhofstatt", "building": "yes", "name": "Grosse Mugg", "source": "Stadt Z\u00fcrich Open Government Data; Geomatik + Vermessung; Tiefbau- und Entsorgungsdepartement"}}, {"type": "way", "id": 289067302, "nodes": [2926175189, 2926175191, 2926175190, 5255883910, 5255883909, 2926175167, 2926175185, 2926175184, 2926175183, 2926175188, 2926175186, 2926175181, 2926175180, 2926175175, 2926175168, 2926175189], "tags": {"building": "commercial", "name": "Leuenhof", "owner": "Swiss Prime Anlagestiftung", "source": "Stadt Z\u00fcrich Open Government Data; Geomatik + Vermessung; Tiefbau- und Entsorgungsdepartement"}}, {"type": "way", "id": 289141919, "nodes": [1041996307, 2926967215, 2926967204, 2926967202, 2926967209, 2926967210, 2926967214, 2926962993, 1041996317, 1041996179, 1041996449, 268493470, 1041996470, 1041996420, 1041996307], "tags": {"addr:city": "Z\u00fcrich", "addr:country": "CH", "addr:housenumber": "10a", "addr:postcode": "8001", "addr:street": "In Gassen", "building": "yes", "source": "Stadt Z\u00fcrich Open Government Data; Geomatik + Vermessung; Tiefbau- und Entsorgungsdepartement"}}, {"type": "way", "id": 316234711, "nodes": [3223461561, 1037539431, 1037539601, 1037539726, 1037539542, 1037539677, 3223461761, 3223461562, 4244268255, 4244268254, 3223461561], "tags": {"building": "retail"}}, {"type": "way", "id": 340549186, "nodes": [2925715592, 1041912158, 1041912225, 1041911666, 1041911395, 3477874340, 1041911972, 2925715592], "tags": {"building": "yes"}}, {"type": "way", "id": 384828944, "nodes": [3881828004, 3881835217, 3881835216, 3881835214, 3881828011, 1041996305, 3881828004], "tags": {"building": "roof", "layer": "1"}}, {"type": "way", "id": 384828945, "nodes": [3881828007, 3881835221, 3881835227, 3881835219, 3881835220, 3881835218, 3881828007], "tags": {"building": "roof", "height": "5"}}]}