{"version": 0.6, "generator": "Overpass API 0.7.60.6 e2dc3e5b", "osm3s": {"timestamp_osm_base": "2023-06-29T15:23:04Z", "copyright": "The data included in this document is from www.openstreetmap.org. The data is made available under ODbL."}, "elements": [{"type": "node", "id": 92485362, "lat": 47.3742151, "lon": 8.5387159}, {"type": "node", "id": 635149689, "lat": 47.3751655, "lon": 8.5391359}, {"type": "node", "id": 635164800, "lat": 47.3745917, "lon": 8.5395693}, {"type": "node", "id": 635164802, "lat": 47.3749432, "lon": 8.5395962}, {"type": "node", "id": 635172666, "lat": 47.3750674, "lon": 8.5390841}, {"type": "node", "id": 693318517, "lat": 47.3745967, "lon": 8.5393819, "tags": {"addr:city": "Z\u00fcrich", "addr:country": "CH", "addr:housenumber": "4", "addr:postcode": "8001", "addr:street": "Uraniastrasse", "entrance": "yes"}}, {"type": "node", "id": 693318519, "lat": 47.3743397, "lon": 8.540097, "tags": {"addr:city": "Z\u00fcrich", "addr:country": "CH", "addr:housenumber": "7", "addr:postcode": "8001", "addr:street": "Uraniastrasse"}}, {"type": "node", "id": 693318530, "lat": 47.3747955, "lon": 8.5400627, "tags": {"addr:city": "Z\u00fcrich", "addr:country": "CH", "addr:housenumber": "4", "addr:postcode": "8001", "addr:street": "Werdm\u00fchleplatz", "entrance": "yes"}}, {"type": "node", "id": 921917318, "lat": 47.3744209, "lon": 8.5392555}, {"type": "node", "id": 921917323, "lat": 47.3740863, "lon": 8.5402504}, {"type": "node", "id": 921917327, "lat": 47.3744104, "lon": 8.5395539}, {"type": "node", "id": 921917334, "lat": 47.3739785, "lon": 8.5389065}, {"type": "node", "id": 921917337, "lat": 47.3740984, "lon": 8.5389516}, {"type": "node", "id": 921917338, "lat": 47.3743357, "lon": 8.5402583}, {"type": "node", "id": 921917339, "lat": 47.374188, "lon": 8.5394738}, {"type": "node", "id": 921917340, "lat": 47.3742399, "lon": 8.5395436}, {"type": "node", "id": 921917342, "lat": 47.3744306, "lon": 8.539025}, {"type": "node", "id": 921917350, "lat": 47.3740055, "lon": 8.5392279}, {"type": "node", "id": 921917359, "lat": 47.3744273, "lon": 8.5388253}, {"type": "node", "id": 921917362, "lat": 47.3742941, "lon": 8.5389894}, {"type": "node", "id": 921917372, "lat": 47.374077, "lon": 8.5388274}, {"type": "node", "id": 921917387, "lat": 47.3740263, "lon": 8.5394953}, {"type": "node", "id": 921917390, "lat": 47.374294, "lon": 8.5390342}, {"type": "node", "id": 921917397, "lat": 47.3741294, "lon": 8.5392085}, {"type": "node", "id": 921917406, "lat": 47.3742879, "lon": 8.5392468}, {"type": "node", "id": 1031292046, "lat": 47.3743079, "lon": 8.539638}, {"type": "node", "id": 1031292601, "lat": 47.3742244, "lon": 8.5400121}, {"type": "node", "id": 1031292719, "lat": 47.3741878, "lon": 8.5395417}, {"type": "node", "id": 1031292809, "lat": 47.374238, "lon": 8.5396347}, {"type": "node", "id": 1031293287, "lat": 47.3741747, "lon": 8.5396536}, {"type": "node", "id": 1031293523, "lat": 47.3741146, "lon": 8.5396404}, {"type": "node", "id": 1031293593, "lat": 47.3742751, "lon": 8.5391588}, {"type": "node", "id": 1031293638, "lat": 47.3743418, "lon": 8.5400199}, {"type": "node", "id": 1031294035, "lat": 47.374126, "lon": 8.5390922}, {"type": "node", "id": 1031294040, "lat": 47.3741613, "lon": 8.5396637}, {"type": "node", "id": 1031294974, "lat": 47.3741036, "lon": 8.5394853}, {"type": "node", "id": 1031295130, "lat": 47.374184, "lon": 8.5396342}, {"type": "node", "id": 1031295542, "lat": 47.3740999, "lon": 8.5391097}, {"type": "node", "id": 2341965696, "lat": 47.3746529, "lon": 8.5397902}, {"type": "node", "id": 2341965698, "lat": 47.3746518, "lon": 8.5398319}, {"type": "node", "id": 2341965700, "lat": 47.3746816, "lon": 8.539792}, {"type": "node", "id": 2341965702, "lat": 47.3746687, "lon": 8.5398592}, {"type": "node", "id": 2341965704, "lat": 47.3746988, "lon": 8.539819}, {"type": "node", "id": 2341965707, "lat": 47.3746976, "lon": 8.5398609}, {"type": "node", "id": 2919116002, "lat": 47.3739249, "lon": 8.5398038, "tags": {"addr:city": "Z\u00fcrich", "addr:country": "CH", "addr:housenumber": "7", "addr:postcode": "8001", "addr:street": "Oetenbachgasse"}}, {"type": "node", "id": 2919116003, "lat": 47.3739071, "lon": 8.5396812, "tags": {"addr:city": "Z\u00fcrich", "addr:country": "CH", "addr:housenumber": "9", "addr:postcode": "8001", "addr:street": "Oetenbachgasse"}}, {"type": "node", "id": 2919116356, "lat": 47.3736734, "lon": 8.5396431}, {"type": "node", "id": 2919116360, "lat": 47.3736825, "lon": 8.5396767}, {"type": "node", "id": 2919116365, "lat": 47.3736936, "lon": 8.5397217}, {"type": "node", "id": 2919116376, "lat": 47.3737184, "lon": 8.539612}, {"type": "node", "id": 2919116379, "lat": 47.3737223, "lon": 8.5398771}, {"type": "node", "id": 2919116389, "lat": 47.3737451, "lon": 8.5396039}, {"type": "node", "id": 2919116390, "lat": 47.3737475, "lon": 8.5396938}, {"type": "node", "id": 2919116398, "lat": 47.3737759, "lon": 8.53987}, {"type": "node", "id": 2919116400, "lat": 47.3737814, "lon": 8.5399174}, {"type": "node", "id": 2919116401, "lat": 47.3737844, "lon": 8.5396828}, {"type": "node", "id": 2919116407, "lat": 47.3738089, "lon": 8.5392949}, {"type": "node", "id": 2919116409, "lat": 47.3738211, "lon": 8.5399093}, {"type": "node", "id": 2919116410, "lat": 47.3738255, "lon": 8.5399563}, {"type": "node", "id": 2919116411, "lat": 47.3738335, "lon": 8.5399551}, {"type": "node", "id": 2919116412, "lat": 47.3738376, "lon": 8.5400276}, {"type": "node", "id": 2919116413, "lat": 47.3738378, "lon": 8.5392736}, {"type": "node", "id": 2919116414, "lat": 47.3738431, "lon": 8.5401436}, {"type": "node", "id": 2919116415, "lat": 47.3738433, "lon": 8.5394128}, {"type": "node", "id": 2919116419, "lat": 47.3738688, "lon": 8.5393995}, {"type": "node", "id": 2919116421, "lat": 47.3738775, "lon": 8.5395349}, {"type": "node", "id": 2919116423, "lat": 47.3738979, "lon": 8.5396283}, {"type": "node", "id": 2919116425, "lat": 47.373912, "lon": 8.5392638}, {"type": "node", "id": 2919116426, "lat": 47.3739215, "lon": 8.5393914}, {"type": "node", "id": 2919116427, "lat": 47.3739274, "lon": 8.5400241}, {"type": "node", "id": 2919116428, "lat": 47.3739313, "lon": 8.5398493}, {"type": "node", "id": 2919116429, "lat": 47.3739348, "lon": 8.5395256}, {"type": "node", "id": 2919116430, "lat": 47.373937, "lon": 8.5399447}, {"type": "node", "id": 2919116431, "lat": 47.3739419, "lon": 8.5396202}, {"type": "node", "id": 2919116435, "lat": 47.3739668, "lon": 8.5399394}, {"type": "node", "id": 2919116436, "lat": 47.3739688, "lon": 8.5401349}, {"type": "node", "id": 2919116437, "lat": 47.3739731, "lon": 8.5400125}, {"type": "node", "id": 2919116438, "lat": 47.3739774, "lon": 8.5400607}, {"type": "node", "id": 2944054986, "lat": 47.3741611, "lon": 8.5402532, "tags": {"access": "yes", "addr:city": "Z\u00fcrich", "addr:housenumber": "19", "addr:postcode": "8001", "addr:street": "Lindenhofstrasse", "entrance": "main", "wheelchair": "yes"}}, {"type": "node", "id": 2944054987, "lat": 47.3740565, "lon": 8.5398727, "tags": {"access": "private", "addr:city": "Z\u00fcrich", "addr:housenumber": "22", "addr:postcode": "8001", "addr:street": "Oetenbachgasse", "entrance": "service", "wheelchair": "limited"}}, {"type": "node", "id": 2944054988, "lat": 47.3739968, "lon": 8.5391219, "tags": {"addr:city": "Z\u00fcrich", "addr:country": "CH", "addr:housenumber": "26", "addr:postcode": "8001", "addr:street": "Oetenbachgasse"}}, {"type": "node", "id": 2944054989, "lat": 47.3749749, "lon": 8.5394629, "tags": {"addr:city": "Z\u00fcrich", "addr:country": "CH", "addr:housenumber": "4", "addr:postcode": "8001", "addr:street": "Werdm\u00fchlestrasse"}}, {"type": "node", "id": 2944054990, "lat": 47.3740279, "lon": 8.538867, "tags": {"addr:city": "Z\u00fcrich", "addr:country": "CH", "addr:housenumber": "58", "addr:postcode": "8001", "addr:street": "Rennweg"}}, {"type": "node", "id": 2944054991, "lat": 47.3742685, "lon": 8.5387434, "tags": {"addr:city": "Z\u00fcrich", "addr:country": "CH", "addr:housenumber": "70", "addr:postcode": "8001", "addr:street": "Bahnhofstrasse"}}, {"type": "node", "id": 2944054996, "lat": 47.3741061, "lon": 8.5391607}, {"type": "node", "id": 2944054998, "lat": 47.3741234, "lon": 8.5396519}, {"type": "node", "id": 2944054999, "lat": 47.3741321, "lon": 8.5396623}, {"type": "node", "id": 2944055000, "lat": 47.3741337, "lon": 8.5392499}, {"type": "node", "id": 2944055001, "lat": 47.374138, "lon": 8.5391551}, {"type": "node", "id": 2944055002, "lat": 47.3741464, "lon": 8.5392053}, {"type": "node", "id": 2944055003, "lat": 47.374148, "lon": 8.5396671}, {"type": "node", "id": 2944055004, "lat": 47.3741525, "lon": 8.5389411}, {"type": "node", "id": 2944055005, "lat": 47.3741555, "lon": 8.5389922}, {"type": "node", "id": 2944055006, "lat": 47.3742288, "lon": 8.5399255}, {"type": "node", "id": 2944055007, "lat": 47.3742796, "lon": 8.5390344}, {"type": "node", "id": 2944055008, "lat": 47.3742906, "lon": 8.5391591}, {"type": "node", "id": 2944055009, "lat": 47.3743001, "lon": 8.5399284}, {"type": "node", "id": 2944055021, "lat": 47.3746026, "lon": 8.5391969}, {"type": "node", "id": 2944055022, "lat": 47.3746131, "lon": 8.5390516}, {"type": "node", "id": 2944055023, "lat": 47.3747133, "lon": 8.5392032}, {"type": "node", "id": 2944055024, "lat": 47.3747172, "lon": 8.5393218}, {"type": "node", "id": 2944055025, "lat": 47.3747196, "lon": 8.5392039}, {"type": "node", "id": 2944055026, "lat": 47.3747292, "lon": 8.5391251}, {"type": "node", "id": 2944055027, "lat": 47.374732, "lon": 8.5393231}, {"type": "node", "id": 2944055028, "lat": 47.3747369, "lon": 8.5393088}, {"type": "node", "id": 2944055029, "lat": 47.3747501, "lon": 8.5393354}, {"type": "node", "id": 2944055030, "lat": 47.374754, "lon": 8.5393384}, {"type": "node", "id": 2944055031, "lat": 47.3747542, "lon": 8.5393197}, {"type": "node", "id": 2944055032, "lat": 47.3747544, "lon": 8.5393823}, {"type": "node", "id": 2944055133, "lat": 47.3747674, "lon": 8.5389328}, {"type": "node", "id": 2944055136, "lat": 47.3748313, "lon": 8.5391744}, {"type": "node", "id": 2944055138, "lat": 47.3748754, "lon": 8.5389845}, {"type": "node", "id": 2944055139, "lat": 47.374887, "lon": 8.5393895}, {"type": "node", "id": 2944055140, "lat": 47.3749101, "lon": 8.5392793}, {"type": "node", "id": 2944055141, "lat": 47.3749245, "lon": 8.5392237}, {"type": "node", "id": 2944055144, "lat": 47.3749707, "lon": 8.5390333}, {"type": "node", "id": 2944055145, "lat": 47.3750068, "lon": 8.5393295}, {"type": "node", "id": 2946358434, "lat": 47.3751033, "lon": 8.5403554, "tags": {"addr:city": "Z\u00fcrich", "addr:country": "CH", "addr:housenumber": "10", "addr:postcode": "8001", "addr:street": "Werdm\u00fchlestrasse", "entrance": "yes"}}, {"type": "node", "id": 2946358435, "lat": 47.3754191, "lon": 8.5405946, "tags": {"addr:city": "Z\u00fcrich", "addr:country": "CH", "addr:housenumber": "11", "addr:postcode": "8001", "addr:street": "Werdm\u00fchlestrasse"}}, {"type": "node", "id": 2946358436, "lat": 47.3752246, "lon": 8.5405996, "tags": {"addr:city": "Z\u00fcrich", "addr:country": "CH", "addr:housenumber": "12", "addr:postcode": "8001", "addr:street": "Werdm\u00fchlestrasse", "entrance": "yes"}}, {"type": "node", "id": 2946358438, "lat": 47.3748495, "lon": 8.540304, "tags": {"addr:city": "Z\u00fcrich", "addr:country": "CH", "addr:housenumber": "21", "addr:postcode": "8001", "addr:street": "Lindenhofstrasse", "entrance": "yes"}}, {"type": "node", "id": 2946358439, "lat": 47.3749174, "lon": 8.5403886, "tags": {"addr:city": "Z\u00fcrich", "addr:country": "CH", "addr:housenumber": "23", "addr:postcode": "8001", "addr:street": "Lindenhofstrasse", "entrance": "yes"}}, {"type": "node", "id": 2946358440, "lat": 47.375071, "lon": 8.5407795, "tags": {"addr:city": "Z\u00fcrich", "addr:country": "CH", "addr:housenumber": "25", "addr:postcode": "8001", "addr:street": "Lindenhofstrasse", "entrance": "yes"}}, {"type": "node", "id": 2946358441, "lat": 47.375162, "lon": 8.539861, "tags": {"addr:city": "Z\u00fcrich", "addr:country": "CH", "addr:housenumber": "3", "addr:postcode": "8001", "addr:street": "Werdm\u00fchleplatz"}}, {"type": "node", "id": 2946358442, "lat": 47.375193, "lon": 8.5401452, "tags": {"addr:city": "Z\u00fcrich", "addr:country": "CH", "addr:housenumber": "5", "addr:postcode": "8001", "addr:street": "Werdm\u00fchlestrasse"}}, {"type": "node", "id": 2946358443, "lat": 47.3752778, "lon": 8.5403141, "tags": {"addr:city": "Z\u00fcrich", "addr:country": "CH", "addr:housenumber": "7", "addr:postcode": "8001", "addr:street": "Werdm\u00fchlestrasse"}}, {"type": "node", "id": 2946358444, "lat": 47.3752222, "lon": 8.5391643, "tags": {"addr:city": "Z\u00fcrich", "addr:country": "CH", "addr:housenumber": "82", "addr:postcode": "8001", "addr:street": "Bahnhofstrasse", "entrance": "yes"}}, {"type": "node", "id": 2946358445, "lat": 47.3752973, "lon": 8.5392028, "tags": {"addr:city": "Z\u00fcrich", "addr:country": "CH", "addr:housenumber": "82a", "addr:postcode": "8001", "addr:street": "Bahnhofstrasse"}}, {"type": "node", "id": 2946358446, "lat": 47.375339, "lon": 8.539502, "tags": {"addr:city": "Z\u00fcrich", "addr:country": "CH", "addr:housenumber": "86", "addr:postcode": "8001", "addr:street": "Bahnhofstrasse"}}, {"type": "node", "id": 2946358448, "lat": 47.3753421, "lon": 8.5404421, "tags": {"addr:city": "Z\u00fcrich", "addr:country": "CH", "addr:housenumber": "9", "addr:postcode": "8001", "addr:street": "Werdm\u00fchlestrasse"}}, {"type": "node", "id": 2946358449, "lat": 47.3746191, "lon": 8.5402865}, {"type": "node", "id": 2946358450, "lat": 47.374626, "lon": 8.5401041}, {"type": "node", "id": 2946358451, "lat": 47.3746279, "lon": 8.540051}, {"type": "node", "id": 2946358452, "lat": 47.3746402, "lon": 8.5402946}, {"type": "node", "id": 2946358453, "lat": 47.3748766, "lon": 8.5403065}, {"type": "node", "id": 2946358457, "lat": 47.3749635, "lon": 8.5400734}, {"type": "node", "id": 2946358459, "lat": 47.3750042, "lon": 8.540748}, {"type": "node", "id": 2946358460, "lat": 47.3750076, "lon": 8.5407582}, {"type": "node", "id": 2946358461, "lat": 47.3750106, "lon": 8.5405761}, {"type": "node", "id": 2946358462, "lat": 47.3750143, "lon": 8.5407653}, {"type": "node", "id": 2946358465, "lat": 47.3750239, "lon": 8.5407694}, {"type": "node", "id": 2946358466, "lat": 47.3750885, "lon": 8.5394652}, {"type": "node", "id": 2946358471, "lat": 47.3751546, "lon": 8.5407983}, {"type": "node", "id": 2946358472, "lat": 47.3751551, "lon": 8.54007}, {"type": "node", "id": 2946358473, "lat": 47.3751694, "lon": 8.5396325}, {"type": "node", "id": 2946358476, "lat": 47.375199, "lon": 8.5394986}, {"type": "node", "id": 2946358478, "lat": 47.3752569, "lon": 8.540821}, {"type": "node", "id": 2946358479, "lat": 47.3752653, "lon": 8.5396391}, {"type": "node", "id": 2946358480, "lat": 47.375278, "lon": 8.5396416}, {"type": "node", "id": 2946358483, "lat": 47.3752813, "lon": 8.5393726}, {"type": "node", "id": 2946358484, "lat": 47.3752918, "lon": 8.5396468}, {"type": "node", "id": 2946358485, "lat": 47.3753043, "lon": 8.5396646}, {"type": "node", "id": 2946358486, "lat": 47.3753044, "lon": 8.5396547}, {"type": "node", "id": 2946358487, "lat": 47.3753072, "lon": 8.5407657}, {"type": "node", "id": 2946358488, "lat": 47.3753102, "lon": 8.5395551}, {"type": "node", "id": 2946358489, "lat": 47.3753152, "lon": 8.5396756}, {"type": "node", "id": 2946358490, "lat": 47.3753184, "lon": 8.5392143}, {"type": "node", "id": 2946358491, "lat": 47.3753216, "lon": 8.5394185}, {"type": "node", "id": 2946358492, "lat": 47.3753237, "lon": 8.5396875}, {"type": "node", "id": 2946358493, "lat": 47.3753264, "lon": 8.5393962}, {"type": "node", "id": 2946358494, "lat": 47.3753329, "lon": 8.5397023}, {"type": "node", "id": 2946358495, "lat": 47.3753417, "lon": 8.5397216}, {"type": "node", "id": 2946358496, "lat": 47.3753497, "lon": 8.5397433}, {"type": "node", "id": 2946358498, "lat": 47.3753674, "lon": 8.5394503}, {"type": "node", "id": 2946358499, "lat": 47.375369, "lon": 8.5394433}, {"type": "node", "id": 2946358508, "lat": 47.3754501, "lon": 8.5406563}, {"type": "node", "id": 2946358530, "lat": 47.375561, "lon": 8.5405351}, {"type": "node", "id": 2946358532, "lat": 47.3755665, "lon": 8.5405245}, {"type": "node", "id": 2946358735, "lat": 47.3755737, "lon": 8.540395}, {"type": "node", "id": 2946358736, "lat": 47.3755745, "lon": 8.5405045}, {"type": "node", "id": 2946358739, "lat": 47.3755777, "lon": 8.5404079}, {"type": "node", "id": 2946358740, "lat": 47.3755777, "lon": 8.5404821}, {"type": "node", "id": 2946358741, "lat": 47.3755809, "lon": 8.5404585}, {"type": "node", "id": 2946358742, "lat": 47.3755817, "lon": 8.5404362}, {"type": "node", "id": 4552080122, "lat": 47.3743399, "lon": 8.5400879, "tags": {"entrance": "service"}}, {"type": "node", "id": 4552080123, "lat": 47.3743165, "lon": 8.540258}, {"type": "node", "id": 5629311351, "lat": 47.3751744, "lon": 8.5394875}, {"type": "node", "id": 5630144665, "lat": 47.3750926, "lon": 8.539384}, {"type": "node", "id": 5630144666, "lat": 47.3750792, "lon": 8.5394407}, {"type": "node", "id": 5630144667, "lat": 47.3751077, "lon": 8.539383}, {"type": "node", "id": 5630144668, "lat": 47.3751607, "lon": 8.5394793}, {"type": "node", "id": 5630144669, "lat": 47.3751503, "lon": 8.5394974}, {"type": "node", "id": 5678613715, "lat": 47.3749041, "lon": 8.539308}, {"type": "node", "id": 5678613716, "lat": 47.3749995, "lon": 8.5393602}, {"type": "node", "id": 5678614591, "lat": 47.3755421, "lon": 8.540303}, {"type": "node", "id": 5678614592, "lat": 47.3753917, "lon": 8.5398651}, {"type": "node", "id": 5678630698, "lat": 47.3753705, "lon": 8.5398011}, {"type": "node", "id": 5678630700, "lat": 47.3755578, "lon": 8.5403488}, {"type": "node", "id": 5678630719, "lat": 47.3753863, "lon": 8.5398487}, {"type": "node", "id": 5678634827, "lat": 47.375357, "lon": 8.5394692}, {"type": "node", "id": 9882853435, "lat": 47.3743024, "lon": 8.5398418, "tags": {"entrance": "yes"}}, {"type": "node", "id": 10721805853, "lat": 47.3747495, "lon": 8.5389235}, {"type": "node", "id": 10721805854, "lat": 47.3747638, "lon": 8.5389309}, {"type": "node", "id": 10721805855, "lat": 47.3746093, "lon": 8.5391851, "tags": {"entrance": "yes"}}, {"type": "node", "id": 10721805856, "lat": 47.3746072, "lon": 8.5391784}, {"type": "node", "id": 10721805857, "lat": 47.3746045, "lon": 8.5391736}, {"type": "node", "id": 10721805858, "lat": 47.3746091, "lon": 8.5391916}, {"type": "node", "id": 10721805859, "lat": 47.3746094, "lon": 8.5391801}, {"type": "node", "id": 10721805860, "lat": 47.3746056, "lon": 8.5391763}, {"type": "node", "id": 10721805861, "lat": 47.3746028, "lon": 8.5391912}, {"type": "node", "id": 10721805862, "lat": 47.3747538, "lon": 8.5389317}, {"type": "node", "id": 10721805863, "lat": 47.3747519, "lon": 8.5389263}, {"type": "node", "id": 10721805864, "lat": 47.374754, "lon": 8.5389355}, {"type": "node", "id": 10721805865, "lat": 47.3747618, "lon": 8.5389396}, {"type": "node", "id": 10721805866, "lat": 47.3747531, "lon": 8.5389292}, {"type": "node", "id": 10721805867, "lat": 47.3746206, "lon": 8.5389567}, {"type": "node", "id": 10721805868, "lat": 47.3746241, "lon": 8.5389664}, {"type": "node", "id": 10721805869, "lat": 47.3746222, "lon": 8.538963}, {"type": "node", "id": 10721805870, "lat": 47.3746201, "lon": 8.5389504}, {"type": "node", "id": 10721805873, "lat": 47.3746898, "lon": 8.5388874}, {"type": "node", "id": 10721805874, "lat": 47.3746868, "lon": 8.5388782}, {"type": "node", "id": 10721805875, "lat": 47.3746888, "lon": 8.5388824}, {"type": "node", "id": 10721805876, "lat": 47.3746844, "lon": 8.5388745}, {"type": "node", "id": 10721805877, "lat": 47.3746522, "lon": 8.538861}, {"type": "node", "id": 10721805878, "lat": 47.3746385, "lon": 8.538871}, {"type": "node", "id": 10721805879, "lat": 47.374645, "lon": 8.538864}, {"type": "node", "id": 10721805880, "lat": 47.3746342, "lon": 8.5388809}, {"type": "node", "id": 10721805881, "lat": 47.3746596, "lon": 8.5388617}, {"type": "node", "id": 10721805882, "lat": 47.3746897, "lon": 8.5388926}, {"type": "node", "id": 10721805883, "lat": 47.3746076, "lon": 8.5391067}, {"type": "node", "id": 10721805884, "lat": 47.3746211, "lon": 8.539003}, {"type": "node", "id": 10721805885, "lat": 47.374628, "lon": 8.5389697}, {"type": "node", "id": 10721805886, "lat": 47.3746035, "lon": 8.5391682}, {"type": "way", "id": 78574925, "nodes": [921917338, 693318519, 4552080122, 1031293638, 1031292601, 2944055006, 2944055009, 9882853435, 1031292046, 1031292809, 921917340, 1031292719, 1031295130, 1031293287, 1031294040, 2944055003, 2944054999, 2944054998, 1031293523, 1031294974, 921917387, 2944054987, 921917323, 2944054986, 4552080123, 921917338], "tags": {"amenity": "townhall", "building": "public", "layer": "1", "name": "Amtshaus IV", "owner": "Immobilien Stadt Z\u00fcrich (IMMO)", "source": "Stadt Z\u00fcrich Open Government Data; Geomatik + Vermessung; Tiefbau- und Entsorgungsdepartement"}}, {"type": "way", "id": 78574930, "nodes": [921917337, 921917372, 92485362, 2944054991, 921917359, 921917342, 921917390, 921917362, 2944055005, 2944055004, 921917337], "tags": {"addr:city": "Z\u00fcrich", "addr:country": "CH", "addr:postcode": "8001", "building": "commercial", "building:levels": "5", "owner": "BVK Immobilien", "roof:levels": "1", "source": "Stadt Z\u00fcrich Open Government Data; Geomatik + Vermessung; Tiefbau- und Entsorgungsdepartement", "start_date": "1903"}}, {"type": "way", "id": 78574931, "nodes": [921917342, 921917318, 921917406, 2944055008, 1031293593, 2944055007, 921917390, 921917342], "tags": {"addr:city": "Z\u00fcrich", "addr:country": "CH", "addr:housenumber": "11", "addr:postcode": "8001", "addr:street": "Uraniastrasse", "building": "office", "source": "Stadt Z\u00fcrich Open Government Data; Geomatik + Vermessung; Tiefbau- und Entsorgungsdepartement"}}, {"type": "way", "id": 78574947, "nodes": [921917397, 921917350, 2944054988, 921917334, 2944054990, 921917372, 921917337, 1031294035, 1031295542, 2944054996, 2944055001, 2944055002, 921917397], "tags": {"addr:city": "Z\u00fcrich", "addr:country": "CH", "addr:postcode": "8001", "building": "retail", "source": "Stadt Z\u00fcrich Open Government Data; Geomatik + Vermessung; Tiefbau- und Entsorgungsdepartement"}}, {"type": "way", "id": 78574952, "nodes": [921917340, 921917327, 921917318, 921917406, 2944055000, 921917397, 921917350, 921917387, 1031294974, 921917339, 1031292719, 921917340], "tags": {"addr:city": "Z\u00fcrich", "addr:country": "CH", "addr:housenumber": "9", "addr:postcode": "8001", "addr:street": "Uraniastrasse", "building": "commercial", "owner": "PSP Swiss Property", "source": "Stadt Z\u00fcrich Open Government Data; Geomatik + Vermessung; Tiefbau- und Entsorgungsdepartement", "start_date": "1906"}}, {"type": "way", "id": 225418785, "nodes": [2341965698, 2341965702, 2341965707, 2341965704, 2341965700, 2341965696, 2341965698], "tags": {"addr:city": "Z\u00fcrich", "addr:housenumber": "6", "addr:postcode": "8001", "addr:street": "Werdm\u00fchleplatz", "amenity": "library", "building": "retail", "building:levels": "1", "name": "Klimapavillon - Bibliothek zur gl\u00fccklichen Zukunft", "opening_hours": "Tu-Fr 10:30-18:30; Sa 09:00-17:00", "roof:levels": "0", "roof:shape": "flat", "website": "https://www.klimapavillon.ch"}}, {"type": "way", "id": 288353504, "nodes": [2919116365, 2919116379, 2919116398, 2919116428, 2919116002, 2919116003, 2919116423, 2919116401, 2919116390, 2919116365], "tags": {"addr:city": "Z\u00fcrich", "addr:country": "CH", "addr:postcode": "8001", "building": "retail"}}, {"type": "way", "id": 288353506, "nodes": [2919116412, 2919116414, 2919116436, 2919116438, 2919116437, 2919116427, 2919116412], "tags": {"addr:city": "Z\u00fcrich", "addr:country": "CH", "addr:housenumber": "1", "addr:postcode": "8001", "addr:street": "Oetenbachgasse", "building": "yes", "source": "Stadt Z\u00fcrich Open Government Data; Geomatik + Vermessung; Tiefbau- und Entsorgungsdepartement"}}, {"type": "way", "id": 288353509, "nodes": [2919116360, 2919116365, 2919116390, 2919116401, 2919116423, 2919116431, 2919116429, 2919116421, 2919116389, 2919116376, 2919116356, 2919116360], "tags": {"addr:city": "Z\u00fcrich", "addr:country": "CH", "addr:housenumber": "11", "addr:postcode": "8001", "addr:street": "Oetenbachgasse", "building": "yes", "source": "Stadt Z\u00fcrich Open Government Data; Geomatik + Vermessung; Tiefbau- und Entsorgungsdepartement"}}, {"type": "way", "id": 288353517, "nodes": [2919116415, 2919116421, 2919116429, 2919116426, 2919116419, 2919116415], "tags": {"addr:city": "Z\u00fcrich", "addr:country": "CH", "addr:housenumber": "13a", "addr:postcode": "8001", "addr:street": "Oetenbachgasse", "building": "retail", "source": "Stadt Z\u00fcrich Open Government Data; Geomatik + Vermessung; Tiefbau- und Entsorgungsdepartement"}}, {"type": "way", "id": 288353522, "nodes": [2919116407, 2919116415, 2919116419, 2919116426, 2919116425, 2919116413, 2919116407], "tags": {"addr:city": "Z\u00fcrich", "addr:country": "CH", "addr:housenumber": "15a", "addr:postcode": "8001", "addr:street": "Oetenbachgasse", "building": "retail", "source": "Stadt Z\u00fcrich Open Government Data; Geomatik + Vermessung; Tiefbau- und Entsorgungsdepartement"}}, {"type": "way", "id": 288353532, "nodes": [2919116411, 2919116412, 2919116427, 2919116437, 2919116435, 2919116430, 2919116411], "tags": {"addr:city": "Z\u00fcrich", "addr:country": "CH", "addr:housenumber": "3", "addr:postcode": "8001", "addr:street": "Oetenbachgasse", "building": "yes", "source": "Stadt Z\u00fcrich Open Government Data; Geomatik + Vermessung; Tiefbau- und Entsorgungsdepartement"}}, {"type": "way", "id": 288353548, "nodes": [2919116398, 2919116400, 2919116409, 2919116410, 2919116411, 2919116430, 2919116428, 2919116398], "tags": {"addr:city": "Z\u00fcrich", "addr:country": "CH", "addr:housenumber": "5", "addr:postcode": "8001", "addr:street": "Oetenbachgasse", "building": "yes", "source": "Stadt Z\u00fcrich Open Government Data; Geomatik + Vermessung; Tiefbau- und Entsorgungsdepartement"}}, {"type": "way", "id": 290914341, "nodes": [2944055021, 693318517, 635164800, 635164802, 2944054989, 5678613716, 2944055145, 2944055140, 5678613715, 2944055139, 2944055032, 2944055030, 2944055029, 2944055031, 2944055028, 2944055027, 2944055024, 2944055025, 2944055023, 2944055021], "tags": {"addr:city": "Z\u00fcrich", "addr:country": "CH", "addr:postcode": "8001", "building": "commercial", "building:levels": "5", "name": "Haus zur Werdm\u00fchle", "roof:levels": "1", "roof:shape": "gambrel", "source": "Stadt Z\u00fcrich Open Government Data; Geomatik + Vermessung; Tiefbau- und Entsorgungsdepartement", "start_date": "1910"}}, {"type": "way", "id": 290914343, "nodes": [10721805885, 10721805884, 2944055022, 10721805883, 10721805886, 10721805857, 10721805860, 10721805856, 10721805859, 10721805855, 10721805858, 10721805861, 2944055021, 2944055023, 2944055026, 2944055133, 10721805854, 10721805865, 10721805864, 10721805862, 10721805866, 10721805863, 10721805853, 10721805882, 10721805873, 10721805875, 10721805874, 10721805876, 10721805881, 10721805877, 10721805879, 10721805878, 10721805880, 10721805870, 10721805867, 10721805869, 10721805868, 10721805885], "tags": {"addr:city": "Z\u00fcrich", "addr:country": "CH", "addr:housename": "Modissa-Haus", "addr:housenumber": "74", "addr:postcode": "8001", "addr:street": "Bahnhofstrasse", "architect": "Werner Gantenbein", "building": "retail", "building:levels": "6", "old_name": "Zum Silberhof", "owner": "Modissa Immobilien", "source": "Stadt Z\u00fcrich Open Government Data; Geomatik + Vermessung; Tiefbau- und Entsorgungsdepartement", "start_date": "1975"}}, {"type": "way", "id": 290914345, "nodes": [2944055138, 2944055133, 2944055026, 2944055136, 2944055138], "tags": {"addr:city": "Z\u00fcrich", "addr:country": "CH", "addr:housenumber": "76", "addr:postcode": "8001", "addr:street": "Bahnhofstrasse", "building": "apartments", "building:levels": "5", "roof:levels": "1", "source": "Stadt Z\u00fcrich Open Government Data; Geomatik + Vermessung; Tiefbau- und Entsorgungsdepartement"}}, {"type": "way", "id": 290914347, "nodes": [2944055144, 2944055138, 2944055136, 2944055141, 2944055144], "tags": {"addr:city": "Z\u00fcrich", "addr:country": "CH", "addr:housenumber": "78", "addr:postcode": "8001", "addr:street": "Bahnhofstrasse", "building": "commercial", "building:levels": "5", "owner": "Silberhof Immobilien", "roof:levels": "1", "source": "Stadt Z\u00fcrich Open Government Data; Geomatik + Vermessung; Tiefbau- und Entsorgungsdepartement", "start_date": "1971"}}, {"type": "way", "id": 290914348, "nodes": [2944055145, 635172666, 2944055144, 2944055141, 2944055140, 2944055145], "tags": {"addr:city": "Z\u00fcrich", "addr:country": "CH", "addr:housenumber": "80", "addr:postcode": "8001", "addr:street": "Bahnhofstrasse", "building": "office", "building:levels": "5", "owner": "Bucherer Immobilien", "roof:levels": "1", "roof:shape": "quadruple_saltbox", "source": "Stadt Z\u00fcrich Open Government Data; Geomatik + Vermessung; Tiefbau- und Entsorgungsdepartement"}}, {"type": "way", "id": 291221093, "nodes": [2946358490, 2946358445, 2946358444, 635149689, 5630144667, 5630144665, 5630144666, 2946358466, 5630144669, 5630144668, 5629311351, 2946358476, 2946358488, 2946358446, 5678634827, 2946358498, 2946358499, 2946358491, 2946358493, 2946358483, 2946358490], "tags": {"addr:city": "Z\u00fcrich", "addr:country": "CH", "addr:postcode": "8001", "building": "commercial", "building:levels": "5", "owner": "UBS", "roof:levels": "1", "roof:shape": "hipped", "source": "Stadt Z\u00fcrich Open Government Data; Geomatik + Vermessung; Tiefbau- und Entsorgungsdepartement", "start_date": "1891"}}, {"type": "way", "id": 291221096, "nodes": [2946358450, 2946358449, 2946358452, 2946358438, 2946358453, 2946358439, 2946358461, 2946358459, 2946358460, 2946358462, 2946358465, 2946358440, 2946358471, 2946358478, 2946358487, 2946358436, 2946358434, 2946358457, 693318530, 2946358451, 2946358450], "tags": {"addr:city": "Z\u00fcrich", "addr:country": "CH", "addr:postcode": "8001", "building": "public", "name": "Amtshaus III", "owner": "Immobilien Stadt Z\u00fcrich (IMMO)", "source": "Stadt Z\u00fcrich Open Government Data; Geomatik + Vermessung; Tiefbau- und Entsorgungsdepartement"}}, {"type": "way", "id": 291221098, "nodes": [2946358473, 2946358441, 2946358472, 2946358442, 2946358443, 2946358448, 2946358435, 2946358508, 2946358530, 2946358532, 2946358736, 2946358740, 2946358741, 2946358742, 2946358739, 2946358735, 5678630700, 5678614591, 5678614592, 5678630719, 5678630698, 2946358496, 2946358495, 2946358494, 2946358492, 2946358489, 2946358485, 2946358486, 2946358484, 2946358480, 2946358479, 2946358473], "tags": {"building": "public", "building:levels": "8", "name": "Amtshaus V", "owner": "Immobilien Stadt Z\u00fcrich (IMMO)", "source": "Stadt Z\u00fcrich Open Government Data;Geomatik + Vermessung;Tiefbau- und Entsorgungsdepartement"}}]}