{"version": 0.6, "generator": "Overpass API 0.7.60.6 e2dc3e5b", "osm3s": {"timestamp_osm_base": "2023-06-29T15:19:02Z", "copyright": "The data included in this document is from www.openstreetmap.org. The data is made available under ODbL."}, "elements": [{"type": "node", "id": 94853854, "lat": 47.3721332, "lon": 8.5323713}, {"type": "node", "id": 94853855, "lat": 47.3718614, "lon": 8.5330537}, {"type": "node", "id": 94853856, "lat": 47.3721371, "lon": 8.5332969}, {"type": "node", "id": 94853858, "lat": 47.3724063, "lon": 8.5326086}, {"type": "node", "id": 339095835, "lat": 47.3720895, "lon": 8.5320059}, {"type": "node", "id": 339095839, "lat": 47.3723629, "lon": 8.5322282}, {"type": "node", "id": 339095845, "lat": 47.3723545, "lon": 8.5322535}, {"type": "node", "id": 339095847, "lat": 47.372565, "lon": 8.5324645}, {"type": "node", "id": 339095849, "lat": 47.3726695, "lon": 8.5322021}, {"type": "node", "id": 339095851, "lat": 47.3721052, "lon": 8.5317961}, {"type": "node", "id": 3336763935, "lat": 47.3718448, "lon": 8.5331374}, {"type": "node", "id": 3336763936, "lat": 47.3718738, "lon": 8.5330645}, {"type": "node", "id": 3336763937, "lat": 47.3719984, "lon": 8.5332708}, {"type": "node", "id": 3336763940, "lat": 47.372016, "lon": 8.5332267}, {"type": "node", "id": 3336763941, "lat": 47.3720339, "lon": 8.5332422}, {"type": "node", "id": 3336763942, "lat": 47.3720442, "lon": 8.5332163}, {"type": "node", "id": 3336763947, "lat": 47.3722471, "lon": 8.5330206}, {"type": "node", "id": 3336763948, "lat": 47.3722678, "lon": 8.5330386}, {"type": "node", "id": 3336763949, "lat": 47.3722979, "lon": 8.5328808}, {"type": "node", "id": 3336763951, "lat": 47.3723223, "lon": 8.5329019}, {"type": "node", "id": 3349674620, "lat": 47.3726577, "lon": 8.5331022, "tags": {"addr:city": "Z\u00fcrich", "addr:country": "CH", "addr:housenumber": "89", "addr:postcode": "8001", "addr:street": "Sihlstrasse"}}, {"type": "node", "id": 3349674621, "lat": 47.3725845, "lon": 8.5330572, "tags": {"addr:city": "Z\u00fcrich", "addr:country": "CH", "addr:housenumber": "91", "addr:postcode": "8001", "addr:street": "Sihlstrasse"}}, {"type": "node", "id": 3349674628, "lat": 47.3720255, "lon": 8.5319261}, {"type": "node", "id": 3349674629, "lat": 47.3720478, "lon": 8.531976}, {"type": "node", "id": 3349674630, "lat": 47.3720564, "lon": 8.5319483}, {"type": "node", "id": 3349674631, "lat": 47.3720614, "lon": 8.5318093}, {"type": "node", "id": 3349674632, "lat": 47.3720879, "lon": 8.5320267}, {"type": "node", "id": 3349674633, "lat": 47.3720946, "lon": 8.532052}, {"type": "node", "id": 3349674634, "lat": 47.3720967, "lon": 8.5318207}, {"type": "node", "id": 3349674635, "lat": 47.3723917, "lon": 8.5327654}, {"type": "node", "id": 3349674636, "lat": 47.3723953, "lon": 8.5323175}, {"type": "node", "id": 3349674637, "lat": 47.3724027, "lon": 8.5322985}, {"type": "node", "id": 3349674638, "lat": 47.3724144, "lon": 8.5326995}, {"type": "node", "id": 3349674639, "lat": 47.3724406, "lon": 8.5327476}, {"type": "node", "id": 3349674640, "lat": 47.3724468, "lon": 8.5327288}, {"type": "node", "id": 3349674641, "lat": 47.372447, "lon": 8.532803}, {"type": "node", "id": 3349674643, "lat": 47.3724597, "lon": 8.5327654}, {"type": "node", "id": 3349674644, "lat": 47.3724639, "lon": 8.5325678}, {"type": "node", "id": 3349674645, "lat": 47.3724909, "lon": 8.5327685}, {"type": "node", "id": 3349674649, "lat": 47.3725298, "lon": 8.5330236}, {"type": "node", "id": 3349674651, "lat": 47.3725361, "lon": 8.5328045}, {"type": "node", "id": 3349674652, "lat": 47.3725475, "lon": 8.5326347}, {"type": "node", "id": 3349674653, "lat": 47.3725568, "lon": 8.5329269}, {"type": "node", "id": 3349674654, "lat": 47.3725579, "lon": 8.5320944}, {"type": "node", "id": 3349674656, "lat": 47.372581, "lon": 8.5328402}, {"type": "node", "id": 3349674657, "lat": 47.3726013, "lon": 8.5325552}, {"type": "node", "id": 3349674658, "lat": 47.3726211, "lon": 8.5326964}, {"type": "node", "id": 3349674659, "lat": 47.3726856, "lon": 8.5331198}, {"type": "node", "id": 3349674660, "lat": 47.3726927, "lon": 8.5326316}, {"type": "node", "id": 3349674661, "lat": 47.3727217, "lon": 8.5330341}, {"type": "node", "id": 3349674662, "lat": 47.3727309, "lon": 8.5326556}, {"type": "node", "id": 3349674663, "lat": 47.3727337, "lon": 8.5322123}, {"type": "node", "id": 3349674667, "lat": 47.3727911, "lon": 8.532849}, {"type": "node", "id": 3349674668, "lat": 47.3727967, "lon": 8.5324883}, {"type": "node", "id": 3349674671, "lat": 47.3728109, "lon": 8.5324538}, {"type": "node", "id": 3349674672, "lat": 47.372818, "lon": 8.5327068}, {"type": "node", "id": 3349674676, "lat": 47.3728286, "lon": 8.532275}, {"type": "node", "id": 3349674678, "lat": 47.3728484, "lon": 8.5324831}, {"type": "node", "id": 3349674680, "lat": 47.3728534, "lon": 8.5325699}, {"type": "node", "id": 3349674681, "lat": 47.3728619, "lon": 8.5323284}, {"type": "node", "id": 3349674682, "lat": 47.3728626, "lon": 8.5325771}, {"type": "node", "id": 3349674683, "lat": 47.3728635, "lon": 8.5325431}, {"type": "node", "id": 3349674687, "lat": 47.3728973, "lon": 8.5323618}, {"type": "node", "id": 10579188417, "lat": 47.3727422, "lon": 8.5325001}, {"type": "node", "id": 10579188418, "lat": 47.3727794, "lon": 8.532488}, {"type": "node", "id": 10579188419, "lat": 47.3728059, "lon": 8.5323341}, {"type": "node", "id": 10579188420, "lat": 47.3728296, "lon": 8.5323582}, {"type": "node", "id": 10579188421, "lat": 47.3727564, "lon": 8.5324707}, {"type": "way", "id": 10696509, "nodes": [94853854, 94853855, 3336763936, 3336763935, 3336763937, 3336763940, 3336763941, 3336763942, 94853856, 3336763947, 3336763948, 3336763951, 3336763949, 94853858, 94853854], "tags": {"addr:city": "Z\u00fcrich", "addr:country": "CH", "addr:housenumber": "71", "addr:postcode": "8001", "addr:street": "Sihlstrasse", "architect": "Hermann Herter", "building": "yes", "fee": "yes", "leisure": "sports_centre", "length": "50", "name": "Hallenbad City", "opening_hours": "Mo-Su 06:00-22:00", "operator": "Stadt Z\u00fcrich, SSD, Sportamt", "owner": "Immobilien Stadt Z\u00fcrich (IMMO)", "sauna": "yes", "source": "Stadt Z\u00fcrich Open Government Data;Geomatik + Vermessung;Tiefbau- und Entsorgungsdepartement", "sport": "swimming", "start_date": "1941", "toilets:wheelchair": "yes", "website": "https://www.stadt-zuerich.ch/content/ssd/de/index/sport/schwimmen/hallenbaeder/hallenbad_city/", "wheelchair": "yes", "wikidata": "Q104633877"}}, {"type": "way", "id": 30662870, "nodes": [339095835, 3349674632, 3349674633, 339095839, 339095845, 3349674637, 3349674636, 339095847, 339095849, 3349674654, 339095851, 3349674634, 3349674631, 3349674628, 3349674630, 3349674629, 339095835], "tags": {"addr:city": "Z\u00fcrich", "addr:country": "CH", "addr:housenumber": "25", "addr:postcode": "8001", "addr:street": "Selnaustrasse", "building": "industrial", "name": "Ehemaliges Unterwerk Selnau", "note": "Unterwerk wurde Ende 1998 stillgelegt. Teile umfassen noch Betriebsanlagen, die ehemalige UW-Halle bildet das \"Haus f\u00fcr konstruktive Kunst\"", "owner": "Elektrizit\u00e4tswerk der Stadt Z\u00fcrich (EWZ)", "source": "Stadt Z\u00fcrich Open Government Data;Geomatik + Vermessung;Tiefbau- und Entsorgungsdepartement"}}, {"type": "way", "id": 328142983, "nodes": [3349674667, 3349674658, 3349674656, 3349674653, 3349674649, 3349674621, 3349674620, 3349674659, 3349674661, 3349674667], "tags": {"addr:city": "Z\u00fcrich", "addr:country": "CH", "addr:postcode": "8001", "building": "yes", "source": "Stadt Z\u00fcrich Open Government Data; Geomatik + Vermessung; Tiefbau- und Entsorgungsdepartement"}}, {"type": "way", "id": 328142986, "nodes": [3349674676, 3349674663, 3349674657, 3349674660, 10579188417, 10579188421, 10579188418, 10579188420, 10579188419, 3349674676], "tags": {"addr:city": "Z\u00fcrich", "addr:country": "CH", "addr:housenumber": "27", "addr:postcode": "8001", "addr:street": "Selnaustrasse", "building": "apartments", "source": "Stadt Z\u00fcrich Open Government Data; Geomatik + Vermessung; Tiefbau- und Entsorgungsdepartement"}}, {"type": "way", "id": 328142987, "nodes": [3349674672, 3349674662, 3349674668, 3349674683, 3349674680, 3349674682, 3349674672], "tags": {"addr:city": "Z\u00fcrich", "addr:country": "CH", "addr:housenumber": "29", "addr:postcode": "8001", "addr:street": "Selnaustrasse", "building": "apartments", "source": "Stadt Z\u00fcrich Open Government Data; Geomatik + Vermessung; Tiefbau- und Entsorgungsdepartement"}}, {"type": "way", "id": 328142988, "nodes": [3349674687, 3349674678, 3349674671, 3349674681, 3349674687], "tags": {"addr:city": "Z\u00fcrich", "addr:country": "CH", "addr:housenumber": "29a", "addr:postcode": "8001", "addr:street": "Selnaustrasse", "building": "yes", "source": "Stadt Z\u00fcrich Open Government Data; Geomatik + Vermessung; Tiefbau- und Entsorgungsdepartement"}}, {"type": "way", "id": 328142990, "nodes": [3349674645, 3349674640, 3349674638, 3349674644, 3349674652, 3349674645], "tags": {"addr:city": "Z\u00fcrich", "addr:country": "CH", "addr:housenumber": "44", "addr:postcode": "8001", "addr:street": "Selnaustrasse", "building": "apartments", "source": "Stadt Z\u00fcrich Open Government Data; Geomatik + Vermessung; Tiefbau- und Entsorgungsdepartement"}}, {"type": "way", "id": 328142991, "nodes": [3349674656, 3349674651, 3349674645, 3349674652, 3349674658, 3349674656], "tags": {"addr:city": "Z\u00fcrich", "addr:country": "CH", "addr:housenumber": "46", "addr:postcode": "8001", "addr:street": "Selnaustrasse", "building": "apartments", "source": "Stadt Z\u00fcrich Open Government Data; Geomatik + Vermessung; Tiefbau- und Entsorgungsdepartement"}}, {"type": "way", "id": 328142992, "nodes": [3349674640, 3349674639, 3349674643, 3349674641, 3349674635, 3349674638, 3349674640], "tags": {"addr:city": "Z\u00fcrich", "addr:country": "CH", "addr:housenumber": "48a", "addr:postcode": "8001", "addr:street": "Selnaustrasse", "building": "yes", "source": "Stadt Z\u00fcrich Open Government Data; Geomatik + Vermessung; Tiefbau- und Entsorgungsdepartement"}}]}