{"version": 0.6, "generator": "Overpass API 0.7.60.6 e2dc3e5b", "osm3s": {"timestamp_osm_base": "2023-06-29T15:20:01Z", "copyright": "The data included in this document is from www.openstreetmap.org. The data is made available under ODbL."}, "elements": [{"type": "node", "id": 361474558, "lat": 47.367326, "lon": 8.5375268}, {"type": "node", "id": 361474561, "lat": 47.3672111, "lon": 8.5376106}, {"type": "node", "id": 361474564, "lat": 47.3673336, "lon": 8.5379766}, {"type": "node", "id": 361474569, "lat": 47.3674485, "lon": 8.5378928}, {"type": "node", "id": 361475165, "lat": 47.3682999, "lon": 8.5379627}, {"type": "node", "id": 1042029219, "lat": 47.368362, "lon": 8.5381146}, {"type": "node", "id": 1042029255, "lat": 47.3679668, "lon": 8.5384729}, {"type": "node", "id": 1042029277, "lat": 47.3679053, "lon": 8.5383206}, {"type": "node", "id": 1275793992, "lat": 47.3674408, "lon": 8.538017}, {"type": "node", "id": 1275793993, "lat": 47.3680854, "lon": 8.5375307}, {"type": "node", "id": 1275793995, "lat": 47.3674866, "lon": 8.5382424}, {"type": "node", "id": 1275793998, "lat": 47.3683055, "lon": 8.5374681}, {"type": "node", "id": 1275793999, "lat": 47.3676302, "lon": 8.5381037}, {"type": "node", "id": 1275794003, "lat": 47.3678889, "lon": 8.5378252}, {"type": "node", "id": 1275794015, "lat": 47.3678404, "lon": 8.5377146}, {"type": "node", "id": 1275794022, "lat": 47.368227, "lon": 8.5374245}, {"type": "node", "id": 1275794028, "lat": 47.3683139, "lon": 8.5374212}, {"type": "node", "id": 1275794036, "lat": 47.3682971, "lon": 8.5373719}, {"type": "node", "id": 1275794039, "lat": 47.3681823, "lon": 8.5376202}, {"type": "node", "id": 1275794044, "lat": 47.3675964, "lon": 8.5378969}, {"type": "node", "id": 3337623216, "lat": 47.3677277, "lon": 8.5377981, "tags": {"addr:city": "Z\u00fcrich", "addr:country": "CH", "addr:housenumber": "30", "addr:postcode": "8002", "addr:street": "Gl\u00e4rnischstrasse"}}, {"type": "node", "id": 3337623217, "lat": 47.3679119, "lon": 8.5376607}, {"type": "node", "id": 3337623221, "lat": 47.3676116, "lon": 8.5379879, "tags": {"addr:city": "Z\u00fcrich", "addr:country": "CH", "addr:housenumber": "6", "addr:postcode": "8002", "addr:street": "Dreik\u00f6nigstrasse"}}, {"type": "node", "id": 3337623226, "lat": 47.3674585, "lon": 8.5374679}, {"type": "node", "id": 3337623231, "lat": 47.3675087, "lon": 8.5374302}, {"type": "node", "id": 3337623232, "lat": 47.3675362, "lon": 8.5375043}, {"type": "node", "id": 3337623233, "lat": 47.3675706, "lon": 8.5374806}, {"type": "node", "id": 3337623234, "lat": 47.3675743, "lon": 8.5377917}, {"type": "node", "id": 3337623235, "lat": 47.3675836, "lon": 8.5375134}, {"type": "node", "id": 3337623239, "lat": 47.3676366, "lon": 8.5375452}, {"type": "node", "id": 3337623243, "lat": 47.3676914, "lon": 8.5377035}, {"type": "node", "id": 3337623249, "lat": 47.3679007, "lon": 8.5378544}, {"type": "node", "id": 3337623251, "lat": 47.367915, "lon": 8.5378026}, {"type": "node", "id": 3337623253, "lat": 47.3679327, "lon": 8.5378472}, {"type": "node", "id": 3337623262, "lat": 47.368318, "lon": 8.5374978}, {"type": "node", "id": 3338263063, "lat": 47.3681373, "lon": 8.5383184}, {"type": "node", "id": 3338263064, "lat": 47.3681965, "lon": 8.5382657}, {"type": "node", "id": 3344340486, "lat": 47.36747, "lon": 8.5381448, "tags": {"addr:city": "Z\u00fcrich", "addr:country": "CH", "addr:housenumber": "7", "addr:postcode": "8002", "addr:street": "Dreik\u00f6nigstrasse", "entrance": "yes"}}, {"type": "node", "id": 4326736573, "lat": 47.3668935, "lon": 8.5385056}, {"type": "node", "id": 4326736574, "lat": 47.3669, "lon": 8.5384928}, {"type": "node", "id": 4326736575, "lat": 47.366902, "lon": 8.5384978}, {"type": "node", "id": 4326736587, "lat": 47.3669727, "lon": 8.5386958}, {"type": "node", "id": 4326736591, "lat": 47.3670088, "lon": 8.5386628}, {"type": "node", "id": 4326736592, "lat": 47.3670118, "lon": 8.5386715}, {"type": "node", "id": 5761644804, "lat": 47.3674619, "lon": 8.5380933}, {"type": "node", "id": 5761644805, "lat": 47.3674545, "lon": 8.5380983}, {"type": "node", "id": 5761644811, "lat": 47.3673468, "lon": 8.5380866}, {"type": "node", "id": 7816980287, "lat": 47.367305, "lon": 8.5375421, "tags": {"access": "customers", "entrance": "yes"}}, {"type": "node", "id": 9665390530, "lat": 47.3678864, "lon": 8.5378263}, {"type": "node", "id": 9665390531, "lat": 47.3680486, "lon": 8.5377124}, {"type": "node", "id": 9665390532, "lat": 47.3680223, "lon": 8.5377353}, {"type": "node", "id": 9665390533, "lat": 47.3680314, "lon": 8.5377577}, {"type": "node", "id": 9665390534, "lat": 47.3680573, "lon": 8.5377339}, {"type": "node", "id": 9665390535, "lat": 47.3681467, "lon": 8.5376236}, {"type": "node", "id": 9665390536, "lat": 47.3681736, "lon": 8.5375997}, {"type": "node", "id": 9665390537, "lat": 47.3681557, "lon": 8.5376448}, {"type": "node", "id": 9705198121, "lat": 47.3673121, "lon": 8.5381168}, {"type": "way", "id": 32233910, "nodes": [361474558, 7816980287, 361474561, 361474564, 361474569, 361474558], "tags": {"addr:city": "Z\u00fcrich", "addr:country": "CH", "addr:housenumber": "26", "addr:postcode": "8002", "addr:street": "Claridenstrasse", "building": "commercial", "building:levels": "5", "roof:shape": "pyramidal", "source": "Stadt Z\u00fcrich Open Government Data; Geomatik + Vermessung; Tiefbau- und Entsorgungsdepartement"}}, {"type": "way", "id": 89903752, "nodes": [361475165, 1042029219, 3338263064, 3338263063, 1042029255, 1042029277, 361475165], "tags": {"addr:city": "Z\u00fcrich", "addr:country": "CH", "addr:housenumber": "15", "addr:postcode": "8001", "addr:street": "Talstrasse", "building": "commercial", "owner": "BVK Immobilien", "source": "Stadt Z\u00fcrich Open Government Data; Geomatik + Vermessung; Tiefbau- und Entsorgungsdepartement", "start_date": "1927"}}, {"type": "way", "id": 112168946, "nodes": [1275793993, 3337623217, 1275794015, 9665390530, 1275794003, 3337623251, 3337623253, 9665390533, 9665390532, 9665390531, 9665390534, 9665390537, 9665390535, 9665390536, 1275794039, 3337623262, 1275793998, 1275794028, 1275794036, 1275794022, 1275793993], "tags": {"addr:city": "Z\u00fcrich", "addr:country": "CH", "addr:housenumber": "34", "addr:postcode": "8002", "addr:street": "Gl\u00e4rnischstrasse", "building": "yes", "building:roof": "flat"}}, {"type": "way", "id": 112168951, "nodes": [1275794015, 3337623216, 1275794044, 3337623221, 1275793999, 3337623249, 1275794003, 9665390530, 1275794015], "tags": {"addr:city": "Z\u00fcrich", "addr:country": "CH", "addr:postcode": "8002", "building": "yes", "building:roof": "tile", "source": "Stadt Z\u00fcrich Open Government Data; Geomatik + Vermessung; Tiefbau- und Entsorgungsdepartement"}}, {"type": "way", "id": 112168965, "nodes": [4326736573, 4326736575, 4326736574, 9705198121, 5761644811, 1275793992, 5761644805, 5761644804, 3344340486, 1275793995, 4326736592, 4326736591, 4326736587, 4326736573], "tags": {"building": "commercial", "building:roof": "flat"}}, {"type": "way", "id": 327050747, "nodes": [3337623231, 3337623226, 3337623234, 3337623243, 3337623239, 3337623235, 3337623233, 3337623232, 3337623231], "tags": {"addr:city": "Z\u00fcrich", "addr:country": "CH", "addr:housenumber": "8", "addr:postcode": "8002", "addr:street": "Dreik\u00f6nigstrasse", "building": "yes", "source": "Stadt Z\u00fcrich Open Government Data; Geomatik + Vermessung; Tiefbau- und Entsorgungsdepartement"}}]}