{"version": 0.6, "generator": "Overpass API 0.7.60.6 e2dc3e5b", "osm3s": {"timestamp_osm_base": "2023-06-29T12:49:34Z", "copyright": "The data included in this document is from www.openstreetmap.org. The data is made available under ODbL."}, "elements": [{"type": "node", "id": 50514784, "lat": 47.3694696, "lon": 8.5407795}, {"type": "node", "id": 50514786, "lat": 47.3694812, "lon": 8.5415965}, {"type": "node", "id": 50514789, "lat": 47.3691543, "lon": 8.5415699}, {"type": "node", "id": 50514794, "lat": 47.3690594, "lon": 8.5409115}, {"type": "node", "id": 1041911481, "lat": 47.3693839, "lon": 8.5416553}, {"type": "node", "id": 1041911509, "lat": 47.3693913, "lon": 8.5412374}, {"type": "node", "id": 1041911607, "lat": 47.3695205, "lon": 8.5409934}, {"type": "node", "id": 1041911704, "lat": 47.3692672, "lon": 8.541}, {"type": "node", "id": 1041911837, "lat": 47.3692444, "lon": 8.5416429}, {"type": "node", "id": 1041911885, "lat": 47.3692461, "lon": 8.5412264}, {"type": "node", "id": 1041911995, "lat": 47.3694068, "lon": 8.5410649}, {"type": "node", "id": 1041912052, "lat": 47.3692807, "lon": 8.5409751}, {"type": "node", "id": 1041912233, "lat": 47.3693863, "lon": 8.541588}, {"type": "node", "id": 1041912521, "lat": 47.3692235, "lon": 8.5410674}, {"type": "node", "id": 1041912668, "lat": 47.3692451, "lon": 8.5415769}, {"type": "node", "id": 1041912810, "lat": 47.369506, "lon": 8.540994}, {"type": "node", "id": 1041912914, "lat": 47.3692749, "lon": 8.541053}, {"type": "node", "id": 1042858343, "lat": 47.3694918, "lon": 8.5413478}, {"type": "node", "id": 1042858394, "lat": 47.36954, "lon": 8.540791}, {"type": "node", "id": 1057775849, "lat": 47.3695314, "lon": 8.5409808}, {"type": "node", "id": 2929715305, "lat": 47.3692838, "lon": 8.5409949}, {"type": "node", "id": 2929715308, "lat": 47.3693259, "lon": 8.5409616}, {"type": "node", "id": 2929715309, "lat": 47.3693421, "lon": 8.5410084}, {"type": "node", "id": 2929715310, "lat": 47.3693708, "lon": 8.5410507}, {"type": "node", "id": 2929715311, "lat": 47.3694004, "lon": 8.5412265}, {"type": "node", "id": 2929715312, "lat": 47.3694986, "lon": 8.5411555}, {"type": "node", "id": 2929715313, "lat": 47.3695321, "lon": 8.5409609}, {"type": "node", "id": 2929715314, "lat": 47.3695396, "lon": 8.5408009}, {"type": "node", "id": 2938529541, "lat": 47.3689769, "lon": 8.541356, "tags": {"addr:city": "Z\u00fcrich", "addr:country": "CH", "addr:housenumber": "1", "addr:postcode": "8001", "addr:street": "Kappelergasse"}}, {"type": "node", "id": 2938529550, "lat": 47.3687111, "lon": 8.5417378, "tags": {"addr:city": "Z\u00fcrich", "addr:country": "CH", "addr:housenumber": "15", "addr:postcode": "8001", "addr:street": "Stadthausquai"}}, {"type": "node", "id": 2938529551, "lat": 47.3688121, "lon": 8.5409873, "tags": {"addr:city": "Z\u00fcrich", "addr:country": "CH", "addr:housenumber": "16", "addr:postcode": "8001", "addr:street": "Fraum\u00fcnsterstrasse"}}, {"type": "node", "id": 2938530154, "lat": 47.3685482, "lon": 8.5410671}, {"type": "node", "id": 2938530157, "lat": 47.3685845, "lon": 8.5417306}, {"type": "node", "id": 2938530159, "lat": 47.3685964, "lon": 8.5414033}, {"type": "node", "id": 2938530180, "lat": 47.3689212, "lon": 8.5409554}, {"type": "node", "id": 2938530182, "lat": 47.3690324, "lon": 8.5417591}, {"type": "node", "id": 4503186670, "lat": 47.3695061, "lon": 8.5407843, "tags": {"addr:housenumber": "28", "addr:street": "Fraum\u00fcnsterstrasse"}}, {"type": "node", "id": 5209326536, "lat": 47.3694691, "lon": 8.5407923}, {"type": "node", "id": 5291778933, "lat": 47.3686339, "lon": 8.5412493}, {"type": "node", "id": 5291778934, "lat": 47.368653, "lon": 8.5413816}, {"type": "node", "id": 5291778935, "lat": 47.3686482, "lon": 8.54151}, {"type": "node", "id": 5291778936, "lat": 47.3687511, "lon": 8.5415147}, {"type": "node", "id": 5291778937, "lat": 47.3687103, "lon": 8.5412289}, {"type": "way", "id": 6111865, "nodes": [50514794, 5209326536, 50514784, 4503186670, 1042858394, 2929715314, 2929715313, 1057775849, 1041911607, 1041912810, 2929715312, 1042858343, 50514786, 1041912233, 1041911481, 1041911837, 1041912668, 50514789, 50514794]}, {"type": "way", "id": 89896413, "nodes": [1041911995, 2929715311, 1041911509, 1041911885, 1041912521, 1041912914, 1041911704, 2929715305, 1041912052, 2929715308, 2929715309, 2929715310, 1041911995]}, {"type": "way", "id": 290296833, "nodes": [2938530180, 2938529551, 2938530154, 2938530159, 2938530157, 2938529550, 2938530182, 2938529541, 2938530180]}, {"type": "way", "id": 547682939, "nodes": [5291778937, 5291778936, 5291778935, 5291778934, 5291778933, 5291778937]}, {"type": "relation", "id": 1324341, "members": [{"type": "way", "ref": 6111865, "role": "outer"}, {"type": "way", "ref": 89896413, "role": "inner"}], "tags": {"addr:city": "Z\u00fcrich", "addr:country": "CH", "addr:housename": "Stadthaus", "addr:housenumber": "17", "addr:postcode": "8001", "addr:street": "Stadthausquai", "amenity": "townhall", "building": "public", "name": "Stadthaus", "note": "Kreisb\u00fcro 1", "owner": "Immobilien Stadt Z\u00fcrich (IMMO)", "source": "Stadt Z\u00fcrich Open Government Data;Geomatik + Vermessung;Tiefbau- und Entsorgungsdepartement", "type": "multipolygon", "wikidata": "Q2327299"}}, {"type": "relation", "id": 7821613, "members": [{"type": "way", "ref": 290296833, "role": "outer"}, {"type": "way", "ref": 547682939, "role": "inner"}], "tags": {"addr:city": "Z\u00fcrich", "addr:country": "CH", "addr:postcode": "8001", "building": "commercial", "name": "Fraum\u00fcnsterpost", "owner": "Swiss Prime Site (SPS)", "start_date": "1891", "type": "multipolygon", "wikidata": "Q29933561"}}]}